{
"type": "FeatureCollection",
"name": "cycleways",
"crs": { "type": "name", "properties": { "name": "urn:ogc:def:crs:OGC:1.3:CRS84" } },
"features": [
{ "type": "Feature", "properties": { "way_id": 20, "name": "国際大通り", "highway": "tertiary", "cycleway_type": "on_road", "length_m": 224.51984524149981, "lts": 1, "surface": "paved", "lit": null }, "geometry": { "type": "MultiLineString", "coordinates": [ [ [ 139.642592799999989, 35.4487493 ], [ 139.6427414, 35.4489538 ], [ 139.6427697, 35.4490007 ], [ 139.642806, 35.4490679 ], [ 139.642824499999989, 35.4491224 ], [ 139.6428349, 35.449166 ], [ 139.642833700000011, 35.4492128 ], [ 139.64282750000001, 35.4492758 ], [ 139.642816900000014, 35.449313 ], [ 139.642800200000011, 35.4493589 ], [ 139.6427702, 35.4494049 ], [ 139.642599600000011, 35.4496557 ], [ 139.6425289, 35.4497842 ], [ 139.6424854, 35.44988 ], [ 139.64242440000001, 35.4500238 ], [ 139.6423954, 35.4501036 ], [ 139.6423557, 35.4502494 ], [ 139.6422746, 35.4506361 ] ] ] } },
{ "type": "Feature", "properties": { "way_id": 1927, "name": null, "highway": "footway", "cycleway_type": "shared_path", "length_m": 1070.7674854626744, "lts": 1, "surface": null, "lit": null }, "geometry": { "type": "MultiLineString", "coordinates": [ [ [ 139.65844580000001, 35.4136275 ], [ 139.6581602, 35.4138273 ], [ 139.657686399999989, 35.4142043 ], [ 139.6568725, 35.4149131 ], [ 139.656196, 35.4154853 ], [ 139.6560892, 35.4155736 ], [ 139.6555893, 35.4160025 ], [ 139.655341, 35.4162124 ], [ 139.6552519, 35.4162836 ], [ 139.6549018, 35.4165634 ], [ 139.654481800000013, 35.4169021 ], [ 139.6542397, 35.41708 ], [ 139.6540374, 35.4171809 ], [ 139.6539382, 35.4172336 ], [ 139.6535869, 35.4173794 ], [ 139.6530208, 35.4175776 ], [ 139.652703699999989, 35.4176906 ], [ 139.6511916, 35.4182015 ], [ 139.6510477, 35.4182461 ], [ 139.650821799999989, 35.4183248 ], [ 139.649881099999988, 35.4186522 ], [ 139.6493434, 35.4188292 ] ], [ [ 139.6493434, 35.4188292 ], [ 139.6492456, 35.4188282 ], [ 139.6492149, 35.418832 ], [ 139.649192199999987, 35.4188514 ], [ 139.649186500000013, 35.4188783 ], [ 139.649188900000013, 35.4188841 ], [ 139.6492001, 35.4189116 ], [ 139.6492365, 35.4189329 ], [ 139.6492831, 35.4189422 ], [ 139.6493093, 35.418932 ], [ 139.6493331, 35.4188903 ], [ 139.6493434, 35.4188292 ] ] ] } },
{ "type": "Feature", "properties": { "way_id": 1941, "name": null, "highway": "footway", "cycleway_type": "shared_path", "length_m": 28.132503364975133, "lts": 1, "surface": null, "lit": null }, "geometry": { "type": "MultiLineString", "coordinates": [ [ [ 139.6542397, 35.41708 ], [ 139.6541736, 35.4173272 ] ] ] } },
{ "type": "Feature", "properties": { "way_id": 1942, "name": null, "highway": "footway", "cycleway_type": "shared_path", "length_m": 117.14336339501423, "lts": 1, "surface": null, "lit": "yes" }, "geometry": { "type": "MultiLineString", "coordinates": [ [ [ 139.640073699999988, 35.4181246 ], [ 139.639958, 35.418118 ], [ 139.63976, 35.4180946 ], [ 139.6391662, 35.4180126 ], [ 139.639132600000011, 35.4180084 ], [ 139.6388749, 35.4179563 ], [ 139.638848, 35.4179509 ], [ 139.638802207592477, 35.417941611148649 ] ] ] } },
{ "type": "Feature", "properties": { "way_id": 1943, "name": null, "highway": "footway", "cycleway_type": "shared_path", "length_m": 457.85287183467295, "lts": 1, "surface": null, "lit": "yes" }, "geometry": { "type": "MultiLineString", "coordinates": [ [ [ 139.638954399999989, 35.4175423 ], [ 139.638899900000013, 35.4177488 ], [ 139.6388988, 35.4177559 ], [ 139.6388998, 35.4177597 ], [ 139.6389024, 35.4177663 ], [ 139.6389062, 35.4177688 ], [ 139.6389332, 35.4177745 ], [ 139.639244100000013, 35.4178206 ], [ 139.6398024, 35.4178837 ], [ 139.640176200000013, 35.4179184 ], [ 139.6403889, 35.4179414 ], [ 139.640566400000012, 35.4179678 ], [ 139.6406713, 35.4179732 ], [ 139.6408284, 35.4179925 ], [ 139.64117, 35.4180409 ], [ 139.6416779, 35.4181189 ], [ 139.6421099, 35.4181902 ], [ 139.6425328, 35.4182749 ], [ 139.642932, 35.4183417 ], [ 139.6431557, 35.4183792 ], [ 139.6435994, 35.4184295 ] ] ] } },
{ "type": "Feature", "properties": { "way_id": 1944, "name": null, "highway": "footway", "cycleway_type": "shared_path", "length_m": 50.413886425422675, "lts": 1, "surface": null, "lit": null }, "geometry": { "type": "MultiLineString", "coordinates": [ [ [ 139.6492831, 35.4189422 ], [ 139.6492888, 35.4189691 ], [ 139.6493104, 35.4189959 ], [ 139.649431, 35.4190407 ], [ 139.649638900000014, 35.4191247 ], [ 139.6496607, 35.4191301 ], [ 139.6497508, 35.4191574 ] ] ] } },
{ "type": "Feature", "properties": { "way_id": 2151, "name": null, "highway": "cycleway", "cycleway_type": "dedicated", "length_m": 365.82055276554109, "lts": 1, "surface": null, "lit": null }, "geometry": { "type": "MultiLineString", "coordinates": [ [ [ 139.6400997, 35.4538603 ], [ 139.6401464, 35.4538796 ], [ 139.6396408, 35.4541637 ], [ 139.638720799999987, 35.4546159 ], [ 139.638140099999987, 35.4549032 ], [ 139.6380777, 35.4549418 ], [ 139.637925700000011, 35.4550357 ], [ 139.637918, 35.4550405 ], [ 139.6377177, 35.4551643 ], [ 139.6377028, 35.4551751 ], [ 139.6373355, 35.4554418 ], [ 139.6371772, 35.4555795 ], [ 139.636963900000012, 35.4557998 ] ] ] } },
{ "type": "Feature", "properties": { "way_id": 2162, "name": null, "highway": "cycleway", "cycleway_type": "dedicated", "length_m": 688.87768605284691, "lts": 1, "surface": null, "lit": null }, "geometry": { "type": "MultiLineString", "coordinates": [ [ [ 139.6649536, 35.4312717 ], [ 139.665179, 35.4310379 ], [ 139.6666105, 35.4294632 ], [ 139.667343, 35.4286573 ], [ 139.667382, 35.4285829 ], [ 139.667552199999989, 35.4284041 ], [ 139.668076500000012, 35.4278533 ], [ 139.6686697, 35.4271905 ], [ 139.669094800000011, 35.4267023 ], [ 139.6691846, 35.4266043 ], [ 139.6693022, 35.4265159 ], [ 139.669494, 35.4263087 ] ] ] } },
{ "type": "Feature", "properties": { "way_id": 2163, "name": null, "highway": "cycleway", "cycleway_type": "dedicated", "length_m": 3.9708894958539305, "lts": 1, "surface": null, "lit": null }, "geometry": { "type": "MultiLineString", "coordinates": [ [ [ 139.667552199999989, 35.4284041 ], [ 139.667517299999986, 35.4283825 ] ] ] } },
{ "type": "Feature", "properties": { "way_id": 2164, "name": null, "highway": "cycleway", "cycleway_type": "dedicated", "length_m": 5.6551578583971551, "lts": 1, "surface": null, "lit": null }, "geometry": { "type": "MultiLineString", "coordinates": [ [ [ 139.6666105, 35.4294632 ], [ 139.6665601, 35.4294332 ] ] ] } },
{ "type": "Feature", "properties": { "way_id": 2165, "name": null, "highway": "cycleway", "cycleway_type": "dedicated", "length_m": 4.578117097897473, "lts": 1, "surface": null, "lit": null }, "geometry": { "type": "MultiLineString", "coordinates": [ [ [ 139.668076500000012, 35.4278533 ], [ 139.6680507, 35.4278179 ] ] ] } },
{ "type": "Feature", "properties": { "way_id": 2680, "name": null, "highway": "cycleway", "cycleway_type": "dedicated", "length_m": 50.553920127017264, "lts": 1, "surface": "paving_stones", "lit": null }, "geometry": { "type": "MultiLineString", "coordinates": [ [ [ 139.636972206054736, 35.456339312185364 ], [ 139.6370431, 35.4562622 ], [ 139.6372926, 35.4560437 ], [ 139.6373482, 35.4560045 ] ] ] } },
{ "type": "Feature", "properties": { "way_id": 2681, "name": null, "highway": "cycleway", "cycleway_type": "dedicated", "length_m": 354.15004453143581, "lts": 1, "surface": null, "lit": null }, "geometry": { "type": "MultiLineString", "coordinates": [ [ [ 139.6373482, 35.4560045 ], [ 139.6374854, 35.4559077 ], [ 139.637830400000013, 35.4556658 ], [ 139.6379923, 35.4555505 ], [ 139.6380574, 35.4555118 ], [ 139.63823210000001, 35.4554078 ], [ 139.6383945, 35.4553112 ], [ 139.6386038, 35.4551867 ], [ 139.6389609, 35.4549821 ], [ 139.639199600000012, 35.4548454 ], [ 139.639733, 35.4545356 ], [ 139.6404173, 35.4541506 ], [ 139.6404332, 35.4542193 ] ] ] } },
{ "type": "Feature", "properties": { "way_id": 2682, "name": null, "highway": "cycleway", "cycleway_type": "dedicated", "length_m": 49.513830009639634, "lts": 1, "surface": "paving_stones", "lit": null }, "geometry": { "type": "MultiLineString", "coordinates": [ [ [ 139.636963900000012, 35.4557998 ], [ 139.63685670000001, 35.4559105 ], [ 139.636642637933818, 35.456159880652848 ] ] ] } },
{ "type": "Feature", "properties": { "way_id": 2852, "name": null, "highway": "footway", "cycleway_type": "shared_path", "length_m": 110.40972956522768, "lts": 1, "surface": "paved", "lit": null }, "geometry": { "type": "MultiLineString", "coordinates": [ [ [ 139.6409423, 35.4391881 ], [ 139.6409864, 35.4391431 ], [ 139.6413531, 35.4387693 ], [ 139.641414700000013, 35.4387064 ], [ 139.641644, 35.4384603 ], [ 139.6417203, 35.4384343 ] ] ] } },
{ "type": "Feature", "properties": { "way_id": 2853, "name": null, "highway": "footway", "cycleway_type": "shared_path", "length_m": 98.641749706925097, "lts": 1, "surface": "paved", "lit": null }, "geometry": { "type": "MultiLineString", "coordinates": [ [ [ 139.6417203, 35.4384343 ], [ 139.6417568, 35.4384459 ], [ 139.641774, 35.4384513 ], [ 139.642239, 35.4385483 ], [ 139.6425126, 35.4386024 ], [ 139.642691500000012, 35.4386598 ], [ 139.6427385, 35.4387099 ] ] ] } },
{ "type": "Feature", "properties": { "way_id": 2857, "name": null, "highway": "footway", "cycleway_type": "dedicated", "length_m": 6.4271343338894313, "lts": 1, "surface": null, "lit": null }, "geometry": { "type": "MultiLineString", "coordinates": [ [ [ 139.6676425, 35.4235935 ], [ 139.667642199999989, 35.4235357 ] ] ] } },
{ "type": "Feature", "properties": { "way_id": 2858, "name": null, "highway": "footway", "cycleway_type": "shared_path", "length_m": 77.414688046368511, "lts": 1, "surface": "asphalt", "lit": null }, "geometry": { "type": "MultiLineString", "coordinates": [ [ [ 139.669138299999986, 35.4227632 ], [ 139.6691164, 35.4227593 ], [ 139.6692625, 35.4221834 ], [ 139.6692773, 35.4221249 ], [ 139.66930210000001, 35.4221279 ], [ 139.6693038, 35.4221183 ] ] ] } },
{ "type": "Feature", "properties": { "way_id": 2859, "name": null, "highway": "footway", "cycleway_type": "shared_path", "length_m": 236.6729158550101, "lts": 1, "surface": "asphalt", "lit": null }, "geometry": { "type": "MultiLineString", "coordinates": [ [ [ 139.6668459, 35.423605 ], [ 139.6676425, 35.4235935 ], [ 139.6687643, 35.4235773 ], [ 139.6689635, 35.4233582 ], [ 139.6690314, 35.423091 ], [ 139.6690548, 35.4230944 ] ] ] } },
{ "type": "Feature", "properties": { "way_id": 3160, "name": "国際大通り", "highway": "tertiary", "cycleway_type": "on_road", "length_m": 27.621399313818976, "lts": 1, "surface": "paved", "lit": null }, "geometry": { "type": "MultiLineString", "coordinates": [ [ [ 139.6422765, 35.4508845 ], [ 139.6422746, 35.4506361 ] ] ] } },
{ "type": "Feature", "properties": { "way_id": 3161, "name": "国際大通り", "highway": "tertiary", "cycleway_type": "on_road", "length_m": 27.650120059185078, "lts": 1, "surface": "paved", "lit": null }, "geometry": { "type": "MultiLineString", "coordinates": [ [ [ 139.6422746, 35.4506361 ], [ 139.6421734, 35.4508707 ] ] ] } },
{ "type": "Feature", "properties": { "way_id": 3163, "name": "国際大通り", "highway": "tertiary", "cycleway_type": "on_road", "length_m": 5.6109298251377737, "lts": 1, "surface": "paved", "lit": null }, "geometry": { "type": "MultiLineString", "coordinates": [ [ [ 139.642561199999989, 35.4487059 ], [ 139.642592799999989, 35.4487493 ] ] ] } },
{ "type": "Feature", "properties": { "way_id": 3172, "name": null, "highway": "cycleway", "cycleway_type": "dedicated", "length_m": 20.935190547605817, "lts": 1, "surface": null, "lit": null }, "geometry": { "type": "MultiLineString", "coordinates": [ [ [ 139.638848, 35.4179509 ], [ 139.6388753, 35.4178534 ], [ 139.6389062, 35.4177688 ] ] ] } },
{ "type": "Feature", "properties": { "way_id": 3174, "name": null, "highway": "footway", "cycleway_type": "shared_path", "length_m": 4.229194077752843, "lts": 1, "surface": null, "lit": "yes" }, "geometry": { "type": "MultiLineString", "coordinates": [ [ [ 139.638852971192449, 35.417748709468754 ], [ 139.6388988, 35.4177559 ] ] ] } },
{ "type": "Feature", "properties": { "way_id": 3192, "name": null, "highway": "footway", "cycleway_type": "shared_path", "length_m": 400.51643882013025, "lts": 1, "surface": null, "lit": "yes" }, "geometry": { "type": "MultiLineString", "coordinates": [ [ [ 139.643645099999986, 35.4184345 ], [ 139.644558499999988, 35.4185154 ], [ 139.6452314, 35.4185654 ], [ 139.6455861, 35.418595 ], [ 139.646501199999989, 35.4186617 ], [ 139.6469073, 35.4186902 ], [ 139.6469677, 35.4186944 ], [ 139.647029800000013, 35.4186988 ], [ 139.647533399999986, 35.4187247 ], [ 139.6480472, 35.4187525 ] ] ] } },
{ "type": "Feature", "properties": { "way_id": 3193, "name": null, "highway": "footway", "cycleway_type": "shared_path", "length_m": 4.178373666080895, "lts": 1, "surface": null, "lit": "yes" }, "geometry": { "type": "MultiLineString", "coordinates": [ [ [ 139.6435994, 35.4184295 ], [ 139.643645099999986, 35.4184345 ] ] ] } },
{ "type": "Feature", "properties": { "way_id": 3195, "name": null, "highway": "footway", "cycleway_type": "shared_path", "length_m": 25.799212666570945, "lts": 1, "surface": null, "lit": null }, "geometry": { "type": "MultiLineString", "coordinates": [ [ [ 139.648878, 35.4189141 ], [ 139.6488608, 35.4189299 ], [ 139.6487204, 35.418957 ], [ 139.6486649, 35.4189621 ], [ 139.6486397, 35.4189644 ], [ 139.648612899999989, 35.4189805 ] ] ] } },
{ "type": "Feature", "properties": { "way_id": 3197, "name": null, "highway": "footway", "cycleway_type": "shared_path", "length_m": 179.53366265945769, "lts": 1, "surface": null, "lit": "yes" }, "geometry": { "type": "MultiLineString", "coordinates": [ [ [ 139.642698, 35.4185026 ], [ 139.6422981, 35.418429 ], [ 139.6417137, 35.4183262 ], [ 139.641241900000011, 35.4182475 ], [ 139.6410994, 35.418233 ], [ 139.6408305, 35.4182063 ], [ 139.640804300000013, 35.4182066 ], [ 139.640753499999988, 35.418202 ] ] ] } },
{ "type": "Feature", "properties": { "way_id": 3198, "name": null, "highway": "footway", "cycleway_type": "shared_path", "length_m": 44.192365622787797, "lts": 1, "surface": null, "lit": "yes" }, "geometry": { "type": "MultiLineString", "coordinates": [ [ [ 139.6406378, 35.4181862 ], [ 139.6405691, 35.4181718 ], [ 139.6401552, 35.4181322 ] ] ] } }
]
}
