{
"type": "FeatureCollection",
"name": "traffic_signals",
"crs": { "type": "name", "properties": { "name": "urn:ogc:def:crs:OGC:1.3:CRS84" } },
"features": [
{ "type": "Feature", "properties": { "osm_id": "232055253", "highway": "traffic_signals" }, "geometry": { "type": "Point", "coordinates": [ 139.6236811, 35.4377903 ] } },
{ "type": "Feature", "properties": { "osm_id": "232055296", "highway": "traffic_signals" }, "geometry": { "type": "Point", "coordinates": [ 139.624646, 35.4382393 ] } },
{ "type": "Feature", "properties": { "osm_id": "232055324", "highway": "traffic_signals" }, "geometry": { "type": "Point", "coordinates": [ 139.62615310000001, 35.4389293 ] } },
{ "type": "Feature", "properties": { "osm_id": "232055345", "highway": "traffic_signals" }, "geometry": { "type": "Point", "coordinates": [ 139.6267632, 35.439224 ] } },
{ "type": "Feature", "properties": { "osm_id": "232055575", "highway": "traffic_signals" }, "geometry": { "type": "Point", "coordinates": [ 139.6351511, 35.4451014 ] } },
{ "type": "Feature", "properties": { "osm_id": "232055699", "highway": "traffic_signals" }, "geometry": { "type": "Point", "coordinates": [ 139.6370594, 35.4472909 ] } },
{ "type": "Feature", "properties": { "osm_id": "232055725", "highway": "traffic_signals" }, "geometry": { "type": "Point", "coordinates": [ 139.637369800000016, 35.4476979 ] } },
{ "type": "Feature", "properties": { "osm_id": "232055802", "highway": "traffic_signals" }, "geometry": { "type": "Point", "coordinates": [ 139.6383572, 35.4490862 ] } },
{ "type": "Feature", "properties": { "osm_id": "280902866", "highway": "traffic_signals" }, "geometry": { "type": "Point", "coordinates": [ 139.6310023, 35.4534953 ] } },
{ "type": "Feature", "properties": { "osm_id": "280903014", "highway": "traffic_signals" }, "geometry": { "type": "Point", "coordinates": [ 139.631121, 35.4535618 ] } },
{ "type": "Feature", "properties": { "osm_id": "281755076", "highway": "traffic_signals" }, "geometry": { "type": "Point", "coordinates": [ 139.638203800000014, 35.4553744 ] } },
{ "type": "Feature", "properties": { "osm_id": "281755081", "highway": "traffic_signals" }, "geometry": { "type": "Point", "coordinates": [ 139.6406006, 35.4540113 ] } },
{ "type": "Feature", "properties": { "osm_id": "281755133", "highway": "traffic_signals" }, "geometry": { "type": "Point", "coordinates": [ 139.6425046, 35.4485754 ] } },
{ "type": "Feature", "properties": { "osm_id": "281755187", "highway": "traffic_signals" }, "geometry": { "type": "Point", "coordinates": [ 139.6379288, 35.4550487 ] } },
{ "type": "Feature", "properties": { "osm_id": "281755205", "highway": "traffic_signals" }, "geometry": { "type": "Point", "coordinates": [ 139.640393900000021, 35.4537578 ] } },
{ "type": "Feature", "properties": { "osm_id": "283015820", "highway": "traffic_signals" }, "geometry": { "type": "Point", "coordinates": [ 139.6412024, 35.4546868 ] } },
{ "type": "Feature", "properties": { "osm_id": "283015833", "highway": "traffic_signals" }, "geometry": { "type": "Point", "coordinates": [ 139.639712300000014, 35.4529086 ] } },
{ "type": "Feature", "properties": { "osm_id": "283015845", "highway": "traffic_signals" }, "geometry": { "type": "Point", "coordinates": [ 139.639806100000015, 35.4528589 ] } },
{ "type": "Feature", "properties": { "osm_id": "283015848", "highway": "traffic_signals" }, "geometry": { "type": "Point", "coordinates": [ 139.6404862, 35.4537023 ] } },
{ "type": "Feature", "properties": { "osm_id": "283015849", "highway": "traffic_signals" }, "geometry": { "type": "Point", "coordinates": [ 139.6406897, 35.4539547 ] } },
{ "type": "Feature", "properties": { "osm_id": "283015852", "highway": "traffic_signals" }, "geometry": { "type": "Point", "coordinates": [ 139.641932, 35.4518491 ] } },
{ "type": "Feature", "properties": { "osm_id": "283626588", "highway": "traffic_signals" }, "geometry": { "type": "Point", "coordinates": [ 139.6291186, 35.4524697 ] } },
{ "type": "Feature", "properties": { "osm_id": "283626801", "highway": "traffic_signals" }, "geometry": { "type": "Point", "coordinates": [ 139.641623800000019, 35.4474197 ] } },
{ "type": "Feature", "properties": { "osm_id": "283626832", "highway": "traffic_signals" }, "geometry": { "type": "Point", "coordinates": [ 139.637662, 35.4424274 ] } },
{ "type": "Feature", "properties": { "osm_id": "283626891", "highway": "traffic_signals" }, "geometry": { "type": "Point", "coordinates": [ 139.6380983, 35.4506897 ] } },
{ "type": "Feature", "properties": { "osm_id": "283626951", "highway": "traffic_signals" }, "geometry": { "type": "Point", "coordinates": [ 139.636575600000015, 35.4468115 ] } },
{ "type": "Feature", "properties": { "osm_id": "283636186", "highway": "traffic_signals" }, "geometry": { "type": "Point", "coordinates": [ 139.6435911, 35.4480144 ] } },
{ "type": "Feature", "properties": { "osm_id": "283636196", "highway": "traffic_signals" }, "geometry": { "type": "Point", "coordinates": [ 139.6447498, 35.4477398 ] } },
{ "type": "Feature", "properties": { "osm_id": "283649626", "highway": "traffic_signals" }, "geometry": { "type": "Point", "coordinates": [ 139.6646599, 35.4319939 ] } },
{ "type": "Feature", "properties": { "osm_id": "283649628", "highway": "traffic_signals" }, "geometry": { "type": "Point", "coordinates": [ 139.664636200000018, 35.4318821 ] } },
{ "type": "Feature", "properties": { "osm_id": "283649631", "highway": "traffic_signals" }, "geometry": { "type": "Point", "coordinates": [ 139.664430800000019, 35.4312076 ] } },
{ "type": "Feature", "properties": { "osm_id": "283649761", "highway": "traffic_signals" }, "geometry": { "type": "Point", "coordinates": [ 139.6648108, 35.4223301 ] } },
{ "type": "Feature", "properties": { "osm_id": "283649782", "highway": "traffic_signals" }, "geometry": { "type": "Point", "coordinates": [ 139.6607586, 35.421596 ] } },
{ "type": "Feature", "properties": { "osm_id": "283649867", "highway": "traffic_signals" }, "geometry": { "type": "Point", "coordinates": [ 139.6516197, 35.4194012 ] } },
{ "type": "Feature", "properties": { "osm_id": "283654142", "highway": "traffic_signals" }, "geometry": { "type": "Point", "coordinates": [ 139.635827300000017, 35.4458478 ] } },
{ "type": "Feature", "properties": { "osm_id": "283654199", "highway": "traffic_signals" }, "geometry": { "type": "Point", "coordinates": [ 139.633733700000022, 35.4473453 ] } },
{ "type": "Feature", "properties": { "osm_id": "286264384", "highway": "traffic_signals" }, "geometry": { "type": "Point", "coordinates": [ 139.6372369, 35.4496593 ] } },
{ "type": "Feature", "properties": { "osm_id": "286269553", "highway": "traffic_signals" }, "geometry": { "type": "Point", "coordinates": [ 139.6375562, 35.4299001 ] } },
{ "type": "Feature", "properties": { "osm_id": "286269720", "highway": "traffic_signals" }, "geometry": { "type": "Point", "coordinates": [ 139.6400563, 35.425901 ] } },
{ "type": "Feature", "properties": { "osm_id": "286269747", "highway": "traffic_signals" }, "geometry": { "type": "Point", "coordinates": [ 139.6410908, 35.4247435 ] } },
{ "type": "Feature", "properties": { "osm_id": "286269768", "highway": "traffic_signals" }, "geometry": { "type": "Point", "coordinates": [ 139.641029, 35.424504 ] } },
{ "type": "Feature", "properties": { "osm_id": "286269792", "highway": "traffic_signals" }, "geometry": { "type": "Point", "coordinates": [ 139.6408303, 35.4226936 ] } },
{ "type": "Feature", "properties": { "osm_id": "286269795", "highway": "traffic_signals" }, "geometry": { "type": "Point", "coordinates": [ 139.640688900000015, 35.4224501 ] } },
{ "type": "Feature", "properties": { "osm_id": "286269935", "highway": "traffic_signals" }, "geometry": { "type": "Point", "coordinates": [ 139.6406063, 35.4189745 ] } },
{ "type": "Feature", "properties": { "osm_id": "286269969", "highway": "traffic_signals" }, "geometry": { "type": "Point", "coordinates": [ 139.640671600000019, 35.4180726 ] } },
{ "type": "Feature", "properties": { "osm_id": "286622433", "highway": "traffic_signals" }, "geometry": { "type": "Point", "coordinates": [ 139.6256018, 35.4423944 ] } },
{ "type": "Feature", "properties": { "osm_id": "286622447", "highway": "traffic_signals" }, "geometry": { "type": "Point", "coordinates": [ 139.626413900000017, 35.443836 ] } },
{ "type": "Feature", "properties": { "osm_id": "286622450", "highway": "traffic_signals" }, "geometry": { "type": "Point", "coordinates": [ 139.6269201, 35.4448076 ] } },
{ "type": "Feature", "properties": { "osm_id": "286622454", "highway": "traffic_signals" }, "geometry": { "type": "Point", "coordinates": [ 139.6274649, 35.4458231 ] } },
{ "type": "Feature", "properties": { "osm_id": "286622458", "highway": "traffic_signals" }, "geometry": { "type": "Point", "coordinates": [ 139.628123, 35.4470055 ] } },
{ "type": "Feature", "properties": { "osm_id": "286622477", "highway": "traffic_signals" }, "geometry": { "type": "Point", "coordinates": [ 139.630977, 35.4501484 ] } },
{ "type": "Feature", "properties": { "osm_id": "286622491", "highway": "traffic_signals" }, "geometry": { "type": "Point", "coordinates": [ 139.6324214, 35.4521786 ] } },
{ "type": "Feature", "properties": { "osm_id": "286622492", "highway": "traffic_signals" }, "geometry": { "type": "Point", "coordinates": [ 139.6325324, 35.4522583 ] } },
{ "type": "Feature", "properties": { "osm_id": "286625082", "highway": "traffic_signals" }, "geometry": { "type": "Point", "coordinates": [ 139.639204, 35.4408677 ] } },
{ "type": "Feature", "properties": { "osm_id": "286625088", "highway": "traffic_signals" }, "geometry": { "type": "Point", "coordinates": [ 139.6360052, 35.4434906 ] } },
{ "type": "Feature", "properties": { "osm_id": "286625093", "highway": "traffic_signals" }, "geometry": { "type": "Point", "coordinates": [ 139.634613200000018, 35.444694 ] } },
{ "type": "Feature", "properties": { "osm_id": "286625094", "highway": "traffic_signals" }, "geometry": { "type": "Point", "coordinates": [ 139.6350151, 35.4462298 ] } },
{ "type": "Feature", "properties": { "osm_id": "286625097", "highway": "traffic_signals" }, "geometry": { "type": "Point", "coordinates": [ 139.642823600000014, 35.4449682 ] } },
{ "type": "Feature", "properties": { "osm_id": "289289330", "highway": "traffic_signals" }, "geometry": { "type": "Point", "coordinates": [ 139.666121300000015, 35.4137098 ] } },
{ "type": "Feature", "properties": { "osm_id": "289289375", "highway": "traffic_signals" }, "geometry": { "type": "Point", "coordinates": [ 139.67138030000001, 35.4150683 ] } },
{ "type": "Feature", "properties": { "osm_id": "289289376", "highway": "traffic_signals" }, "geometry": { "type": "Point", "coordinates": [ 139.670586, 35.4141841 ] } },
{ "type": "Feature", "properties": { "osm_id": "290044471", "highway": "traffic_signals" }, "geometry": { "type": "Point", "coordinates": [ 139.671298800000017, 35.415114 ] } },
{ "type": "Feature", "properties": { "osm_id": "290044528", "highway": "traffic_signals" }, "geometry": { "type": "Point", "coordinates": [ 139.671332800000016, 35.4200501 ] } },
{ "type": "Feature", "properties": { "osm_id": "290044616", "highway": "traffic_signals" }, "geometry": { "type": "Point", "coordinates": [ 139.6766603, 35.4286504 ] } },
{ "type": "Feature", "properties": { "osm_id": "290044618", "highway": "traffic_signals" }, "geometry": { "type": "Point", "coordinates": [ 139.6767365, 35.4287904 ] } },
{ "type": "Feature", "properties": { "osm_id": "290044668", "highway": "traffic_signals" }, "geometry": { "type": "Point", "coordinates": [ 139.66404110000002, 35.4380119 ] } },
{ "type": "Feature", "properties": { "osm_id": "290044669", "highway": "traffic_signals" }, "geometry": { "type": "Point", "coordinates": [ 139.66055750000001, 35.4407354 ] } },
{ "type": "Feature", "properties": { "osm_id": "290044681", "highway": "traffic_signals" }, "geometry": { "type": "Point", "coordinates": [ 139.653937500000012, 35.443843 ] } },
{ "type": "Feature", "properties": { "osm_id": "290044682", "highway": "traffic_signals" }, "geometry": { "type": "Point", "coordinates": [ 139.653789100000012, 35.4437971 ] } },
{ "type": "Feature", "properties": { "osm_id": "290044685", "highway": "traffic_signals" }, "geometry": { "type": "Point", "coordinates": [ 139.652954, 35.4431573 ] } },
{ "type": "Feature", "properties": { "osm_id": "290044694", "highway": "traffic_signals" }, "geometry": { "type": "Point", "coordinates": [ 139.6544853, 35.4446959 ] } },
{ "type": "Feature", "properties": { "osm_id": "290044710", "highway": "traffic_signals" }, "geometry": { "type": "Point", "coordinates": [ 139.670741600000014, 35.4253636 ] } },
{ "type": "Feature", "properties": { "osm_id": "290045109", "highway": "traffic_signals" }, "geometry": { "type": "Point", "coordinates": [ 139.662290500000012, 35.4393295 ] } },
{ "type": "Feature", "properties": { "osm_id": "290045110", "highway": "traffic_signals" }, "geometry": { "type": "Point", "coordinates": [ 139.663252, 35.4400537 ] } },
{ "type": "Feature", "properties": { "osm_id": "290045151", "highway": "traffic_signals" }, "geometry": { "type": "Point", "coordinates": [ 139.644476600000019, 35.4471134 ] } },
{ "type": "Feature", "properties": { "osm_id": "290045152", "highway": "traffic_signals" }, "geometry": { "type": "Point", "coordinates": [ 139.6437616, 35.4461492 ] } },
{ "type": "Feature", "properties": { "osm_id": "290318602", "highway": "traffic_signals" }, "geometry": { "type": "Point", "coordinates": [ 139.65589940000001, 35.4206811 ] } },
{ "type": "Feature", "properties": { "osm_id": "290318642", "highway": "traffic_signals" }, "geometry": { "type": "Point", "coordinates": [ 139.665971800000023, 35.4139019 ] } },
{ "type": "Feature", "properties": { "osm_id": "290318653", "highway": "traffic_signals" }, "geometry": { "type": "Point", "coordinates": [ 139.667949100000016, 35.4166443 ] } },
{ "type": "Feature", "properties": { "osm_id": "290318662", "highway": "traffic_signals" }, "geometry": { "type": "Point", "coordinates": [ 139.669785600000012, 35.4170202 ] } },
{ "type": "Feature", "properties": { "osm_id": "290318695", "highway": "traffic_signals" }, "geometry": { "type": "Point", "coordinates": [ 139.6705049, 35.4142328 ] } },
{ "type": "Feature", "properties": { "osm_id": "290318697", "highway": "traffic_signals" }, "geometry": { "type": "Point", "coordinates": [ 139.670439, 35.4140909 ] } },
{ "type": "Feature", "properties": { "osm_id": "290318719", "highway": "traffic_signals" }, "geometry": { "type": "Point", "coordinates": [ 139.669650600000011, 35.4189002 ] } },
{ "type": "Feature", "properties": { "osm_id": "290318724", "highway": "traffic_signals" }, "geometry": { "type": "Point", "coordinates": [ 139.669189900000021, 35.4221005 ] } },
{ "type": "Feature", "properties": { "osm_id": "290318752", "highway": "traffic_signals" }, "geometry": { "type": "Point", "coordinates": [ 139.669798, 35.4264054 ] } },
{ "type": "Feature", "properties": { "osm_id": "290318766", "highway": "traffic_signals" }, "geometry": { "type": "Point", "coordinates": [ 139.6696751, 35.4263253 ] } },
{ "type": "Feature", "properties": { "osm_id": "290320793", "highway": "traffic_signals" }, "geometry": { "type": "Point", "coordinates": [ 139.666860400000019, 35.419156 ] } },
{ "type": "Feature", "properties": { "osm_id": "290320816", "highway": "traffic_signals" }, "geometry": { "type": "Point", "coordinates": [ 139.67034240000001, 35.4188896 ] } },
{ "type": "Feature", "properties": { "osm_id": "290320817", "highway": "traffic_signals" }, "geometry": { "type": "Point", "coordinates": [ 139.6705882, 35.4188835 ] } },
{ "type": "Feature", "properties": { "osm_id": "290320818", "highway": "traffic_signals" }, "geometry": { "type": "Point", "coordinates": [ 139.6699922, 35.4169469 ] } },
{ "type": "Feature", "properties": { "osm_id": "290321234", "highway": "traffic_signals" }, "geometry": { "type": "Point", "coordinates": [ 139.666934, 35.4295404 ] } },
{ "type": "Feature", "properties": { "osm_id": "290321245", "highway": "traffic_signals" }, "geometry": { "type": "Point", "coordinates": [ 139.6688485, 35.432017 ] } },
{ "type": "Feature", "properties": { "osm_id": "290321271", "highway": "traffic_signals" }, "geometry": { "type": "Point", "coordinates": [ 139.6692308, 35.4338591 ] } },
{ "type": "Feature", "properties": { "osm_id": "290321274", "highway": "traffic_signals" }, "geometry": { "type": "Point", "coordinates": [ 139.6670585, 35.4294144 ] } },
{ "type": "Feature", "properties": { "osm_id": "290321291", "highway": "traffic_signals" }, "geometry": { "type": "Point", "coordinates": [ 139.66891990000002, 35.4319219 ] } },
{ "type": "Feature", "properties": { "osm_id": "290321919", "highway": "traffic_signals" }, "geometry": { "type": "Point", "coordinates": [ 139.642071500000014, 35.4518664 ] } },
{ "type": "Feature", "properties": { "osm_id": "290322031", "highway": "traffic_signals" }, "geometry": { "type": "Point", "coordinates": [ 139.6400755, 35.4454858 ] } },
{ "type": "Feature", "properties": { "osm_id": "290322033", "highway": "traffic_signals" }, "geometry": { "type": "Point", "coordinates": [ 139.640138900000011, 35.4454536 ] } },
{ "type": "Feature", "properties": { "osm_id": "290322036", "highway": "traffic_signals" }, "geometry": { "type": "Point", "coordinates": [ 139.641201, 35.4449144 ] } },
{ "type": "Feature", "properties": { "osm_id": "290322037", "highway": "traffic_signals" }, "geometry": { "type": "Point", "coordinates": [ 139.642311800000016, 35.4443498 ] } },
{ "type": "Feature", "properties": { "osm_id": "290322042", "highway": "traffic_signals" }, "geometry": { "type": "Point", "coordinates": [ 139.6426812, 35.4468273 ] } },
{ "type": "Feature", "properties": { "osm_id": "290322045", "highway": "traffic_signals" }, "geometry": { "type": "Point", "coordinates": [ 139.6409251, 35.4464478 ] } },
{ "type": "Feature", "properties": { "osm_id": "290322046", "highway": "traffic_signals" }, "geometry": { "type": "Point", "coordinates": [ 139.6408424, 35.4464846 ] } },
{ "type": "Feature", "properties": { "osm_id": "290348697", "highway": "traffic_signals" }, "geometry": { "type": "Point", "coordinates": [ 139.6520319, 35.4421355 ] } },
{ "type": "Feature", "properties": { "osm_id": "290348762", "highway": "traffic_signals" }, "geometry": { "type": "Point", "coordinates": [ 139.6538468, 35.4398817 ] } },
{ "type": "Feature", "properties": { "osm_id": "290378435", "highway": "traffic_signals" }, "geometry": { "type": "Point", "coordinates": [ 139.653867100000014, 35.4374039 ] } },
{ "type": "Feature", "properties": { "osm_id": "290378447", "highway": "traffic_signals" }, "geometry": { "type": "Point", "coordinates": [ 139.654092100000014, 35.4376304 ] } },
{ "type": "Feature", "properties": { "osm_id": "290378472", "highway": "traffic_signals" }, "geometry": { "type": "Point", "coordinates": [ 139.654462200000012, 35.4376438 ] } },
{ "type": "Feature", "properties": { "osm_id": "290378495", "highway": "traffic_signals" }, "geometry": { "type": "Point", "coordinates": [ 139.6546803, 35.4377035 ] } },
{ "type": "Feature", "properties": { "osm_id": "290378547", "highway": "traffic_signals" }, "geometry": { "type": "Point", "coordinates": [ 139.654754, 35.4383425 ] } },
{ "type": "Feature", "properties": { "osm_id": "290378797", "highway": "traffic_signals" }, "geometry": { "type": "Point", "coordinates": [ 139.664352, 35.4312756 ] } },
{ "type": "Feature", "properties": { "osm_id": "290378802", "highway": "traffic_signals" }, "geometry": { "type": "Point", "coordinates": [ 139.664575400000018, 35.4319836 ] } },
{ "type": "Feature", "properties": { "osm_id": "290378803", "highway": "traffic_signals" }, "geometry": { "type": "Point", "coordinates": [ 139.6645986, 35.4320759 ] } },
{ "type": "Feature", "properties": { "osm_id": "290378863", "highway": "traffic_signals" }, "geometry": { "type": "Point", "coordinates": [ 139.649462100000022, 35.4377007 ] } },
{ "type": "Feature", "properties": { "osm_id": "290378938", "highway": "traffic_signals" }, "geometry": { "type": "Point", "coordinates": [ 139.648142, 35.4376374 ] } },
{ "type": "Feature", "properties": { "osm_id": "290379014", "highway": "traffic_signals" }, "geometry": { "type": "Point", "coordinates": [ 139.6515827, 35.4332681 ] } },
{ "type": "Feature", "properties": { "osm_id": "290379015", "highway": "traffic_signals" }, "geometry": { "type": "Point", "coordinates": [ 139.6523541, 35.4335157 ] } },
{ "type": "Feature", "properties": { "osm_id": "290379089", "highway": "traffic_signals" }, "geometry": { "type": "Point", "coordinates": [ 139.65342320000002, 35.4366625 ] } },
{ "type": "Feature", "properties": { "osm_id": "290379101", "highway": "traffic_signals" }, "geometry": { "type": "Point", "coordinates": [ 139.6535766, 35.4370267 ] } },
{ "type": "Feature", "properties": { "osm_id": "290382334", "highway": "traffic_signals" }, "geometry": { "type": "Point", "coordinates": [ 139.6265692, 35.441964 ] } },
{ "type": "Feature", "properties": { "osm_id": "290382378", "highway": "traffic_signals" }, "geometry": { "type": "Point", "coordinates": [ 139.6313313, 35.4468464 ] } },
{ "type": "Feature", "properties": { "osm_id": "290382380", "highway": "traffic_signals" }, "geometry": { "type": "Point", "coordinates": [ 139.6287072, 35.4478648 ] } },
{ "type": "Feature", "properties": { "osm_id": "290384457", "highway": "traffic_signals" }, "geometry": { "type": "Point", "coordinates": [ 139.63142160000001, 35.442267 ] } },
{ "type": "Feature", "properties": { "osm_id": "290384636", "highway": "traffic_signals" }, "geometry": { "type": "Point", "coordinates": [ 139.6269781, 35.4481759 ] } },
{ "type": "Feature", "properties": { "osm_id": "291939802", "highway": "traffic_signals" }, "geometry": { "type": "Point", "coordinates": [ 139.6305001, 35.4499017 ] } },
{ "type": "Feature", "properties": { "osm_id": "291939806", "highway": "traffic_signals" }, "geometry": { "type": "Point", "coordinates": [ 139.6285708, 35.4522499 ] } },
{ "type": "Feature", "properties": { "osm_id": "291939809", "highway": "traffic_signals" }, "geometry": { "type": "Point", "coordinates": [ 139.6285244, 35.4523114 ] } },
{ "type": "Feature", "properties": { "osm_id": "291939822", "highway": "traffic_signals" }, "geometry": { "type": "Point", "coordinates": [ 139.6309425, 35.4535671 ] } },
{ "type": "Feature", "properties": { "osm_id": "291939824", "highway": "traffic_signals" }, "geometry": { "type": "Point", "coordinates": [ 139.6310632, 35.4536321 ] } },
{ "type": "Feature", "properties": { "osm_id": "291939841", "highway": "traffic_signals" }, "geometry": { "type": "Point", "coordinates": [ 139.6302061, 35.4433397 ] } },
{ "type": "Feature", "properties": { "osm_id": "292233325", "highway": "traffic_signals" }, "geometry": { "type": "Point", "coordinates": [ 139.623808600000018, 35.4394341 ] } },
{ "type": "Feature", "properties": { "osm_id": "292233335", "highway": "traffic_signals" }, "geometry": { "type": "Point", "coordinates": [ 139.629789500000015, 35.4411926 ] } },
{ "type": "Feature", "properties": { "osm_id": "292233369", "highway": "traffic_signals" }, "geometry": { "type": "Point", "coordinates": [ 139.6359325, 35.444408 ] } },
{ "type": "Feature", "properties": { "osm_id": "292233373", "highway": "traffic_signals" }, "geometry": { "type": "Point", "coordinates": [ 139.63673750000001, 35.4452682 ] } },
{ "type": "Feature", "properties": { "osm_id": "292233377", "highway": "traffic_signals" }, "geometry": { "type": "Point", "coordinates": [ 139.639392, 35.4485439 ] } },
{ "type": "Feature", "properties": { "osm_id": "292233378", "highway": "traffic_signals" }, "geometry": { "type": "Point", "coordinates": [ 139.640227800000019, 35.4496706 ] } },
{ "type": "Feature", "properties": { "osm_id": "292233405", "highway": "traffic_signals" }, "geometry": { "type": "Point", "coordinates": [ 139.64263680000002, 35.4467583 ] } },
{ "type": "Feature", "properties": { "osm_id": "292233418", "highway": "traffic_signals" }, "geometry": { "type": "Point", "coordinates": [ 139.637999400000012, 35.4507378 ] } },
{ "type": "Feature", "properties": { "osm_id": "292233423", "highway": "traffic_signals" }, "geometry": { "type": "Point", "coordinates": [ 139.634310100000022, 35.4454876 ] } },
{ "type": "Feature", "properties": { "osm_id": "292233433", "highway": "traffic_signals" }, "geometry": { "type": "Point", "coordinates": [ 139.6348471, 35.4448707 ] } },
{ "type": "Feature", "properties": { "osm_id": "292233479", "highway": "traffic_signals" }, "geometry": { "type": "Point", "coordinates": [ 139.637167200000022, 35.4430199 ] } },
{ "type": "Feature", "properties": { "osm_id": "292233483", "highway": "traffic_signals" }, "geometry": { "type": "Point", "coordinates": [ 139.637729900000011, 35.4425278 ] } },
{ "type": "Feature", "properties": { "osm_id": "292233503", "highway": "traffic_signals" }, "geometry": { "type": "Point", "coordinates": [ 139.6391721, 35.4501759 ] } },
{ "type": "Feature", "properties": { "osm_id": "292233512", "highway": "traffic_signals" }, "geometry": { "type": "Point", "coordinates": [ 139.638981300000012, 35.4440104 ] } },
{ "type": "Feature", "properties": { "osm_id": "292233655", "highway": "traffic_signals" }, "geometry": { "type": "Point", "coordinates": [ 139.63634110000001, 35.4500815 ] } },
{ "type": "Feature", "properties": { "osm_id": "292233664", "highway": "traffic_signals" }, "geometry": { "type": "Point", "coordinates": [ 139.63213380000002, 35.4508763 ] } },
{ "type": "Feature", "properties": { "osm_id": "292233673", "highway": "traffic_signals" }, "geometry": { "type": "Point", "coordinates": [ 139.6329148, 35.4497939 ] } },
{ "type": "Feature", "properties": { "osm_id": "292233685", "highway": "traffic_signals" }, "geometry": { "type": "Point", "coordinates": [ 139.633821800000021, 35.4497285 ] } },
{ "type": "Feature", "properties": { "osm_id": "292233686", "highway": "traffic_signals" }, "geometry": { "type": "Point", "coordinates": [ 139.6330364, 35.4497231 ] } },
{ "type": "Feature", "properties": { "osm_id": "292233693", "highway": "traffic_signals" }, "geometry": { "type": "Point", "coordinates": [ 139.6329642, 35.448215 ] } },
{ "type": "Feature", "properties": { "osm_id": "292233701", "highway": "traffic_signals" }, "geometry": { "type": "Point", "coordinates": [ 139.636282100000017, 35.4462719 ] } },
{ "type": "Feature", "properties": { "osm_id": "292233724", "highway": "traffic_signals" }, "geometry": { "type": "Point", "coordinates": [ 139.637817900000016, 35.4446709 ] } },
{ "type": "Feature", "properties": { "osm_id": "292233747", "highway": "traffic_signals" }, "geometry": { "type": "Point", "coordinates": [ 139.640458700000011, 35.4479659 ] } },
{ "type": "Feature", "properties": { "osm_id": "292233750", "highway": "traffic_signals" }, "geometry": { "type": "Point", "coordinates": [ 139.6405023, 35.4480262 ] } },
{ "type": "Feature", "properties": { "osm_id": "292233751", "highway": "traffic_signals" }, "geometry": { "type": "Point", "coordinates": [ 139.6413153, 35.4491502 ] } },
{ "type": "Feature", "properties": { "osm_id": "292233755", "highway": "traffic_signals" }, "geometry": { "type": "Point", "coordinates": [ 139.637925100000018, 35.4485866 ] } },
{ "type": "Feature", "properties": { "osm_id": "292233780", "highway": "traffic_signals" }, "geometry": { "type": "Point", "coordinates": [ 139.6376745, 35.4480976 ] } },
{ "type": "Feature", "properties": { "osm_id": "292233784", "highway": "traffic_signals" }, "geometry": { "type": "Point", "coordinates": [ 139.632748, 35.4370127 ] } },
{ "type": "Feature", "properties": { "osm_id": "292233846", "highway": "traffic_signals" }, "geometry": { "type": "Point", "coordinates": [ 139.6307352, 35.43988 ] } },
{ "type": "Feature", "properties": { "osm_id": "292233848", "highway": "traffic_signals" }, "geometry": { "type": "Point", "coordinates": [ 139.630479, 35.4402518 ] } },
{ "type": "Feature", "properties": { "osm_id": "292233851", "highway": "traffic_signals" }, "geometry": { "type": "Point", "coordinates": [ 139.624963900000012, 35.4377537 ] } },
{ "type": "Feature", "properties": { "osm_id": "292233903", "highway": "traffic_signals" }, "geometry": { "type": "Point", "coordinates": [ 139.6326718, 35.4411213 ] } },
{ "type": "Feature", "properties": { "osm_id": "292233933", "highway": "traffic_signals" }, "geometry": { "type": "Point", "coordinates": [ 139.632992300000012, 35.4408477 ] } },
{ "type": "Feature", "properties": { "osm_id": "292253813", "highway": "traffic_signals" }, "geometry": { "type": "Point", "coordinates": [ 139.6362719, 35.4436128 ] } },
{ "type": "Feature", "properties": { "osm_id": "293559274", "highway": "traffic_signals" }, "geometry": { "type": "Point", "coordinates": [ 139.630602300000021, 35.4499546 ] } },
{ "type": "Feature", "properties": { "osm_id": "294043138", "highway": "traffic_signals" }, "geometry": { "type": "Point", "coordinates": [ 139.6374222, 35.4369133 ] } },
{ "type": "Feature", "properties": { "osm_id": "294043139", "highway": "traffic_signals" }, "geometry": { "type": "Point", "coordinates": [ 139.633856, 35.4400826 ] } },
{ "type": "Feature", "properties": { "osm_id": "294043140", "highway": "traffic_signals" }, "geometry": { "type": "Point", "coordinates": [ 139.635705800000011, 35.4384219 ] } },
{ "type": "Feature", "properties": { "osm_id": "294043146", "highway": "traffic_signals" }, "geometry": { "type": "Point", "coordinates": [ 139.63837860000001, 35.4351196 ] } },
{ "type": "Feature", "properties": { "osm_id": "294043153", "highway": "traffic_signals" }, "geometry": { "type": "Point", "coordinates": [ 139.6395267, 35.4325975 ] } },
{ "type": "Feature", "properties": { "osm_id": "294043160", "highway": "traffic_signals" }, "geometry": { "type": "Point", "coordinates": [ 139.638481, 35.4316092 ] } },
{ "type": "Feature", "properties": { "osm_id": "294043263", "highway": "traffic_signals" }, "geometry": { "type": "Point", "coordinates": [ 139.656687, 35.4208339 ] } },
{ "type": "Feature", "properties": { "osm_id": "294043268", "highway": "traffic_signals" }, "geometry": { "type": "Point", "coordinates": [ 139.653828, 35.4171544 ] } },
{ "type": "Feature", "properties": { "osm_id": "294045118", "highway": "traffic_signals" }, "geometry": { "type": "Point", "coordinates": [ 139.6465844, 35.4344474 ] } },
{ "type": "Feature", "properties": { "osm_id": "294045148", "highway": "traffic_signals" }, "geometry": { "type": "Point", "coordinates": [ 139.648907400000013, 35.443587 ] } },
{ "type": "Feature", "properties": { "osm_id": "294045151", "highway": "traffic_signals" }, "geometry": { "type": "Point", "coordinates": [ 139.648862, 35.4435464 ] } },
{ "type": "Feature", "properties": { "osm_id": "294046197", "highway": "traffic_signals" }, "geometry": { "type": "Point", "coordinates": [ 139.66368940000001, 35.4196273 ] } },
{ "type": "Feature", "properties": { "osm_id": "294046204", "highway": "traffic_signals" }, "geometry": { "type": "Point", "coordinates": [ 139.6675586, 35.423537 ] } },
{ "type": "Feature", "properties": { "osm_id": "294046208", "highway": "traffic_signals" }, "geometry": { "type": "Point", "coordinates": [ 139.6704904, 35.422252 ] } },
{ "type": "Feature", "properties": { "osm_id": "294046209", "highway": "traffic_signals" }, "geometry": { "type": "Point", "coordinates": [ 139.6707499, 35.4222643 ] } },
{ "type": "Feature", "properties": { "osm_id": "294046219", "highway": "traffic_signals" }, "geometry": { "type": "Point", "coordinates": [ 139.660024600000014, 35.4214609 ] } },
{ "type": "Feature", "properties": { "osm_id": "294046297", "highway": "traffic_signals" }, "geometry": { "type": "Point", "coordinates": [ 139.6578393, 35.4210686 ] } },
{ "type": "Feature", "properties": { "osm_id": "294046313", "highway": "traffic_signals" }, "geometry": { "type": "Point", "coordinates": [ 139.6565105, 35.4215003 ] } },
{ "type": "Feature", "properties": { "osm_id": "294083641", "highway": "traffic_signals" }, "geometry": { "type": "Point", "coordinates": [ 139.665994800000021, 35.4250366 ] } },
{ "type": "Feature", "properties": { "osm_id": "294083661", "highway": "traffic_signals" }, "geometry": { "type": "Point", "coordinates": [ 139.6636794, 35.4292285 ] } },
{ "type": "Feature", "properties": { "osm_id": "294083663", "highway": "traffic_signals" }, "geometry": { "type": "Point", "coordinates": [ 139.666051400000015, 35.4235456 ] } },
{ "type": "Feature", "properties": { "osm_id": "294083665", "highway": "traffic_signals" }, "geometry": { "type": "Point", "coordinates": [ 139.6661052, 35.4250337 ] } },
{ "type": "Feature", "properties": { "osm_id": "294083699", "highway": "traffic_signals" }, "geometry": { "type": "Point", "coordinates": [ 139.665483600000016, 35.4276697 ] } },
{ "type": "Feature", "properties": { "osm_id": "294083700", "highway": "traffic_signals" }, "geometry": { "type": "Point", "coordinates": [ 139.665557, 35.4277176 ] } },
{ "type": "Feature", "properties": { "osm_id": "294083741", "highway": "traffic_signals" }, "geometry": { "type": "Point", "coordinates": [ 139.6660938, 35.4258068 ] } },
{ "type": "Feature", "properties": { "osm_id": "294087202", "highway": "traffic_signals" }, "geometry": { "type": "Point", "coordinates": [ 139.653924, 35.4437029 ] } },
{ "type": "Feature", "properties": { "osm_id": "294087214", "highway": "traffic_signals" }, "geometry": { "type": "Point", "coordinates": [ 139.6530856, 35.4431053 ] } },
{ "type": "Feature", "properties": { "osm_id": "294087216", "highway": "traffic_signals" }, "geometry": { "type": "Point", "coordinates": [ 139.6507995, 35.4421876 ] } },
{ "type": "Feature", "properties": { "osm_id": "294087232", "highway": "traffic_signals" }, "geometry": { "type": "Point", "coordinates": [ 139.6449107, 35.4395906 ] } },
{ "type": "Feature", "properties": { "osm_id": "294089208", "highway": "traffic_signals" }, "geometry": { "type": "Point", "coordinates": [ 139.6424541, 35.4343393 ] } },
{ "type": "Feature", "properties": { "osm_id": "294089303", "highway": "traffic_signals" }, "geometry": { "type": "Point", "coordinates": [ 139.641765, 35.4375325 ] } },
{ "type": "Feature", "properties": { "osm_id": "294089305", "highway": "traffic_signals" }, "geometry": { "type": "Point", "coordinates": [ 139.641863700000016, 35.4378583 ] } },
{ "type": "Feature", "properties": { "osm_id": "294089331", "highway": "traffic_signals" }, "geometry": { "type": "Point", "coordinates": [ 139.6378814, 35.43652 ] } },
{ "type": "Feature", "properties": { "osm_id": "294089339", "highway": "traffic_signals" }, "geometry": { "type": "Point", "coordinates": [ 139.653980500000017, 35.4324002 ] } },
{ "type": "Feature", "properties": { "osm_id": "294089342", "highway": "traffic_signals" }, "geometry": { "type": "Point", "coordinates": [ 139.655786800000016, 35.4322228 ] } },
{ "type": "Feature", "properties": { "osm_id": "294089347", "highway": "traffic_signals" }, "geometry": { "type": "Point", "coordinates": [ 139.6518098, 35.4323062 ] } },
{ "type": "Feature", "properties": { "osm_id": "304559456", "highway": "traffic_signals" }, "geometry": { "type": "Point", "coordinates": [ 139.6502982, 35.4448671 ] } },
{ "type": "Feature", "properties": { "osm_id": "304562837", "highway": "traffic_signals" }, "geometry": { "type": "Point", "coordinates": [ 139.6480678, 35.4441559 ] } },
{ "type": "Feature", "properties": { "osm_id": "304562838", "highway": "traffic_signals" }, "geometry": { "type": "Point", "coordinates": [ 139.648000600000017, 35.4441049 ] } },
{ "type": "Feature", "properties": { "osm_id": "304562862", "highway": "traffic_signals" }, "geometry": { "type": "Point", "coordinates": [ 139.648288800000017, 35.4412372 ] } },
{ "type": "Feature", "properties": { "osm_id": "311952939", "highway": "traffic_signals" }, "geometry": { "type": "Point", "coordinates": [ 139.645076, 35.4358388 ] } },
{ "type": "Feature", "properties": { "osm_id": "311953079", "highway": "traffic_signals" }, "geometry": { "type": "Point", "coordinates": [ 139.6463254, 35.4343845 ] } },
{ "type": "Feature", "properties": { "osm_id": "312107409", "highway": "traffic_signals" }, "geometry": { "type": "Point", "coordinates": [ 139.6500408, 35.4323082 ] } },
{ "type": "Feature", "properties": { "osm_id": "312107410", "highway": "traffic_signals" }, "geometry": { "type": "Point", "coordinates": [ 139.6494523, 35.4324865 ] } },
{ "type": "Feature", "properties": { "osm_id": "312107412", "highway": "traffic_signals" }, "geometry": { "type": "Point", "coordinates": [ 139.6458184, 35.4277733 ] } },
{ "type": "Feature", "properties": { "osm_id": "312109165", "highway": "traffic_signals" }, "geometry": { "type": "Point", "coordinates": [ 139.6372135, 35.4394875 ] } },
{ "type": "Feature", "properties": { "osm_id": "312109166", "highway": "traffic_signals" }, "geometry": { "type": "Point", "coordinates": [ 139.6355015, 35.4410603 ] } },
{ "type": "Feature", "properties": { "osm_id": "312109168", "highway": "traffic_signals" }, "geometry": { "type": "Point", "coordinates": [ 139.634242100000023, 35.4422058 ] } },
{ "type": "Feature", "properties": { "osm_id": "312109196", "highway": "traffic_signals" }, "geometry": { "type": "Point", "coordinates": [ 139.62939350000002, 35.4440463 ] } },
{ "type": "Feature", "properties": { "osm_id": "312109255", "highway": "traffic_signals" }, "geometry": { "type": "Point", "coordinates": [ 139.6571657, 35.4328251 ] } },
{ "type": "Feature", "properties": { "osm_id": "312109259", "highway": "traffic_signals" }, "geometry": { "type": "Point", "coordinates": [ 139.657753, 35.433911 ] } },
{ "type": "Feature", "properties": { "osm_id": "312161736", "highway": "traffic_signals" }, "geometry": { "type": "Point", "coordinates": [ 139.66545, 35.4226234 ] } },
{ "type": "Feature", "properties": { "osm_id": "312161761", "highway": "traffic_signals" }, "geometry": { "type": "Point", "coordinates": [ 139.66735060000002, 35.4221527 ] } },
{ "type": "Feature", "properties": { "osm_id": "312161967", "highway": "traffic_signals" }, "geometry": { "type": "Point", "coordinates": [ 139.6515746, 35.4194654 ] } },
{ "type": "Feature", "properties": { "osm_id": "312161973", "highway": "traffic_signals" }, "geometry": { "type": "Point", "coordinates": [ 139.6558794, 35.4207515 ] } },
{ "type": "Feature", "properties": { "osm_id": "312161974", "highway": "traffic_signals" }, "geometry": { "type": "Point", "coordinates": [ 139.656668200000013, 35.4208997 ] } },
{ "type": "Feature", "properties": { "osm_id": "312161975", "highway": "traffic_signals" }, "geometry": { "type": "Point", "coordinates": [ 139.6578178, 35.4211378 ] } },
{ "type": "Feature", "properties": { "osm_id": "312161977", "highway": "traffic_signals" }, "geometry": { "type": "Point", "coordinates": [ 139.6600072, 35.421528 ] } },
{ "type": "Feature", "properties": { "osm_id": "312161978", "highway": "traffic_signals" }, "geometry": { "type": "Point", "coordinates": [ 139.66074260000002, 35.4216578 ] } },
{ "type": "Feature", "properties": { "osm_id": "312161981", "highway": "traffic_signals" }, "geometry": { "type": "Point", "coordinates": [ 139.6648099, 35.4223972 ] } },
{ "type": "Feature", "properties": { "osm_id": "312161985", "highway": "traffic_signals" }, "geometry": { "type": "Point", "coordinates": [ 139.6653766, 35.4226837 ] } },
{ "type": "Feature", "properties": { "osm_id": "312161993", "highway": "traffic_signals" }, "geometry": { "type": "Point", "coordinates": [ 139.66596370000002, 35.4235454 ] } },
{ "type": "Feature", "properties": { "osm_id": "312167135", "highway": "traffic_signals" }, "geometry": { "type": "Point", "coordinates": [ 139.6602392, 35.4376677 ] } },
{ "type": "Feature", "properties": { "osm_id": "312167139", "highway": "traffic_signals" }, "geometry": { "type": "Point", "coordinates": [ 139.661854700000021, 35.4363247 ] } },
{ "type": "Feature", "properties": { "osm_id": "312167171", "highway": "traffic_signals" }, "geometry": { "type": "Point", "coordinates": [ 139.6426457, 35.4428519 ] } },
{ "type": "Feature", "properties": { "osm_id": "312167172", "highway": "traffic_signals" }, "geometry": { "type": "Point", "coordinates": [ 139.643160600000016, 35.4435081 ] } },
{ "type": "Feature", "properties": { "osm_id": "312167173", "highway": "traffic_signals" }, "geometry": { "type": "Point", "coordinates": [ 139.642333400000012, 35.4410009 ] } },
{ "type": "Feature", "properties": { "osm_id": "312167349", "highway": "traffic_signals" }, "geometry": { "type": "Point", "coordinates": [ 139.644539, 35.4456925 ] } },
{ "type": "Feature", "properties": { "osm_id": "312167350", "highway": "traffic_signals" }, "geometry": { "type": "Point", "coordinates": [ 139.644584400000014, 35.4457484 ] } },
{ "type": "Feature", "properties": { "osm_id": "312167373", "highway": "traffic_signals" }, "geometry": { "type": "Point", "coordinates": [ 139.6348213, 35.4391959 ] } },
{ "type": "Feature", "properties": { "osm_id": "312167405", "highway": "traffic_signals" }, "geometry": { "type": "Point", "coordinates": [ 139.636667400000022, 35.4417703 ] } },
{ "type": "Feature", "properties": { "osm_id": "312167412", "highway": "traffic_signals" }, "geometry": { "type": "Point", "coordinates": [ 139.638326400000011, 35.4402573 ] } },
{ "type": "Feature", "properties": { "osm_id": "312167476", "highway": "traffic_signals" }, "geometry": { "type": "Point", "coordinates": [ 139.631502400000016, 35.4406677 ] } },
{ "type": "Feature", "properties": { "osm_id": "312167480", "highway": "traffic_signals" }, "geometry": { "type": "Point", "coordinates": [ 139.6324203, 35.439379 ] } },
{ "type": "Feature", "properties": { "osm_id": "312167481", "highway": "traffic_signals" }, "geometry": { "type": "Point", "coordinates": [ 139.6337614, 35.4374972 ] } },
{ "type": "Feature", "properties": { "osm_id": "312167489", "highway": "traffic_signals" }, "geometry": { "type": "Point", "coordinates": [ 139.633196100000021, 35.4383037 ] } },
{ "type": "Feature", "properties": { "osm_id": "312167504", "highway": "traffic_signals" }, "geometry": { "type": "Point", "coordinates": [ 139.632277400000021, 35.4488263 ] } },
{ "type": "Feature", "properties": { "osm_id": "312167507", "highway": "traffic_signals" }, "geometry": { "type": "Point", "coordinates": [ 139.6318386, 35.4484343 ] } },
{ "type": "Feature", "properties": { "osm_id": "312167512", "highway": "traffic_signals" }, "geometry": { "type": "Point", "coordinates": [ 139.6308898, 35.4470666 ] } },
{ "type": "Feature", "properties": { "osm_id": "312167527", "highway": "traffic_signals" }, "geometry": { "type": "Point", "coordinates": [ 139.6270816, 35.4387138 ] } },
{ "type": "Feature", "properties": { "osm_id": "313666109", "highway": "traffic_signals" }, "geometry": { "type": "Point", "coordinates": [ 139.624400400000013, 35.4385944 ] } },
{ "type": "Feature", "properties": { "osm_id": "313666112", "highway": "traffic_signals" }, "geometry": { "type": "Point", "coordinates": [ 139.6253398, 35.4385401 ] } },
{ "type": "Feature", "properties": { "osm_id": "313666123", "highway": "traffic_signals" }, "geometry": { "type": "Point", "coordinates": [ 139.634046800000021, 35.4453179 ] } },
{ "type": "Feature", "properties": { "osm_id": "313666134", "highway": "traffic_signals" }, "geometry": { "type": "Point", "coordinates": [ 139.632204800000011, 35.447527 ] } },
{ "type": "Feature", "properties": { "osm_id": "313666137", "highway": "traffic_signals" }, "geometry": { "type": "Point", "coordinates": [ 139.63175050000001, 35.4483496 ] } },
{ "type": "Feature", "properties": { "osm_id": "602265582", "highway": "traffic_signals" }, "geometry": { "type": "Point", "coordinates": [ 139.653831700000012, 35.4428328 ] } },
{ "type": "Feature", "properties": { "osm_id": "603052298", "highway": "traffic_signals" }, "geometry": { "type": "Point", "coordinates": [ 139.6546036, 35.4384669 ] } },
{ "type": "Feature", "properties": { "osm_id": "603372500", "highway": "traffic_signals" }, "geometry": { "type": "Point", "coordinates": [ 139.657625200000012, 35.4398581 ] } },
{ "type": "Feature", "properties": { "osm_id": "605280038", "highway": "traffic_signals" }, "geometry": { "type": "Point", "coordinates": [ 139.6515506, 35.4440489 ] } },
{ "type": "Feature", "properties": { "osm_id": "605283312", "highway": "traffic_signals" }, "geometry": { "type": "Point", "coordinates": [ 139.649394, 35.4453886 ] } },
{ "type": "Feature", "properties": { "osm_id": "660643551", "highway": "traffic_signals" }, "geometry": { "type": "Point", "coordinates": [ 139.652652900000021, 35.4323441 ] } },
{ "type": "Feature", "properties": { "osm_id": "660643621", "highway": "traffic_signals" }, "geometry": { "type": "Point", "coordinates": [ 139.6533187, 35.4323644 ] } },
{ "type": "Feature", "properties": { "osm_id": "660643640", "highway": "traffic_signals" }, "geometry": { "type": "Point", "coordinates": [ 139.655074500000012, 35.4323896 ] } },
{ "type": "Feature", "properties": { "osm_id": "660643745", "highway": "traffic_signals" }, "geometry": { "type": "Point", "coordinates": [ 139.651062600000017, 35.4372709 ] } },
{ "type": "Feature", "properties": { "osm_id": "661022901", "highway": "traffic_signals" }, "geometry": { "type": "Point", "coordinates": [ 139.6584417, 35.4354014 ] } },
{ "type": "Feature", "properties": { "osm_id": "676440653", "highway": "traffic_signals" }, "geometry": { "type": "Point", "coordinates": [ 139.6656934, 35.4365083 ] } },
{ "type": "Feature", "properties": { "osm_id": "676440655", "highway": "traffic_signals" }, "geometry": { "type": "Point", "coordinates": [ 139.665739200000019, 35.4366379 ] } },
{ "type": "Feature", "properties": { "osm_id": "924058382", "highway": "traffic_signals" }, "geometry": { "type": "Point", "coordinates": [ 139.6349467, 35.4509117 ] } },
{ "type": "Feature", "properties": { "osm_id": "940175356", "highway": "traffic_signals" }, "geometry": { "type": "Point", "coordinates": [ 139.629766900000021, 35.451007 ] } },
{ "type": "Feature", "properties": { "osm_id": "940953370", "highway": "traffic_signals" }, "geometry": { "type": "Point", "coordinates": [ 139.6282218, 35.4450907 ] } },
{ "type": "Feature", "properties": { "osm_id": "940953373", "highway": "traffic_signals" }, "geometry": { "type": "Point", "coordinates": [ 139.6324635, 35.4477036 ] } },
{ "type": "Feature", "properties": { "osm_id": "941384122", "highway": "traffic_signals" }, "geometry": { "type": "Point", "coordinates": [ 139.6284876, 35.4448497 ] } },
{ "type": "Feature", "properties": { "osm_id": "982244229", "highway": "traffic_signals" }, "geometry": { "type": "Point", "coordinates": [ 139.629045100000013, 35.4396027 ] } },
{ "type": "Feature", "properties": { "osm_id": "982244237", "highway": "traffic_signals" }, "geometry": { "type": "Point", "coordinates": [ 139.6284948, 35.4403419 ] } },
{ "type": "Feature", "properties": { "osm_id": "1006290858", "highway": "traffic_signals" }, "geometry": { "type": "Point", "coordinates": [ 139.646973, 35.4446249 ] } },
{ "type": "Feature", "properties": { "osm_id": "1006397706", "highway": "traffic_signals" }, "geometry": { "type": "Point", "coordinates": [ 139.6470036, 35.4446843 ] } },
{ "type": "Feature", "properties": { "osm_id": "1006397719", "highway": "traffic_signals" }, "geometry": { "type": "Point", "coordinates": [ 139.6453119, 35.4453926 ] } },
{ "type": "Feature", "properties": { "osm_id": "1006397729", "highway": "traffic_signals" }, "geometry": { "type": "Point", "coordinates": [ 139.6478621, 35.4462968 ] } },
{ "type": "Feature", "properties": { "osm_id": "1006397736", "highway": "traffic_signals" }, "geometry": { "type": "Point", "coordinates": [ 139.646496, 35.4470927 ] } },
{ "type": "Feature", "properties": { "osm_id": "1026428966", "highway": "traffic_signals" }, "geometry": { "type": "Point", "coordinates": [ 139.6438757, 35.4403266 ] } },
{ "type": "Feature", "properties": { "osm_id": "1026428969", "highway": "traffic_signals" }, "geometry": { "type": "Point", "coordinates": [ 139.64527750000002, 35.4453271 ] } },
{ "type": "Feature", "properties": { "osm_id": "1026428976", "highway": "traffic_signals" }, "geometry": { "type": "Point", "coordinates": [ 139.643905900000021, 35.4444609 ] } },
{ "type": "Feature", "properties": { "osm_id": "1029485981", "highway": "traffic_signals" }, "geometry": { "type": "Point", "coordinates": [ 139.674108, 35.4296787 ] } },
{ "type": "Feature", "properties": { "osm_id": "1029526200", "highway": "traffic_signals" }, "geometry": { "type": "Point", "coordinates": [ 139.673315200000019, 35.4302362 ] } },
{ "type": "Feature", "properties": { "osm_id": "1029535363", "highway": "traffic_signals" }, "geometry": { "type": "Point", "coordinates": [ 139.678212800000011, 35.4282431 ] } },
{ "type": "Feature", "properties": { "osm_id": "1029535429", "highway": "traffic_signals" }, "geometry": { "type": "Point", "coordinates": [ 139.678131300000018, 35.428279 ] } },
{ "type": "Feature", "properties": { "osm_id": "1082002441", "highway": "traffic_signals" }, "geometry": { "type": "Point", "coordinates": [ 139.6353254, 35.4429913 ] } },
{ "type": "Feature", "properties": { "osm_id": "1082002442", "highway": "traffic_signals" }, "geometry": { "type": "Point", "coordinates": [ 139.632891200000017, 35.4434244 ] } },
{ "type": "Feature", "properties": { "osm_id": "1082002443", "highway": "traffic_signals" }, "geometry": { "type": "Point", "coordinates": [ 139.6339773, 35.4442135 ] } },
{ "type": "Feature", "properties": { "osm_id": "1082002453", "highway": "traffic_signals" }, "geometry": { "type": "Point", "coordinates": [ 139.6357006, 35.4426687 ] } },
{ "type": "Feature", "properties": { "osm_id": "1082010269", "highway": "traffic_signals" }, "geometry": { "type": "Point", "coordinates": [ 139.63071290000002, 35.4429093 ] } },
{ "type": "Feature", "properties": { "osm_id": "1082010272", "highway": "traffic_signals" }, "geometry": { "type": "Point", "coordinates": [ 139.6288285, 35.444545 ] } },
{ "type": "Feature", "properties": { "osm_id": "1082014171", "highway": "traffic_signals" }, "geometry": { "type": "Point", "coordinates": [ 139.6320527, 35.4427632 ] } },
{ "type": "Feature", "properties": { "osm_id": "1096235814", "highway": "traffic_signals" }, "geometry": { "type": "Point", "coordinates": [ 139.637057700000014, 35.4372119 ] } },
{ "type": "Feature", "properties": { "osm_id": "1096235818", "highway": "traffic_signals" }, "geometry": { "type": "Point", "coordinates": [ 139.6345575, 35.4404727 ] } },
{ "type": "Feature", "properties": { "osm_id": "1096235894", "highway": "traffic_signals" }, "geometry": { "type": "Point", "coordinates": [ 139.630722500000019, 35.4417888 ] } },
{ "type": "Feature", "properties": { "osm_id": "1096235911", "highway": "traffic_signals" }, "geometry": { "type": "Point", "coordinates": [ 139.6366051, 35.4376169 ] } },
{ "type": "Feature", "properties": { "osm_id": "1096235961", "highway": "traffic_signals" }, "geometry": { "type": "Point", "coordinates": [ 139.640030200000012, 35.4400136 ] } },
{ "type": "Feature", "properties": { "osm_id": "1096236010", "highway": "traffic_signals" }, "geometry": { "type": "Point", "coordinates": [ 139.640871, 35.4391756 ] } },
{ "type": "Feature", "properties": { "osm_id": "1096236030", "highway": "traffic_signals" }, "geometry": { "type": "Point", "coordinates": [ 139.6420659, 35.4400844 ] } },
{ "type": "Feature", "properties": { "osm_id": "1096280539", "highway": "traffic_signals" }, "geometry": { "type": "Point", "coordinates": [ 139.6256774, 35.4408339 ] } },
{ "type": "Feature", "properties": { "osm_id": "1096280544", "highway": "traffic_signals" }, "geometry": { "type": "Point", "coordinates": [ 139.6293296, 35.4408859 ] } },
{ "type": "Feature", "properties": { "osm_id": "1096280545", "highway": "traffic_signals" }, "geometry": { "type": "Point", "coordinates": [ 139.6276291, 35.4397802 ] } },
{ "type": "Feature", "properties": { "osm_id": "1096280607", "highway": "traffic_signals" }, "geometry": { "type": "Point", "coordinates": [ 139.6281784, 35.4430472 ] } },
{ "type": "Feature", "properties": { "osm_id": "1096280681", "highway": "traffic_signals" }, "geometry": { "type": "Point", "coordinates": [ 139.624018, 35.439137 ] } },
{ "type": "Feature", "properties": { "osm_id": "1096280685", "highway": "traffic_signals" }, "geometry": { "type": "Point", "coordinates": [ 139.628885, 35.4405963 ] } },
{ "type": "Feature", "properties": { "osm_id": "1096313198", "highway": "traffic_signals" }, "geometry": { "type": "Point", "coordinates": [ 139.631745500000022, 35.4383959 ] } },
{ "type": "Feature", "properties": { "osm_id": "1099628936", "highway": "traffic_signals" }, "geometry": { "type": "Point", "coordinates": [ 139.6299424, 35.4495363 ] } },
{ "type": "Feature", "properties": { "osm_id": "1099629046", "highway": "traffic_signals" }, "geometry": { "type": "Point", "coordinates": [ 139.629667, 35.4509639 ] } },
{ "type": "Feature", "properties": { "osm_id": "1099718047", "highway": "traffic_signals" }, "geometry": { "type": "Point", "coordinates": [ 139.6592148, 35.4309469 ] } },
{ "type": "Feature", "properties": { "osm_id": "1101714178", "highway": "traffic_signals" }, "geometry": { "type": "Point", "coordinates": [ 139.629351900000017, 35.4486615 ] } },
{ "type": "Feature", "properties": { "osm_id": "1101876482", "highway": "traffic_signals" }, "geometry": { "type": "Point", "coordinates": [ 139.6240649, 35.4411499 ] } },
{ "type": "Feature", "properties": { "osm_id": "1101876537", "highway": "traffic_signals" }, "geometry": { "type": "Point", "coordinates": [ 139.6248094, 35.4417262 ] } },
{ "type": "Feature", "properties": { "osm_id": "1101915186", "highway": "traffic_signals" }, "geometry": { "type": "Point", "coordinates": [ 139.633450400000015, 35.4438291 ] } },
{ "type": "Feature", "properties": { "osm_id": "1103347917", "highway": "traffic_signals" }, "geometry": { "type": "Point", "coordinates": [ 139.6582908, 35.4313036 ] } },
{ "type": "Feature", "properties": { "osm_id": "1103347918", "highway": "traffic_signals" }, "geometry": { "type": "Point", "coordinates": [ 139.661574200000018, 35.4300736 ] } },
{ "type": "Feature", "properties": { "osm_id": "1103347931", "highway": "traffic_signals" }, "geometry": { "type": "Point", "coordinates": [ 139.6626238, 35.4296499 ] } },
{ "type": "Feature", "properties": { "osm_id": "1103347940", "highway": "traffic_signals" }, "geometry": { "type": "Point", "coordinates": [ 139.6605251, 35.4304613 ] } },
{ "type": "Feature", "properties": { "osm_id": "1104186982", "highway": "traffic_signals" }, "geometry": { "type": "Point", "coordinates": [ 139.662892, 35.4324206 ] } },
{ "type": "Feature", "properties": { "osm_id": "1104336465", "highway": "traffic_signals" }, "geometry": { "type": "Point", "coordinates": [ 139.6728946, 35.4274521 ] } },
{ "type": "Feature", "properties": { "osm_id": "1105782628", "highway": "traffic_signals" }, "geometry": { "type": "Point", "coordinates": [ 139.6474503, 35.4334866 ] } },
{ "type": "Feature", "properties": { "osm_id": "1105890060", "highway": "traffic_signals" }, "geometry": { "type": "Point", "coordinates": [ 139.6421148, 35.4342027 ] } },
{ "type": "Feature", "properties": { "osm_id": "1106060348", "highway": "traffic_signals" }, "geometry": { "type": "Point", "coordinates": [ 139.6362469, 35.4364874 ] } },
{ "type": "Feature", "properties": { "osm_id": "1106166689", "highway": "traffic_signals" }, "geometry": { "type": "Point", "coordinates": [ 139.6659888, 35.4258065 ] } },
{ "type": "Feature", "properties": { "osm_id": "1108942894", "highway": "traffic_signals" }, "geometry": { "type": "Point", "coordinates": [ 139.6630341, 35.4127015 ] } },
{ "type": "Feature", "properties": { "osm_id": "1111284761", "highway": "traffic_signals" }, "geometry": { "type": "Point", "coordinates": [ 139.6371819, 35.4202083 ] } },
{ "type": "Feature", "properties": { "osm_id": "1112895923", "highway": "traffic_signals" }, "geometry": { "type": "Point", "coordinates": [ 139.651162200000016, 35.4181118 ] } },
{ "type": "Feature", "properties": { "osm_id": "1112966230", "highway": "traffic_signals" }, "geometry": { "type": "Point", "coordinates": [ 139.63982630000001, 35.4267387 ] } },
{ "type": "Feature", "properties": { "osm_id": "1112966281", "highway": "traffic_signals" }, "geometry": { "type": "Point", "coordinates": [ 139.6389748, 35.4279044 ] } },
{ "type": "Feature", "properties": { "osm_id": "1114809629", "highway": "traffic_signals" }, "geometry": { "type": "Point", "coordinates": [ 139.638036200000016, 35.4292653 ] } },
{ "type": "Feature", "properties": { "osm_id": "1271556158", "highway": "traffic_signals" }, "geometry": { "type": "Point", "coordinates": [ 139.6310363, 35.4502651 ] } },
{ "type": "Feature", "properties": { "osm_id": "1271556170", "highway": "traffic_signals" }, "geometry": { "type": "Point", "coordinates": [ 139.62922260000002, 35.4525318 ] } },
{ "type": "Feature", "properties": { "osm_id": "1271556182", "highway": "traffic_signals" }, "geometry": { "type": "Point", "coordinates": [ 139.633025800000013, 35.4482747 ] } },
{ "type": "Feature", "properties": { "osm_id": "1271556207", "highway": "traffic_signals" }, "geometry": { "type": "Point", "coordinates": [ 139.635052, 35.4462775 ] } },
{ "type": "Feature", "properties": { "osm_id": "1271556212", "highway": "traffic_signals" }, "geometry": { "type": "Point", "coordinates": [ 139.633803600000022, 35.4473806 ] } },
{ "type": "Feature", "properties": { "osm_id": "1271608929", "highway": "traffic_signals" }, "geometry": { "type": "Point", "coordinates": [ 139.633822800000019, 35.4498168 ] } },
{ "type": "Feature", "properties": { "osm_id": "1271719747", "highway": "traffic_signals" }, "geometry": { "type": "Point", "coordinates": [ 139.642038500000012, 35.4400648 ] } },
{ "type": "Feature", "properties": { "osm_id": "1906492049", "highway": "traffic_signals" }, "geometry": { "type": "Point", "coordinates": [ 139.634669200000019, 35.4446304 ] } },
{ "type": "Feature", "properties": { "osm_id": "1906492052", "highway": "traffic_signals" }, "geometry": { "type": "Point", "coordinates": [ 139.6314917, 35.4421976 ] } },
{ "type": "Feature", "properties": { "osm_id": "1906492054", "highway": "traffic_signals" }, "geometry": { "type": "Point", "coordinates": [ 139.6293751, 35.4408164 ] } },
{ "type": "Feature", "properties": { "osm_id": "1906492055", "highway": "traffic_signals" }, "geometry": { "type": "Point", "coordinates": [ 139.62680880000002, 35.4391538 ] } },
{ "type": "Feature", "properties": { "osm_id": "1906492056", "highway": "traffic_signals" }, "geometry": { "type": "Point", "coordinates": [ 139.634039700000017, 35.4441565 ] } },
{ "type": "Feature", "properties": { "osm_id": "1906492057", "highway": "traffic_signals" }, "geometry": { "type": "Point", "coordinates": [ 139.625384, 35.4384824 ] } },
{ "type": "Feature", "properties": { "osm_id": "1906492058", "highway": "traffic_signals" }, "geometry": { "type": "Point", "coordinates": [ 139.6335071, 35.4437761 ] } },
{ "type": "Feature", "properties": { "osm_id": "1906492062", "highway": "traffic_signals" }, "geometry": { "type": "Point", "coordinates": [ 139.624694, 35.4381671 ] } },
{ "type": "Feature", "properties": { "osm_id": "1906492065", "highway": "traffic_signals" }, "geometry": { "type": "Point", "coordinates": [ 139.634903, 35.4448064 ] } },
{ "type": "Feature", "properties": { "osm_id": "1906492066", "highway": "traffic_signals" }, "geometry": { "type": "Point", "coordinates": [ 139.6289294, 35.4405342 ] } },
{ "type": "Feature", "properties": { "osm_id": "1906492068", "highway": "traffic_signals" }, "geometry": { "type": "Point", "coordinates": [ 139.6352138, 35.4450583 ] } },
{ "type": "Feature", "properties": { "osm_id": "1906492069", "highway": "traffic_signals" }, "geometry": { "type": "Point", "coordinates": [ 139.6276694, 35.4397181 ] } },
{ "type": "Feature", "properties": { "osm_id": "1906492070", "highway": "traffic_signals" }, "geometry": { "type": "Point", "coordinates": [ 139.6329485, 35.4433734 ] } },
{ "type": "Feature", "properties": { "osm_id": "1906492072", "highway": "traffic_signals" }, "geometry": { "type": "Point", "coordinates": [ 139.626203300000014, 35.4388611 ] } },
{ "type": "Feature", "properties": { "osm_id": "1906492073", "highway": "traffic_signals" }, "geometry": { "type": "Point", "coordinates": [ 139.6321082, 35.4427139 ] } },
{ "type": "Feature", "properties": { "osm_id": "1906492074", "highway": "traffic_signals" }, "geometry": { "type": "Point", "coordinates": [ 139.635862, 35.4457489 ] } },
{ "type": "Feature", "properties": { "osm_id": "1906492075", "highway": "traffic_signals" }, "geometry": { "type": "Point", "coordinates": [ 139.6285406, 35.440265 ] } },
{ "type": "Feature", "properties": { "osm_id": "1906492076", "highway": "traffic_signals" }, "geometry": { "type": "Point", "coordinates": [ 139.635784, 35.4457938 ] } },
{ "type": "Feature", "properties": { "osm_id": "1906492077", "highway": "traffic_signals" }, "geometry": { "type": "Point", "coordinates": [ 139.635907700000018, 35.4458028 ] } },
{ "type": "Feature", "properties": { "osm_id": "1906492080", "highway": "traffic_signals" }, "geometry": { "type": "Point", "coordinates": [ 139.630773300000016, 35.4417185 ] } },
{ "type": "Feature", "properties": { "osm_id": "1906492081", "highway": "traffic_signals" }, "geometry": { "type": "Point", "coordinates": [ 139.62983890000001, 35.4411261 ] } },
{ "type": "Feature", "properties": { "osm_id": "1906492082", "highway": "traffic_signals" }, "geometry": { "type": "Point", "coordinates": [ 139.6237188, 35.4377234 ] } },
{ "type": "Feature", "properties": { "osm_id": "1906506700", "highway": "traffic_signals" }, "geometry": { "type": "Point", "coordinates": [ 139.6367893, 35.4453217 ] } },
{ "type": "Feature", "properties": { "osm_id": "1906506702", "highway": "traffic_signals" }, "geometry": { "type": "Point", "coordinates": [ 139.637860500000016, 35.4447203 ] } },
{ "type": "Feature", "properties": { "osm_id": "2075533037", "highway": "traffic_signals" }, "geometry": { "type": "Point", "coordinates": [ 139.6467519, 35.4362414 ] } },
{ "type": "Feature", "properties": { "osm_id": "2075594492", "highway": "traffic_signals" }, "geometry": { "type": "Point", "coordinates": [ 139.6567489, 35.4318758 ] } },
{ "type": "Feature", "properties": { "osm_id": "2140977385", "highway": "traffic_signals" }, "geometry": { "type": "Point", "coordinates": [ 139.6469514, 35.4339445 ] } },
{ "type": "Feature", "properties": { "osm_id": "2323169030", "highway": "traffic_signals" }, "geometry": { "type": "Point", "coordinates": [ 139.6390814, 35.4411421 ] } },
{ "type": "Feature", "properties": { "osm_id": "2326920513", "highway": "traffic_signals" }, "geometry": { "type": "Point", "coordinates": [ 139.6455067, 35.4388711 ] } },
{ "type": "Feature", "properties": { "osm_id": "2327881731", "highway": "traffic_signals" }, "geometry": { "type": "Point", "coordinates": [ 139.655923200000018, 35.4412712 ] } },
{ "type": "Feature", "properties": { "osm_id": "2328182552", "highway": "traffic_signals" }, "geometry": { "type": "Point", "coordinates": [ 139.6636752, 35.4377247 ] } },
{ "type": "Feature", "properties": { "osm_id": "2328182567", "highway": "traffic_signals" }, "geometry": { "type": "Point", "coordinates": [ 139.662028100000015, 35.4390872 ] } },
{ "type": "Feature", "properties": { "osm_id": "2328206216", "highway": "traffic_signals" }, "geometry": { "type": "Point", "coordinates": [ 139.646923900000019, 35.4405452 ] } },
{ "type": "Feature", "properties": { "osm_id": "2629529461", "highway": "traffic_signals" }, "geometry": { "type": "Point", "coordinates": [ 139.6689796, 35.4320181 ] } },
{ "type": "Feature", "properties": { "osm_id": "2629545993", "highway": "traffic_signals" }, "geometry": { "type": "Point", "coordinates": [ 139.67059230000001, 35.4313558 ] } },
{ "type": "Feature", "properties": { "osm_id": "2629546026", "highway": "traffic_signals" }, "geometry": { "type": "Point", "coordinates": [ 139.674230100000017, 35.4298492 ] } },
{ "type": "Feature", "properties": { "osm_id": "3076797310", "highway": "traffic_signals" }, "geometry": { "type": "Point", "coordinates": [ 139.6583698, 35.4135654 ] } },
{ "type": "Feature", "properties": { "osm_id": "3076797311", "highway": "traffic_signals" }, "geometry": { "type": "Point", "coordinates": [ 139.658195800000016, 35.4133867 ] } },
{ "type": "Feature", "properties": { "osm_id": "3076797330", "highway": "traffic_signals" }, "geometry": { "type": "Point", "coordinates": [ 139.6631185, 35.4124903 ] } },
{ "type": "Feature", "properties": { "osm_id": "3187939840", "highway": "traffic_signals" }, "geometry": { "type": "Point", "coordinates": [ 139.64312910000001, 35.4184783 ] } },
{ "type": "Feature", "properties": { "osm_id": "3187968061", "highway": "traffic_signals" }, "geometry": { "type": "Point", "coordinates": [ 139.663338, 35.4338523 ] } },
{ "type": "Feature", "properties": { "osm_id": "3187972266", "highway": "traffic_signals" }, "geometry": { "type": "Point", "coordinates": [ 139.654664100000019, 35.4423268 ] } },
{ "type": "Feature", "properties": { "osm_id": "3189540762", "highway": "traffic_signals" }, "geometry": { "type": "Point", "coordinates": [ 139.6632581, 35.4338167 ] } },
{ "type": "Feature", "properties": { "osm_id": "3245776134", "highway": "traffic_signals" }, "geometry": { "type": "Point", "coordinates": [ 139.642053300000015, 35.4479979 ] } },
{ "type": "Feature", "properties": { "osm_id": "3348944816", "highway": "traffic_signals" }, "geometry": { "type": "Point", "coordinates": [ 139.6240324, 35.4411872 ] } },
{ "type": "Feature", "properties": { "osm_id": "3348944817", "highway": "traffic_signals" }, "geometry": { "type": "Point", "coordinates": [ 139.6247635, 35.4417747 ] } },
{ "type": "Feature", "properties": { "osm_id": "3348944820", "highway": "traffic_signals" }, "geometry": { "type": "Point", "coordinates": [ 139.6255524, 35.4424208 ] } },
{ "type": "Feature", "properties": { "osm_id": "3348944826", "highway": "traffic_signals" }, "geometry": { "type": "Point", "coordinates": [ 139.6263582, 35.4438525 ] } },
{ "type": "Feature", "properties": { "osm_id": "3348944871", "highway": "traffic_signals" }, "geometry": { "type": "Point", "coordinates": [ 139.6398686, 35.4529365 ] } },
{ "type": "Feature", "properties": { "osm_id": "3348944872", "highway": "traffic_signals" }, "geometry": { "type": "Point", "coordinates": [ 139.6397747, 35.4529863 ] } },
{ "type": "Feature", "properties": { "osm_id": "3348944873", "highway": "traffic_signals" }, "geometry": { "type": "Point", "coordinates": [ 139.627462300000019, 35.4460394 ] } },
{ "type": "Feature", "properties": { "osm_id": "3393657658", "highway": "traffic_signals" }, "geometry": { "type": "Point", "coordinates": [ 139.6370637, 35.4429271 ] } },
{ "type": "Feature", "properties": { "osm_id": "3677672825", "highway": "traffic_signals" }, "geometry": { "type": "Point", "coordinates": [ 139.63233790000001, 35.4488995 ] } },
{ "type": "Feature", "properties": { "osm_id": "3791164909", "highway": "traffic_signals" }, "geometry": { "type": "Point", "coordinates": [ 139.626854, 35.4448284 ] } },
{ "type": "Feature", "properties": { "osm_id": "3913891045", "highway": "traffic_signals" }, "geometry": { "type": "Point", "coordinates": [ 139.6269781, 35.4481759 ] } },
{ "type": "Feature", "properties": { "osm_id": "4030888179", "highway": "traffic_signals" }, "geometry": { "type": "Point", "coordinates": [ 139.645566300000013, 35.4379811 ] } },
{ "type": "Feature", "properties": { "osm_id": "4043368116", "highway": "traffic_signals" }, "geometry": { "type": "Point", "coordinates": [ 139.6544594, 35.4204279 ] } },
{ "type": "Feature", "properties": { "osm_id": "4043368117", "highway": "traffic_signals" }, "geometry": { "type": "Point", "coordinates": [ 139.654448800000011, 35.4205013 ] } },
{ "type": "Feature", "properties": { "osm_id": "4043403317", "highway": "traffic_signals" }, "geometry": { "type": "Point", "coordinates": [ 139.6615554, 35.4217369 ] } },
{ "type": "Feature", "properties": { "osm_id": "4043403318", "highway": "traffic_signals" }, "geometry": { "type": "Point", "coordinates": [ 139.6615381, 35.4218021 ] } },
{ "type": "Feature", "properties": { "osm_id": "4091233842", "highway": "traffic_signals" }, "geometry": { "type": "Point", "coordinates": [ 139.6669345, 35.429348 ] } },
{ "type": "Feature", "properties": { "osm_id": "4091233843", "highway": "traffic_signals" }, "geometry": { "type": "Point", "coordinates": [ 139.6668501, 35.4294406 ] } },
{ "type": "Feature", "properties": { "osm_id": "4109992229", "highway": "traffic_signals" }, "geometry": { "type": "Point", "coordinates": [ 139.65964120000001, 35.4414747 ] } },
{ "type": "Feature", "properties": { "osm_id": "4148438442", "highway": "traffic_signals" }, "geometry": { "type": "Point", "coordinates": [ 139.6571514, 35.4327789 ] } },
{ "type": "Feature", "properties": { "osm_id": "4155635341", "highway": "traffic_signals" }, "geometry": { "type": "Point", "coordinates": [ 139.67074740000001, 35.425513 ] } },
{ "type": "Feature", "properties": { "osm_id": "4155635342", "highway": "traffic_signals" }, "geometry": { "type": "Point", "coordinates": [ 139.670944, 35.425502 ] } },
{ "type": "Feature", "properties": { "osm_id": "4155635343", "highway": "traffic_signals" }, "geometry": { "type": "Point", "coordinates": [ 139.670932100000016, 35.4253541 ] } },
{ "type": "Feature", "properties": { "osm_id": "4329708620", "highway": "traffic_signals" }, "geometry": { "type": "Point", "coordinates": [ 139.6494989, 35.4383124 ] } },
{ "type": "Feature", "properties": { "osm_id": "4336585584", "highway": "traffic_signals" }, "geometry": { "type": "Point", "coordinates": [ 139.671071900000015, 35.4311676 ] } },
{ "type": "Feature", "properties": { "osm_id": "4440096855", "highway": "traffic_signals" }, "geometry": { "type": "Point", "coordinates": [ 139.637801700000011, 35.4305941 ] } },
{ "type": "Feature", "properties": { "osm_id": "5202348464", "highway": "traffic_signals" }, "geometry": { "type": "Point", "coordinates": [ 139.6511169, 35.4180106 ] } },
{ "type": "Feature", "properties": { "osm_id": "6253620019", "highway": "traffic_signals" }, "geometry": { "type": "Point", "coordinates": [ 139.6389112, 35.4440478 ] } },
{ "type": "Feature", "properties": { "osm_id": "6449344816", "highway": "traffic_signals" }, "geometry": { "type": "Point", "coordinates": [ 139.660254, 35.4404928 ] } },
{ "type": "Feature", "properties": { "osm_id": "6449344818", "highway": "traffic_signals" }, "geometry": { "type": "Point", "coordinates": [ 139.668171200000018, 35.4343813 ] } },
{ "type": "Feature", "properties": { "osm_id": "6449344822", "highway": "traffic_signals" }, "geometry": { "type": "Point", "coordinates": [ 139.6680729, 35.4346123 ] } },
{ "type": "Feature", "properties": { "osm_id": "6562203215", "highway": "traffic_signals" }, "geometry": { "type": "Point", "coordinates": [ 139.6453826, 35.4390714 ] } },
{ "type": "Feature", "properties": { "osm_id": "7105141610", "highway": "traffic_signals" }, "geometry": { "type": "Point", "coordinates": [ 139.6711262, 35.4309715 ] } },
{ "type": "Feature", "properties": { "osm_id": "7105141611", "highway": "traffic_signals" }, "geometry": { "type": "Point", "coordinates": [ 139.67063760000002, 35.4311826 ] } },
{ "type": "Feature", "properties": { "osm_id": "7106478252", "highway": "traffic_signals" }, "geometry": { "type": "Point", "coordinates": [ 139.6383341, 35.4429096 ] } },
{ "type": "Feature", "properties": { "osm_id": "7659134780", "highway": "traffic_signals" }, "geometry": { "type": "Point", "coordinates": [ 139.6658405, 35.4365462 ] } },
{ "type": "Feature", "properties": { "osm_id": "7659185161", "highway": "traffic_signals" }, "geometry": { "type": "Point", "coordinates": [ 139.6667208, 35.4383973 ] } },
{ "type": "Feature", "properties": { "osm_id": "7659185162", "highway": "traffic_signals" }, "geometry": { "type": "Point", "coordinates": [ 139.666836500000016, 35.4383533 ] } },
{ "type": "Feature", "properties": { "osm_id": "8521153908", "highway": "traffic_signals" }, "geometry": { "type": "Point", "coordinates": [ 139.6348538, 35.4508077 ] } },
{ "type": "Feature", "properties": { "osm_id": "8868987228", "highway": "traffic_signals" }, "geometry": { "type": "Point", "coordinates": [ 139.6780301, 35.4281241 ] } },
{ "type": "Feature", "properties": { "osm_id": "8868987230", "highway": "traffic_signals" }, "geometry": { "type": "Point", "coordinates": [ 139.67812090000001, 35.4280939 ] } },
{ "type": "Feature", "properties": { "osm_id": "8868987231", "highway": "traffic_signals" }, "geometry": { "type": "Point", "coordinates": [ 139.673205100000018, 35.4300678 ] } },
{ "type": "Feature", "properties": { "osm_id": "8868987232", "highway": "traffic_signals" }, "geometry": { "type": "Point", "coordinates": [ 139.673043700000022, 35.4303511 ] } },
{ "type": "Feature", "properties": { "osm_id": "8868987233", "highway": "traffic_signals" }, "geometry": { "type": "Point", "coordinates": [ 139.6728339, 35.430228 ] } },
{ "type": "Feature", "properties": { "osm_id": "10958899269", "highway": "traffic_signals" }, "geometry": { "type": "Point", "coordinates": [ 139.64946, 35.4417238 ] } },
{ "type": "Feature", "properties": { "osm_id": "11255866004", "highway": "traffic_signals" }, "geometry": { "type": "Point", "coordinates": [ 139.6281903, 35.4469835 ] } },
{ "type": "Feature", "properties": { "osm_id": "11255866007", "highway": "traffic_signals" }, "geometry": { "type": "Point", "coordinates": [ 139.628775, 35.4478379 ] } },
{ "type": "Feature", "properties": { "osm_id": "11255866010", "highway": "traffic_signals" }, "geometry": { "type": "Point", "coordinates": [ 139.629260400000021, 35.4486575 ] } },
{ "type": "Feature", "properties": { "osm_id": "11255866013", "highway": "traffic_signals" }, "geometry": { "type": "Point", "coordinates": [ 139.6298774, 35.4495659 ] } },
{ "type": "Feature", "properties": { "osm_id": "11255866021", "highway": "traffic_signals" }, "geometry": { "type": "Point", "coordinates": [ 139.6304522, 35.449963 ] } },
{ "type": "Feature", "properties": { "osm_id": "11255866022", "highway": "traffic_signals" }, "geometry": { "type": "Point", "coordinates": [ 139.630554, 35.4500157 ] } },
{ "type": "Feature", "properties": { "osm_id": "11255866024", "highway": "traffic_signals" }, "geometry": { "type": "Point", "coordinates": [ 139.6309277, 35.4502089 ] } },
{ "type": "Feature", "properties": { "osm_id": "11255866025", "highway": "traffic_signals" }, "geometry": { "type": "Point", "coordinates": [ 139.6310848, 35.4502041 ] } },
{ "type": "Feature", "properties": { "osm_id": "11255910338", "highway": "traffic_signals" }, "geometry": { "type": "Point", "coordinates": [ 139.6320603, 35.4509302 ] } },
{ "type": "Feature", "properties": { "osm_id": "11255910339", "highway": "traffic_signals" }, "geometry": { "type": "Point", "coordinates": [ 139.6321101, 35.4509963 ] } },
{ "type": "Feature", "properties": { "osm_id": "11255910344", "highway": "traffic_signals" }, "geometry": { "type": "Point", "coordinates": [ 139.6325185, 35.452124 ] } },
{ "type": "Feature", "properties": { "osm_id": "11258487866", "highway": "traffic_signals" }, "geometry": { "type": "Point", "coordinates": [ 139.636200300000013, 35.4463178 ] } },
{ "type": "Feature", "properties": { "osm_id": "11258487874", "highway": "traffic_signals" }, "geometry": { "type": "Point", "coordinates": [ 139.6366586, 35.4467657 ] } },
{ "type": "Feature", "properties": { "osm_id": "11258487880", "highway": "traffic_signals" }, "geometry": { "type": "Point", "coordinates": [ 139.636976700000019, 35.4473389 ] } },
{ "type": "Feature", "properties": { "osm_id": "11258487882", "highway": "traffic_signals" }, "geometry": { "type": "Point", "coordinates": [ 139.63728260000002, 35.4477413 ] } },
{ "type": "Feature", "properties": { "osm_id": "11258487883", "highway": "traffic_signals" }, "geometry": { "type": "Point", "coordinates": [ 139.6375875, 35.4481425 ] } },
{ "type": "Feature", "properties": { "osm_id": "11258487887", "highway": "traffic_signals" }, "geometry": { "type": "Point", "coordinates": [ 139.6380131, 35.4485419 ] } },
{ "type": "Feature", "properties": { "osm_id": "11280502729", "highway": "traffic_signals" }, "geometry": { "type": "Point", "coordinates": [ 139.65079350000002, 35.4422647 ] } },
{ "type": "Feature", "properties": { "osm_id": "11280502730", "highway": "traffic_signals" }, "geometry": { "type": "Point", "coordinates": [ 139.650694900000019, 35.4422327 ] } },
{ "type": "Feature", "properties": { "osm_id": "12696044168", "highway": "traffic_signals" }, "geometry": { "type": "Point", "coordinates": [ 139.6536197, 35.4437649 ] } },
{ "type": "Feature", "properties": { "osm_id": "13121143850", "highway": "traffic_signals" }, "geometry": { "type": "Point", "coordinates": [ 139.653627600000021, 35.4169548 ] } },
{ "type": "Feature", "properties": { "osm_id": "13329998559", "highway": "traffic_signals" }, "geometry": { "type": "Point", "coordinates": [ 139.668795500000016, 35.4337851 ] } },
{ "type": "Feature", "properties": { "osm_id": "13873107963", "highway": "traffic_signals" }, "geometry": { "type": "Point", "coordinates": [ 139.6455402, 35.4387121 ] } },
{ "type": "Feature", "properties": { "osm_id": "13873107964", "highway": "traffic_signals" }, "geometry": { "type": "Point", "coordinates": [ 139.6455684, 35.4385599 ] } },
{ "type": "Feature", "properties": { "osm_id": "13873131990", "highway": "traffic_signals" }, "geometry": { "type": "Point", "coordinates": [ 139.64160990000002, 35.4383648 ] } },
{ "type": "Feature", "properties": { "osm_id": "13873131991", "highway": "traffic_signals" }, "geometry": { "type": "Point", "coordinates": [ 139.641835, 35.4380861 ] } },
{ "type": "Feature", "properties": { "osm_id": "13873131992", "highway": "traffic_signals" }, "geometry": { "type": "Point", "coordinates": [ 139.6419644, 35.4383102 ] } },
{ "type": "Feature", "properties": { "osm_id": "13873131993", "highway": "traffic_signals" }, "geometry": { "type": "Point", "coordinates": [ 139.6415283, 35.4382333 ] } },
{ "type": "Feature", "properties": { "osm_id": "13873213904", "highway": "traffic_signals" }, "geometry": { "type": "Point", "coordinates": [ 139.6456191, 35.4381315 ] } },
{ "type": "Feature", "properties": { "osm_id": "13921556547", "highway": "traffic_signals" }, "geometry": { "type": "Point", "coordinates": [ 139.638195700000011, 35.4428528 ] } },
{ "type": "Feature", "properties": { "osm_id": "13921556548", "highway": "traffic_signals" }, "geometry": { "type": "Point", "coordinates": [ 139.63799130000001, 35.442868 ] } },
{ "type": "Feature", "properties": { "osm_id": "13921556549", "highway": "traffic_signals" }, "geometry": { "type": "Point", "coordinates": [ 139.638238600000022, 35.4431662 ] } },
{ "type": "Feature", "properties": { "osm_id": "13921556554", "highway": "traffic_signals" }, "geometry": { "type": "Point", "coordinates": [ 139.6406728, 35.441906 ] } },
{ "type": "Feature", "properties": { "osm_id": "13921556555", "highway": "traffic_signals" }, "geometry": { "type": "Point", "coordinates": [ 139.640409700000021, 35.4418642 ] } },
{ "type": "Feature", "properties": { "osm_id": "13921556556", "highway": "traffic_signals" }, "geometry": { "type": "Point", "coordinates": [ 139.640319300000016, 35.4420739 ] } },
{ "type": "Feature", "properties": { "osm_id": "13921556558", "highway": "traffic_signals" }, "geometry": { "type": "Point", "coordinates": [ 139.640586500000012, 35.4421225 ] } },
{ "type": "Feature", "properties": { "osm_id": "13987499803", "highway": "traffic_signals" }, "geometry": { "type": "Point", "coordinates": [ 139.64089850000002, 35.4224281 ] } },
{ "type": "Feature", "properties": { "osm_id": "13987499828", "highway": "traffic_signals" }, "geometry": { "type": "Point", "coordinates": [ 139.641407500000014, 35.4247248 ] } },
{ "type": "Feature", "properties": { "osm_id": "13987499968", "highway": "traffic_signals" }, "geometry": { "type": "Point", "coordinates": [ 139.637304700000016, 35.4200808 ] } },
{ "type": "Feature", "properties": { "osm_id": "13987499969", "highway": "traffic_signals" }, "geometry": { "type": "Point", "coordinates": [ 139.637597200000016, 35.420283 ] } },
{ "type": "Feature", "properties": { "osm_id": "13987499974", "highway": "traffic_signals" }, "geometry": { "type": "Point", "coordinates": [ 139.638486600000022, 35.4205436 ] } },
{ "type": "Feature", "properties": { "osm_id": "13987499975", "highway": "traffic_signals" }, "geometry": { "type": "Point", "coordinates": [ 139.6386664, 35.4206125 ] } },
{ "type": "Feature", "properties": { "osm_id": "13988111325", "highway": "traffic_signals" }, "geometry": { "type": "Point", "coordinates": [ 139.6430152, 35.4184599 ] } },
{ "type": "Feature", "properties": { "osm_id": "13988111326", "highway": "traffic_signals" }, "geometry": { "type": "Point", "coordinates": [ 139.643227200000013, 35.418491 ] } }
]
}
