{
"type": "FeatureCollection",
"name": "cycleways",
"crs": { "type": "name", "properties": { "name": "urn:ogc:def:crs:OGC:1.3:CRS84" } },
"features": [
{ "type": "Feature", "properties": { "way_id": 4, "name": "新宿通り", "highway": "trunk", "cycleway_type": "on_road", "length_m": 397.04300067060763, "lts": 2, "surface": "paved", "lit": "yes" }, "geometry": { "type": "MultiLineString", "coordinates": [ [ [ 139.7159426, 35.6875692 ], [ 139.7161022, 35.6876033 ], [ 139.7166772, 35.6876765 ], [ 139.7168989, 35.6877047 ], [ 139.7177048, 35.6877853 ], [ 139.7178035, 35.6877952 ], [ 139.7179615, 35.6878113 ], [ 139.718636, 35.6878726 ], [ 139.7194137, 35.6879429 ], [ 139.720082600000012, 35.6879967 ], [ 139.7201637, 35.6880032 ], [ 139.72030190000001, 35.6880172 ] ] ] } },
{ "type": "Feature", "properties": { "way_id": 9, "name": "外苑東通り", "highway": "primary", "cycleway_type": "on_road", "length_m": 524.56037210616671, "lts": 2, "surface": "paved", "lit": "yes" }, "geometry": { "type": "MultiLineString", "coordinates": [ [ [ 139.7235119, 35.6918214 ], [ 139.723464, 35.6917421 ], [ 139.723422699999986, 35.6916789 ], [ 139.723365699999988, 35.6916143 ], [ 139.7233229, 35.6915698 ], [ 139.7231922, 35.6914502 ], [ 139.7229907, 35.6912681 ], [ 139.722642900000011, 35.6909495 ], [ 139.722568099999989, 35.6908816 ], [ 139.7222447, 35.690588 ], [ 139.7220192, 35.6903804 ], [ 139.7219512, 35.6903212 ], [ 139.721828, 35.690214 ], [ 139.721696799999989, 35.6901007 ], [ 139.721130499999987, 35.6896328 ], [ 139.7208075, 35.689367 ], [ 139.7207382, 35.6893022 ], [ 139.720680499999986, 35.6892415 ], [ 139.720619199999987, 35.6891537 ], [ 139.7205593, 35.6890573 ], [ 139.7205099, 35.6889767 ], [ 139.720467500000012, 35.6888338 ], [ 139.72045, 35.6887327 ], [ 139.7204314, 35.6883825 ], [ 139.720426, 35.6883192 ], [ 139.7204212, 35.6882657 ], [ 139.7204183, 35.6882273 ], [ 139.7204125, 35.6881521 ], [ 139.7204031, 35.6880278 ] ] ] } },
{ "type": "Feature", "properties": { "way_id": 11, "name": "軽子坂", "highway": "tertiary", "cycleway_type": "on_road", "length_m": 161.85561517679631, "lts": 1, "surface": null, "lit": null }, "geometry": { "type": "MultiLineString", "coordinates": [ [ [ 139.7433379, 35.7012608 ], [ 139.743235, 35.7013089 ], [ 139.7431422, 35.7013481 ], [ 139.7428952, 35.7014622 ], [ 139.7428204, 35.7014971 ], [ 139.7427865, 35.7015129 ], [ 139.7424102, 35.7016885 ], [ 139.7422793, 35.7017497 ], [ 139.7421125, 35.7018276 ], [ 139.7417792, 35.7019794 ] ] ] } },
{ "type": "Feature", "properties": { "way_id": 22, "name": null, "highway": "tertiary", "cycleway_type": "on_road", "length_m": 119.34960848955831, "lts": 1, "surface": "paved", "lit": null }, "geometry": { "type": "MultiLineString", "coordinates": [ [ [ 139.7417792, 35.7019794 ], [ 139.7413747, 35.7021404 ], [ 139.740595899999988, 35.7024576 ] ] ] } },
{ "type": "Feature", "properties": { "way_id": 23, "name": "神楽坂通り", "highway": "unclassified", "cycleway_type": "on_road", "length_m": 77.529958553782564, "lts": 1, "surface": "asphalt", "lit": "yes" }, "geometry": { "type": "MultiLineString", "coordinates": [ [ [ 139.7389221, 35.7018692 ], [ 139.738749500000011, 35.7019349 ], [ 139.7387095, 35.7019565 ], [ 139.73828420000001, 35.702185 ], [ 139.7381939, 35.702236 ] ] ] } },
{ "type": "Feature", "properties": { "way_id": 40, "name": "早稲田通り", "highway": "primary", "cycleway_type": "on_road", "length_m": 168.428416840442, "lts": 1, "surface": "asphalt", "lit": "yes" }, "geometry": { "type": "MultiLineString", "coordinates": [ [ [ 139.6845262, 35.7103307 ], [ 139.684550742388751, 35.71033522271663 ] ], [ [ 139.684986795485656, 35.710427359097132 ], [ 139.6853457, 35.7105105 ], [ 139.6859071, 35.7106449 ], [ 139.685932636421256, 35.710649832741105 ] ], [ [ 139.686831840558, 35.710866304135521 ], [ 139.6870174, 35.7109142 ], [ 139.687262351824131, 35.710970856871576 ] ], [ [ 139.687266142374739, 35.710971777433869 ], [ 139.687316624758211, 35.710984987427466 ] ], [ [ 139.687850201936385, 35.711107543752888 ], [ 139.687971299999987, 35.7111347 ], [ 139.687991292035434, 35.711138113274345 ] ], [ [ 139.688019294117566, 35.711142894117636 ], [ 139.6881517, 35.7111655 ], [ 139.688221815716219, 35.71117436314325 ] ], [ [ 139.689413484472169, 35.711260674223603 ], [ 139.6894139, 35.7112607 ], [ 139.689414249560542, 35.711260712478023 ] ] ] } },
{ "type": "Feature", "properties": { "way_id": 46, "name": "牛込中央通り", "highway": "tertiary", "cycleway_type": "on_road", "length_m": 764.53343633793361, "lts": 1, "surface": "asphalt", "lit": null }, "geometry": { "type": "MultiLineString", "coordinates": [ [ [ 139.7331556, 35.6998986 ], [ 139.7331988, 35.6998024 ], [ 139.7333777, 35.6993959 ], [ 139.733474300000012, 35.6991763 ], [ 139.733497, 35.6991235 ], [ 139.733783100000011, 35.6984582 ], [ 139.7338035, 35.6984142 ], [ 139.7340776, 35.6978336 ], [ 139.7341046, 35.6977764 ], [ 139.7341217, 35.6977431 ], [ 139.7342802, 35.6974052 ], [ 139.7343715, 35.6972107 ], [ 139.734454199999988, 35.6970577 ], [ 139.734513, 35.6970131 ], [ 139.735307, 35.6965318 ], [ 139.735321, 35.6965177 ], [ 139.7358925, 35.6959425 ], [ 139.7359927, 35.6958416 ], [ 139.7363997, 35.695428 ], [ 139.736451, 35.6953797 ], [ 139.7370046, 35.6948587 ], [ 139.7372593, 35.6946164 ], [ 139.7376341, 35.6943307 ], [ 139.737702500000012, 35.6942874 ] ] ] } },
{ "type": "Feature", "properties": { "way_id": 55, "name": "御苑通り", "highway": "primary", "cycleway_type": "on_road", "length_m": 161.65572075133238, "lts": 1, "surface": "asphalt", "lit": "yes" }, "geometry": { "type": "MultiLineString", "coordinates": [ [ [ 139.7069253, 35.6936027 ], [ 139.7069377, 35.6935178 ], [ 139.7069444, 35.6934586 ], [ 139.706972, 35.693229 ], [ 139.7069893, 35.6930826 ], [ 139.7070089, 35.6929166 ], [ 139.7070187, 35.6928342 ], [ 139.7070433, 35.6926257 ], [ 139.707069100000012, 35.6923334 ], [ 139.707073, 35.6922775 ], [ 139.707086, 35.6921549 ] ] ] } },
{ "type": "Feature", "properties": { "way_id": 198, "name": "職安通り", "highway": "primary", "cycleway_type": "on_road", "length_m": 904.83258119829429, "lts": 1, "surface": "asphalt", "lit": null }, "geometry": { "type": "MultiLineString", "coordinates": [ [ [ 139.6974865, 35.6980035 ], [ 139.6976171, 35.6980289 ], [ 139.6977095, 35.6980493 ], [ 139.6977818, 35.6980627 ], [ 139.697863, 35.6980733 ], [ 139.6979672, 35.6980755 ], [ 139.69852370000001, 35.6980912 ], [ 139.6991964, 35.6981011 ], [ 139.7002594, 35.6981166 ], [ 139.7003846, 35.6981186 ], [ 139.7005945, 35.6981222 ], [ 139.70071870000001, 35.6981243 ], [ 139.701274399999988, 35.6981407 ], [ 139.7019987, 35.6981648 ], [ 139.7020497, 35.6981669 ], [ 139.7026554, 35.6981996 ], [ 139.7027344, 35.6982066 ], [ 139.702899800000012, 35.6982214 ], [ 139.7033006, 35.6982571 ], [ 139.703546499999987, 35.6982794 ], [ 139.703828, 35.6983026 ], [ 139.7039796, 35.6983166 ], [ 139.7040833, 35.6983262 ], [ 139.7043639, 35.6983352 ], [ 139.704713700000013, 35.6983263 ], [ 139.7048888, 35.6983101 ], [ 139.7051156, 35.698289 ], [ 139.7052132, 35.6982765 ], [ 139.7062137, 35.6981445 ], [ 139.7068899, 35.6980632 ], [ 139.7072259, 35.6980261 ], [ 139.707283499999988, 35.6980198 ], [ 139.7074546, 35.6979979 ] ] ] } },
{ "type": "Feature", "properties": { "way_id": 276, "name": "都市計画道路補助第72号線(つつじ通り)", "highway": "tertiary", "cycleway_type": "on_road", "length_m": 503.83947957228196, "lts": 1, "surface": "asphalt", "lit": null }, "geometry": { "type": "MultiLineString", "coordinates": [ [ [ 139.7009334, 35.7025316 ], [ 139.700832, 35.7015109 ], [ 139.700814799999989, 35.7014338 ], [ 139.7008027, 35.7013777 ], [ 139.7007626, 35.7011972 ], [ 139.7006575, 35.7007573 ], [ 139.700572200000011, 35.70038 ], [ 139.700562, 35.7002763 ], [ 139.7005802, 35.7000938 ], [ 139.700579299999987, 35.700003 ], [ 139.7005519, 35.6997163 ], [ 139.700543399999987, 35.6996632 ], [ 139.700535699999989, 35.6996139 ], [ 139.7004532, 35.6990836 ], [ 139.700386900000012, 35.6983228 ], [ 139.7003839, 35.6982053 ], [ 139.7003846, 35.6981186 ], [ 139.7003853, 35.6980321 ] ] ] } },
{ "type": "Feature", "properties": { "way_id": 376, "name": "東京医大通り", "highway": "tertiary", "cycleway_type": "on_road", "length_m": 679.96373648089775, "lts": 1, "surface": "asphalt", "lit": "yes" }, "geometry": { "type": "MultiLineString", "coordinates": [ [ [ 139.7069444, 35.6934586 ], [ 139.707033200000012, 35.6934601 ], [ 139.707519600000012, 35.6934686 ], [ 139.7080657, 35.693478 ], [ 139.708446900000013, 35.6934583 ], [ 139.708530200000013, 35.6934517 ], [ 139.7087061, 35.6934386 ], [ 139.7088369, 35.6934275 ], [ 139.709275100000013, 35.6933918 ], [ 139.7094792, 35.6933725 ], [ 139.7096618, 35.6933612 ], [ 139.7098595, 35.6933445 ], [ 139.7101314, 35.6933325 ], [ 139.710611199999988, 35.6932979 ], [ 139.71067930000001, 35.6932895 ], [ 139.710804700000011, 35.6932619 ], [ 139.711443, 35.6931223 ], [ 139.71175550000001, 35.6930492 ], [ 139.7123535, 35.6929219 ], [ 139.7128457, 35.6928181 ], [ 139.7133595, 35.6927589 ], [ 139.7134306, 35.6927458 ], [ 139.713722, 35.6927235 ], [ 139.7142093, 35.6926761 ], [ 139.7143744, 35.6926714 ] ] ] } },
{ "type": "Feature", "properties": { "way_id": 470, "name": null, "highway": "unclassified", "cycleway_type": "on_road", "length_m": 337.9822539557448, "lts": 1, "surface": "paved", "lit": null }, "geometry": { "type": "MultiLineString", "coordinates": [ [ [ 139.7246499, 35.6888501 ], [ 139.7247118, 35.6888224 ], [ 139.7248697, 35.6887516 ], [ 139.725174900000013, 35.6885635 ], [ 139.7253498, 35.6884764 ], [ 139.7254795, 35.6884131 ], [ 139.725592400000011, 35.6883601 ], [ 139.7262007, 35.6880815 ], [ 139.726250099999987, 35.6880588 ], [ 139.726298899999989, 35.6880371 ], [ 139.7263591, 35.6880117 ], [ 139.7271337, 35.6876973 ], [ 139.727323500000011, 35.6876159 ], [ 139.7278154, 35.6874396 ], [ 139.7279293, 35.6873988 ] ] ] } },
{ "type": "Feature", "properties": { "way_id": 555, "name": null, "highway": "tertiary", "cycleway_type": "on_road", "length_m": 405.03661089923605, "lts": 1, "surface": "asphalt", "lit": "yes" }, "geometry": { "type": "MultiLineString", "coordinates": [ [ [ 139.7033626, 35.7093481 ], [ 139.7033993, 35.7094361 ], [ 139.703694899999988, 35.710195 ], [ 139.703716500000013, 35.7102503 ], [ 139.7037343, 35.7102969 ], [ 139.703948, 35.7108567 ], [ 139.704179, 35.7114274 ], [ 139.7042066, 35.7115091 ], [ 139.7042298, 35.7115655 ], [ 139.7044845, 35.7122036 ], [ 139.704512099999988, 35.7122761 ], [ 139.7045451, 35.7123629 ], [ 139.704709900000012, 35.7127886 ], [ 139.704721799999987, 35.7128193 ] ] ] } },
{ "type": "Feature", "properties": { "way_id": 656, "name": "職安通り", "highway": "primary", "cycleway_type": "on_road", "length_m": 900.44924987938714, "lts": 1, "surface": "asphalt", "lit": null }, "geometry": { "type": "MultiLineString", "coordinates": [ [ [ 139.7074388, 35.6979039 ], [ 139.707269, 35.6979282 ], [ 139.7070166, 35.697964 ], [ 139.7061962, 35.6980621 ], [ 139.705593, 35.698141 ], [ 139.7051974, 35.6981967 ], [ 139.705085200000013, 35.6982094 ], [ 139.704872599999987, 35.6982278 ], [ 139.704647099999988, 35.6982495 ], [ 139.704342700000012, 35.6982641 ], [ 139.704070800000011, 35.6982544 ], [ 139.7039861, 35.6982473 ], [ 139.703300899999988, 35.6981791 ], [ 139.702744599999988, 35.6981261 ], [ 139.7026477, 35.6981191 ], [ 139.7020061, 35.69806 ], [ 139.7019338, 35.6980571 ], [ 139.7008151, 35.6980397 ], [ 139.700639200000012, 35.6980376 ], [ 139.700593, 35.6980366 ], [ 139.7003853, 35.6980321 ], [ 139.6994273, 35.6980281 ], [ 139.6985295, 35.698014 ], [ 139.6983616, 35.6980056 ], [ 139.697976, 35.6979857 ], [ 139.6978729, 35.697977 ], [ 139.6977431, 35.6979611 ], [ 139.697659, 35.6979443 ], [ 139.697526900000014, 35.6979118 ] ] ] } },
{ "type": "Feature", "properties": { "way_id": 878, "name": null, "highway": "unclassified", "cycleway_type": "on_road", "length_m": 277.23149524378459, "lts": 1, "surface": null, "lit": null }, "geometry": { "type": "MultiLineString", "coordinates": [ [ [ 139.7371071, 35.7005344 ], [ 139.7371456, 35.7004675 ], [ 139.7373174, 35.7001034 ], [ 139.7374783, 35.6997622 ], [ 139.7376969, 35.6992873 ], [ 139.7377945, 35.6990798 ], [ 139.737895400000014, 35.6988523 ], [ 139.737981499999989, 35.6986736 ], [ 139.7382064, 35.6982068 ] ] ] } },
{ "type": "Feature", "properties": { "way_id": 1007, "name": null, "highway": "tertiary", "cycleway_type": "on_road", "length_m": 137.25148925926084, "lts": 1, "surface": null, "lit": "yes" }, "geometry": { "type": "MultiLineString", "coordinates": [ [ [ 139.7052846, 35.7145771 ], [ 139.7052826, 35.7145617 ], [ 139.7052329, 35.7142702 ], [ 139.7052266, 35.7142334 ], [ 139.7051382, 35.7137016 ], [ 139.7051, 35.7135113 ], [ 139.705053, 35.713358 ] ] ] } },
{ "type": "Feature", "properties": { "way_id": 1016, "name": "新目白通り", "highway": "primary", "cycleway_type": "on_road", "length_m": 456.29653166261681, "lts": 1, "surface": "asphalt", "lit": "yes" }, "geometry": { "type": "MultiLineString", "coordinates": [ [ [ 139.704585105943607, 35.716088987856907 ], [ 139.704320599999988, 35.7161539 ], [ 139.704147799999987, 35.7161901 ], [ 139.703998500000012, 35.7162189 ], [ 139.7038647, 35.7162364 ], [ 139.7037341, 35.716249 ], [ 139.703603, 35.7162556 ], [ 139.7033557, 35.7162617 ], [ 139.7032783, 35.7162652 ], [ 139.703210899999988, 35.7162646 ], [ 139.702772900000014, 35.7162757 ], [ 139.702703500000013, 35.7162774 ], [ 139.700571, 35.716423 ], [ 139.700508500000012, 35.7164268 ], [ 139.700395, 35.7164338 ], [ 139.6996454, 35.7164786 ], [ 139.6995662, 35.7164831 ] ] ] } },
{ "type": "Feature", "properties": { "way_id": 1029, "name": "外苑東通り", "highway": "primary", "cycleway_type": "on_road", "length_m": 5.5170945298143055, "lts": 2, "surface": "paved", "lit": "yes" }, "geometry": { "type": "MultiLineString", "coordinates": [ [ [ 139.7192246, 35.6803779 ], [ 139.7192123, 35.6804265 ] ] ] } },
{ "type": "Feature", "properties": { "way_id": 1097, "name": null, "highway": "tertiary", "cycleway_type": "on_road", "length_m": 531.47074643029146, "lts": 1, "surface": "paved", "lit": null }, "geometry": { "type": "MultiLineString", "coordinates": [ [ [ 139.7411191, 35.7035125 ], [ 139.741102, 35.7036348 ], [ 139.7410863, 35.7037348 ], [ 139.7410588, 35.7040196 ], [ 139.7410242, 35.704319 ], [ 139.7410112, 35.7043709 ], [ 139.7409994, 35.7044158 ], [ 139.7409501, 35.704614 ], [ 139.740927699999986, 35.7047003 ], [ 139.7408211, 35.7051162 ], [ 139.740753500000011, 35.7053237 ], [ 139.7407063, 35.7055026 ], [ 139.7407007, 35.7055247 ], [ 139.740690699999988, 35.7055616 ], [ 139.740532800000011, 35.70609 ], [ 139.740518900000012, 35.7061364 ], [ 139.740509800000012, 35.7061687 ], [ 139.7404238, 35.7065517 ], [ 139.740395799999988, 35.7067038 ], [ 139.7403751, 35.7068167 ], [ 139.7403318, 35.7070528 ], [ 139.7403223, 35.7070952 ], [ 139.7403191, 35.7071387 ], [ 139.74036430000001, 35.7073435 ], [ 139.7403712, 35.7073745 ], [ 139.740465699999987, 35.7078025 ], [ 139.7405432, 35.7081542 ], [ 139.7405542, 35.7082119 ] ] ] } },
{ "type": "Feature", "properties": { "way_id": 1113, "name": "靖国通り", "highway": "primary", "cycleway_type": "on_road", "length_m": 39.6671876666693, "lts": 1, "surface": "paved", "lit": "yes" }, "geometry": { "type": "MultiLineString", "coordinates": [ [ [ 139.735445291637774, 35.69172896872832 ], [ 139.7353057, 35.6919151 ], [ 139.7352567, 35.6919804 ], [ 139.7352144, 35.6920324 ] ] ] } },
{ "type": "Feature", "properties": { "way_id": 1376, "name": "飯田橋石神井新座線（支線）（補助第74号線）", "highway": "primary", "cycleway_type": "on_road", "length_m": 104.63012241174425, "lts": 1, "surface": null, "lit": "yes" }, "geometry": { "type": "MultiLineString", "coordinates": [ [ [ 139.703234900000012, 35.7092235 ], [ 139.7030968, 35.7092532 ], [ 139.702350700000011, 35.7094311 ], [ 139.7021226, 35.7094873 ] ] ] } },
{ "type": "Feature", "properties": { "way_id": 1377, "name": "諏訪通り", "highway": "primary", "cycleway_type": "on_road", "length_m": 233.78959337782911, "lts": 1, "surface": "asphalt", "lit": "yes" }, "geometry": { "type": "MultiLineString", "coordinates": [ [ [ 139.7033626, 35.7093481 ], [ 139.703514, 35.7093149 ], [ 139.7038096, 35.7092423 ], [ 139.7042564, 35.7091301 ], [ 139.7043679, 35.7091055 ], [ 139.7044402, 35.7090916 ], [ 139.704506900000013, 35.7090781 ], [ 139.7048436, 35.7089991 ], [ 139.704977, 35.708973 ], [ 139.705087099999986, 35.7089554 ], [ 139.705336100000011, 35.7089161 ], [ 139.7056925, 35.7088704 ], [ 139.7058706, 35.7088361 ] ] ] } },
{ "type": "Feature", "properties": { "way_id": 1386, "name": "靖国通り", "highway": "primary", "cycleway_type": "on_road", "length_m": 38.634484386197023, "lts": 1, "surface": "paved", "lit": "yes" }, "geometry": { "type": "MultiLineString", "coordinates": [ [ [ 139.7352804, 35.6920704 ], [ 139.735325, 35.6920112 ], [ 139.73550364901152, 35.691774013912671 ] ] ] } },
{ "type": "Feature", "properties": { "way_id": 1475, "name": null, "highway": "tertiary", "cycleway_type": "on_road", "length_m": 535.94422001945793, "lts": 1, "surface": "asphalt", "lit": "yes" }, "geometry": { "type": "MultiLineString", "coordinates": [ [ [ 139.7021176, 35.7088169 ], [ 139.701457, 35.7069566 ], [ 139.700522, 35.7042525 ], [ 139.700497, 35.7041802 ] ] ] } },
{ "type": "Feature", "properties": { "way_id": 1505, "name": "大久保通り", "highway": "secondary", "cycleway_type": "on_road", "length_m": 665.78123582409626, "lts": 1, "surface": "asphalt", "lit": null }, "geometry": { "type": "MultiLineString", "coordinates": [ [ [ 139.708008400000011, 35.7008936 ], [ 139.707821700000011, 35.7009047 ], [ 139.7077807, 35.700909 ], [ 139.7076205, 35.7009249 ], [ 139.7072827, 35.7009539 ], [ 139.7069981, 35.7009825 ], [ 139.706432799999988, 35.7010244 ], [ 139.706378, 35.7010297 ], [ 139.7060842, 35.7010512 ], [ 139.7059291, 35.7010651 ], [ 139.705741, 35.7010777 ], [ 139.705682200000012, 35.7010817 ], [ 139.7051686, 35.7011284 ], [ 139.7048591, 35.7011513 ], [ 139.704688800000014, 35.7011624 ], [ 139.704411, 35.7011823 ], [ 139.7043085, 35.7011905 ], [ 139.704118099999988, 35.7012057 ], [ 139.7039232, 35.7012181 ], [ 139.7037688, 35.7012286 ], [ 139.703536500000013, 35.7012456 ], [ 139.7032323, 35.701267 ], [ 139.703177899999986, 35.7012708 ], [ 139.7029779, 35.7012877 ], [ 139.7024116, 35.7013241 ], [ 139.7023494, 35.7013286 ], [ 139.7022897, 35.7013329 ], [ 139.7020042, 35.7013498 ], [ 139.7016332, 35.7013787 ], [ 139.701556900000014, 35.7013853 ], [ 139.7014584, 35.7013904 ], [ 139.7010991, 35.7014122 ], [ 139.700977200000011, 35.7014204 ], [ 139.700814799999989, 35.7014338 ], [ 139.700667, 35.7014414 ] ] ] } },
{ "type": "Feature", "properties": { "way_id": 1563, "name": "明治通り", "highway": "primary", "cycleway_type": "on_road", "length_m": 18.402545311556125, "lts": 1, "surface": "asphalt", "lit": "yes" }, "geometry": { "type": "MultiLineString", "coordinates": [ [ [ 139.711632218232609, 35.714793221823257 ], [ 139.7115531, 35.7146407 ] ] ] } },
{ "type": "Feature", "properties": { "way_id": 1586, "name": "飯田橋石神井新座線（支線）（補助第74号線）", "highway": "primary", "cycleway_type": "on_road", "length_m": 191.85573632783712, "lts": 1, "surface": null, "lit": "yes" }, "geometry": { "type": "MultiLineString", "coordinates": [ [ [ 139.7001031, 35.7093117 ], [ 139.7004258, 35.7094378 ], [ 139.7005, 35.7094608 ], [ 139.7008691, 35.7095755 ], [ 139.7011076, 35.7096435 ], [ 139.70126830000001, 35.7096784 ], [ 139.701352899999989, 35.7096878 ], [ 139.7014335, 35.7096957 ], [ 139.7015347, 35.709697 ], [ 139.7017279, 35.7097001 ], [ 139.7019267, 35.7096727 ], [ 139.702129899999989, 35.7096285 ] ] ] } },
{ "type": "Feature", "properties": { "way_id": 1589, "name": "飯田橋石神井新座線（支線）（補助第74号線）", "highway": "primary", "cycleway_type": "on_road", "length_m": 197.46376470547017, "lts": 1, "surface": null, "lit": "yes" }, "geometry": { "type": "MultiLineString", "coordinates": [ [ [ 139.7021226, 35.7094873 ], [ 139.702052400000014, 35.7095006 ], [ 139.70192, 35.7095293 ], [ 139.7017562, 35.7095489 ], [ 139.7016315, 35.7095556 ], [ 139.701462, 35.7095536 ], [ 139.7013294, 35.7095454 ], [ 139.7011798, 35.7095191 ], [ 139.700599399999987, 35.7093497 ], [ 139.7002445, 35.7092342 ], [ 139.7001568, 35.709207 ], [ 139.7000276, 35.7091658 ] ] ] } },
{ "type": "Feature", "properties": { "way_id": 1697, "name": null, "highway": "tertiary", "cycleway_type": "on_road", "length_m": 52.073140208621119, "lts": 1, "surface": "asphalt", "lit": null }, "geometry": { "type": "MultiLineString", "coordinates": [ [ [ 139.686022799999989, 35.6846515 ], [ 139.6859806, 35.684624 ], [ 139.685937200000012, 35.6846086 ], [ 139.685616399999986, 35.6845767 ], [ 139.6855214, 35.6845672 ], [ 139.6854864, 35.6845604 ], [ 139.685466746341461, 35.68455662682927 ] ] ] } },
{ "type": "Feature", "properties": { "way_id": 1818, "name": "明治通り", "highway": "primary", "cycleway_type": "on_road", "length_m": 373.51610556412214, "lts": 2, "surface": "paved", "lit": "yes" }, "geometry": { "type": "MultiLineString", "coordinates": [ [ [ 139.7115531, 35.7146407 ], [ 139.7114742, 35.7144912 ], [ 139.7114216, 35.7143918 ], [ 139.7113669, 35.7142907 ], [ 139.7112874, 35.7141526 ], [ 139.711012399999987, 35.7136499 ], [ 139.7109812, 35.7135967 ], [ 139.710913799999986, 35.7134867 ], [ 139.7106684, 35.7130807 ], [ 139.7105004, 35.7128121 ], [ 139.7104484, 35.7126538 ], [ 139.7103081, 35.7122099 ], [ 139.7101102, 35.7116143 ], [ 139.71008040000001, 35.7115162 ] ] ] } },
{ "type": "Feature", "properties": { "way_id": 1850, "name": "外堀通り", "highway": "secondary", "cycleway_type": "on_road", "length_m": 753.36327452075045, "lts": 1, "surface": "paved", "lit": "yes" }, "geometry": { "type": "MultiLineString", "coordinates": [ [ [ 139.7381039, 35.6947794 ], [ 139.7383709, 35.6951113 ], [ 139.7384721, 35.6952371 ], [ 139.7386055, 35.6954029 ], [ 139.7386713, 35.6954856 ], [ 139.7386902, 35.6955155 ], [ 139.7387237, 35.6955652 ], [ 139.7388257, 35.6957306 ], [ 139.7391964, 35.6963024 ], [ 139.739523, 35.6967702 ], [ 139.7396248, 35.6968989 ], [ 139.739821400000011, 35.6971173 ], [ 139.7400584, 35.6973712 ], [ 139.7403678, 35.6977054 ], [ 139.7404749, 35.6978358 ], [ 139.7405225, 35.697897 ], [ 139.7407421, 35.6981809 ], [ 139.7410463, 35.6985666 ], [ 139.7414595, 35.6990554 ], [ 139.7418516, 35.6994999 ], [ 139.742614, 35.7003878 ], [ 139.7426618, 35.7004435 ] ] ] } },
{ "type": "Feature", "properties": { "way_id": 1942, "name": "外堀通り", "highway": "secondary", "cycleway_type": "on_road", "length_m": 330.19198563964625, "lts": 1, "surface": "paved", "lit": "yes" }, "geometry": { "type": "MultiLineString", "coordinates": [ [ [ 139.735137400000013, 35.6921928 ], [ 139.7352816, 35.6922719 ], [ 139.7353273, 35.6922981 ], [ 139.7355254, 35.6924136 ], [ 139.7355886, 35.6924511 ], [ 139.7358836, 35.6926652 ], [ 139.736106400000011, 35.6928352 ], [ 139.7361905, 35.6929032 ], [ 139.7364177, 35.6930865 ], [ 139.7365121, 35.6931634 ], [ 139.7371028, 35.6936414 ], [ 139.7372197, 35.6937647 ], [ 139.7373318, 35.6938768 ], [ 139.73764, 35.6942133 ], [ 139.737702500000012, 35.6942874 ] ] ] } },
{ "type": "Feature", "properties": { "way_id": 2145, "name": "外苑東通り", "highway": "primary", "cycleway_type": "on_road", "length_m": 109.56255839953138, "lts": 2, "surface": "paved", "lit": "yes" }, "geometry": { "type": "MultiLineString", "coordinates": [ [ [ 139.723428500000011, 35.6918442 ], [ 139.7239308, 35.6927411 ] ] ] } },
{ "type": "Feature", "properties": { "way_id": 2147, "name": "外苑東通り", "highway": "primary", "cycleway_type": "on_road", "length_m": 109.8435211106753, "lts": 2, "surface": "paved", "lit": "yes" }, "geometry": { "type": "MultiLineString", "coordinates": [ [ [ 139.724020599999989, 35.6927187 ], [ 139.7235119, 35.6918214 ] ] ] } },
{ "type": "Feature", "properties": { "way_id": 2160, "name": "新宿通り", "highway": "trunk", "cycleway_type": "on_road", "length_m": 4.626022934046504, "lts": 2, "surface": null, "lit": "yes" }, "geometry": { "type": "MultiLineString", "coordinates": [ [ [ 139.7302967, 35.6858097 ], [ 139.730347231917875, 35.685802901073238 ] ] ] } },
{ "type": "Feature", "properties": { "way_id": 2161, "name": "新宿通り", "highway": "trunk", "cycleway_type": "on_road", "length_m": 597.67498670280133, "lts": 2, "surface": "paved", "lit": "yes" }, "geometry": { "type": "MultiLineString", "coordinates": [ [ [ 139.729372399999988, 35.6858334 ], [ 139.7292157, 35.6858815 ], [ 139.728575400000011, 35.6860869 ], [ 139.7277277, 35.6863693 ], [ 139.7276716, 35.686388 ], [ 139.7275301, 35.6864353 ], [ 139.7273802, 35.6864896 ], [ 139.727075500000012, 35.6865998 ], [ 139.7266099, 35.6867619 ], [ 139.7259563, 35.6870213 ], [ 139.725930299999987, 35.6870316 ], [ 139.7257658, 35.6870901 ], [ 139.7254431, 35.687209 ], [ 139.7251154, 35.6873159 ], [ 139.7250613, 35.6873336 ], [ 139.724926900000014, 35.6873774 ], [ 139.7248078, 35.6874089 ], [ 139.7239424, 35.6876327 ], [ 139.7234694, 35.6877437 ], [ 139.7234182, 35.6877556 ], [ 139.7232242, 35.6878012 ] ] ] } },
{ "type": "Feature", "properties": { "way_id": 2289, "name": "飯田橋石神井新座線", "highway": "primary", "cycleway_type": "on_road", "length_m": 237.2443754787927, "lts": 2, "surface": "asphalt", "lit": "yes" }, "geometry": { "type": "MultiLineString", "coordinates": [ [ [ 139.7438778, 35.7050477 ], [ 139.7437339, 35.7049609 ], [ 139.7436463, 35.7049047 ], [ 139.7429503, 35.7044883 ], [ 139.7427878, 35.7043877 ], [ 139.742681299999987, 35.7043217 ], [ 139.7426198, 35.7042845 ], [ 139.742406100000011, 35.7041552 ], [ 139.7417723, 35.7037715 ] ] ] } },
{ "type": "Feature", "properties": { "way_id": 2290, "name": "飯田橋石神井新座線", "highway": "primary", "cycleway_type": "on_road", "length_m": 46.38453262985341, "lts": 2, "surface": "asphalt", "lit": "yes" }, "geometry": { "type": "MultiLineString", "coordinates": [ [ [ 139.743430100000012, 35.7049182 ], [ 139.743631599999986, 35.7050411 ], [ 139.7436887, 35.7050779 ], [ 139.7438345, 35.7051753 ] ] ] } },
{ "type": "Feature", "properties": { "way_id": 2488, "name": "早稲田通り", "highway": "primary", "cycleway_type": "on_road", "length_m": 278.58473090403129, "lts": 1, "surface": "paved", "lit": "yes" }, "geometry": { "type": "MultiLineString", "coordinates": [ [ [ 139.7381939, 35.702236 ], [ 139.7380975, 35.7022949 ], [ 139.7377246, 35.7024878 ], [ 139.737696699999987, 35.7025051 ], [ 139.7374886, 35.7026231 ], [ 139.7374063, 35.70267 ], [ 139.737054300000011, 35.7028924 ], [ 139.736899, 35.7029945 ], [ 139.7366575, 35.7031383 ], [ 139.736602799999986, 35.7031722 ], [ 139.7363892, 35.7033002 ], [ 139.7361699, 35.7034486 ], [ 139.7360361, 35.7035348 ], [ 139.7359468, 35.7035784 ], [ 139.735852099999988, 35.7036033 ], [ 139.73575360000001, 35.7036293 ], [ 139.7356681, 35.7036518 ] ] ] } },
{ "type": "Feature", "properties": { "way_id": 2489, "name": "大久保通り", "highway": "primary", "cycleway_type": "on_road", "length_m": 128.74839615424932, "lts": 1, "surface": "asphalt", "lit": "yes" }, "geometry": { "type": "MultiLineString", "coordinates": [ [ [ 139.7381939, 35.702236 ], [ 139.7382491, 35.7022853 ], [ 139.738359300000013, 35.7023893 ], [ 139.7384189, 35.702443 ], [ 139.7386325, 35.7026513 ], [ 139.7387244, 35.7027399 ], [ 139.73911720000001, 35.7031182 ] ] ] } },
{ "type": "Feature", "properties": { "way_id": 3239, "name": "明治通り", "highway": "primary", "cycleway_type": "on_road", "length_m": 201.42111874657201, "lts": 2, "surface": "asphalt", "lit": "yes" }, "geometry": { "type": "MultiLineString", "coordinates": [ [ [ 139.7048359, 35.6908841 ], [ 139.70494260000001, 35.6910523 ], [ 139.7051194, 35.6913541 ], [ 139.7052414, 35.691536 ], [ 139.7053765, 35.691766 ], [ 139.7054024, 35.6918101 ], [ 139.705439899999988, 35.691872 ], [ 139.7056349, 35.6921968 ], [ 139.70566310000001, 35.692245 ], [ 139.7057469, 35.6923881 ], [ 139.7058178, 35.6925102 ] ] ] } },
{ "type": "Feature", "properties": { "way_id": 3324, "name": "早稲田通り", "highway": "primary", "cycleway_type": "on_road", "length_m": 8.9942643119483119, "lts": 1, "surface": "asphalt", "lit": "yes" }, "geometry": { "type": "MultiLineString", "coordinates": [ [ [ 139.709982700000012, 35.711532 ], [ 139.71008040000001, 35.7115162 ] ] ] } },
{ "type": "Feature", "properties": { "way_id": 3328, "name": "諏訪通り", "highway": "primary", "cycleway_type": "on_road", "length_m": 54.358134066966414, "lts": 1, "surface": "asphalt", "lit": "yes" }, "geometry": { "type": "MultiLineString", "coordinates": [ [ [ 139.7090796, 35.7084266 ], [ 139.708964400000013, 35.7084314 ], [ 139.7084783, 35.7084508 ] ] ] } },
{ "type": "Feature", "properties": { "way_id": 3329, "name": "諏訪通り", "highway": "primary", "cycleway_type": "on_road", "length_m": 240.87109762866484, "lts": 1, "surface": "asphalt", "lit": "yes" }, "geometry": { "type": "MultiLineString", "coordinates": [ [ [ 139.7058293, 35.7087377 ], [ 139.7055669, 35.7087638 ], [ 139.705034500000011, 35.7088279 ], [ 139.704459500000013, 35.7089367 ], [ 139.7043177, 35.7089635 ], [ 139.7042069, 35.7089883 ], [ 139.7033856, 35.7091884 ], [ 139.703234900000012, 35.7092235 ] ] ] } },
{ "type": "Feature", "properties": { "way_id": 3335, "name": "角筈和泉町線", "highway": "secondary", "cycleway_type": "on_road", "length_m": 331.87788084643216, "lts": 1, "surface": "asphalt", "lit": null }, "geometry": { "type": "MultiLineString", "coordinates": [ [ [ 139.6864005, 35.6844909 ], [ 139.6865017, 35.6845493 ], [ 139.686605, 35.6846053 ], [ 139.6869797, 35.684818 ], [ 139.6874416, 35.685079 ], [ 139.687748199999987, 35.6852522 ], [ 139.68809060000001, 35.6854455 ], [ 139.688281100000012, 35.6855529 ], [ 139.6883571, 35.6855957 ], [ 139.688415, 35.6856281 ], [ 139.6885402, 35.6856982 ], [ 139.6890123, 35.6859625 ], [ 139.689288800000014, 35.6861187 ], [ 139.689420899999988, 35.6861907 ] ] ] } },
{ "type": "Feature", "properties": { "way_id": 3340, "name": "御苑通り", "highway": "primary", "cycleway_type": "on_road", "length_m": 121.01584180165923, "lts": 1, "surface": "asphalt", "lit": "yes" }, "geometry": { "type": "MultiLineString", "coordinates": [ [ [ 139.706871299999989, 35.6926019 ], [ 139.7068207, 35.693067 ], [ 139.7068084, 35.6932261 ], [ 139.706786599999987, 35.6934625 ], [ 139.7067807, 35.6935073 ], [ 139.706769799999989, 35.6935872 ], [ 139.706756500000012, 35.6936861 ] ] ] } },
{ "type": "Feature", "properties": { "way_id": 3341, "name": "御苑通り", "highway": "primary", "cycleway_type": "on_road", "length_m": 44.760113483861367, "lts": 1, "surface": "asphalt", "lit": "yes" }, "geometry": { "type": "MultiLineString", "coordinates": [ [ [ 139.7069246, 35.6922017 ], [ 139.7069088, 35.6923263 ], [ 139.706871299999989, 35.6926019 ] ] ] } },
{ "type": "Feature", "properties": { "way_id": 3427, "name": null, "highway": "tertiary", "cycleway_type": "on_road", "length_m": 43.206643130018783, "lts": 1, "surface": "asphalt", "lit": null }, "geometry": { "type": "MultiLineString", "coordinates": [ [ [ 139.7071708, 35.6965799 ], [ 139.7072852, 35.6965655 ], [ 139.707388, 35.696554 ], [ 139.707644499999986, 35.6965253 ] ] ] } },
{ "type": "Feature", "properties": { "way_id": 3473, "name": "文化センター通り", "highway": "unclassified", "cycleway_type": "on_road", "length_m": 580.62109771148403, "lts": 1, "surface": "asphalt", "lit": null }, "geometry": { "type": "MultiLineString", "coordinates": [ [ [ 139.712026900000012, 35.6976752 ], [ 139.7120284, 35.6976128 ], [ 139.7120223, 35.6975893 ], [ 139.7120023, 35.6975735 ], [ 139.7115293, 35.6974113 ], [ 139.711456700000014, 35.6973871 ], [ 139.7113895, 35.697362 ], [ 139.711328900000012, 35.6973401 ], [ 139.7112359, 35.6973025 ], [ 139.7111502, 35.6972627 ], [ 139.711059799999987, 35.6972139 ], [ 139.710977, 35.697165 ], [ 139.7108796, 35.6971064 ], [ 139.710791, 35.6970485 ], [ 139.7107752, 35.6970378 ], [ 139.710610300000013, 35.6969256 ], [ 139.710582100000011, 35.6969037 ], [ 139.710507400000012, 35.6968274 ], [ 139.7104754, 35.6967928 ], [ 139.7104478, 35.6967536 ], [ 139.7103802, 35.6966392 ], [ 139.7101936, 35.6963059 ], [ 139.7101691, 35.6962718 ], [ 139.7100867, 35.6961848 ], [ 139.7099858, 35.6960945 ], [ 139.709951, 35.6960775 ], [ 139.7098554, 35.6960378 ], [ 139.7092691, 35.6956662 ], [ 139.709181699999988, 35.6956105 ], [ 139.7088757, 35.6954177 ], [ 139.7086323, 35.6952648 ], [ 139.7084486, 35.6951483 ], [ 139.7083534, 35.6951052 ], [ 139.7081902, 35.6950421 ], [ 139.7080679, 35.6950067 ], [ 139.7079582, 35.6949822 ], [ 139.7074854, 35.6949548 ], [ 139.7074053, 35.6949501 ], [ 139.707127899999989, 35.6949341 ], [ 139.7070584, 35.694925 ], [ 139.7069568, 35.6949116 ] ] ] } },
{ "type": "Feature", "properties": { "way_id": 3476, "name": "抜弁天通り", "highway": "primary", "cycleway_type": "on_road", "length_m": 11.010772018000269, "lts": 1, "surface": "asphalt", "lit": null }, "geometry": { "type": "MultiLineString", "coordinates": [ [ [ 139.7075594, 35.6978893 ], [ 139.7074388, 35.6979039 ] ] ] } },
{ "type": "Feature", "properties": { "way_id": 3493, "name": "新宿通り", "highway": "trunk", "cycleway_type": "on_road", "length_m": 224.46705379962791, "lts": 2, "surface": "paved", "lit": "yes" }, "geometry": { "type": "MultiLineString", "coordinates": [ [ [ 139.7202909, 35.6878796 ], [ 139.7201552, 35.6878688 ], [ 139.7190886, 35.6877706 ], [ 139.7181052, 35.6876752 ], [ 139.7179831, 35.6876632 ], [ 139.7178218, 35.6876489 ] ] ] } },
{ "type": "Feature", "properties": { "way_id": 3494, "name": "外苑東通り", "highway": "primary", "cycleway_type": "on_road", "length_m": 43.86321357590937, "lts": 2, "surface": "paved", "lit": "yes" }, "geometry": { "type": "MultiLineString", "coordinates": [ [ [ 139.720391, 35.6878866 ], [ 139.7203811, 35.6877539 ], [ 139.72036270000001, 35.6874928 ] ] ] } },
{ "type": "Feature", "properties": { "way_id": 3495, "name": "外苑東通り", "highway": "primary", "cycleway_type": "on_road", "length_m": 529.24016222131604, "lts": 2, "surface": "paved", "lit": "yes" }, "geometry": { "type": "MultiLineString", "coordinates": [ [ [ 139.72030190000001, 35.6880172 ], [ 139.720310500000011, 35.6881435 ], [ 139.7203189, 35.6882699 ], [ 139.720322399999986, 35.6883232 ], [ 139.7203266, 35.6883862 ], [ 139.7203495, 35.6887324 ], [ 139.7203681, 35.6888398 ], [ 139.7204159, 35.6889976 ], [ 139.7204662, 35.6890935 ], [ 139.7205234, 35.6891855 ], [ 139.7205873, 35.6892704 ], [ 139.720660400000014, 35.6893536 ], [ 139.7207707, 35.6894582 ], [ 139.7211389, 35.6897565 ], [ 139.72146140000001, 35.6900235 ], [ 139.7215819, 35.6901233 ], [ 139.721759100000014, 35.69027 ], [ 139.7218461, 35.6903413 ], [ 139.7219529, 35.6904288 ], [ 139.7221041, 35.6905673 ], [ 139.7223474, 35.6907866 ], [ 139.7231242, 35.6914961 ], [ 139.7232646, 35.6916244 ], [ 139.7233306, 35.6916853 ], [ 139.7233848, 35.6917656 ], [ 139.723428500000011, 35.6918442 ] ] ] } },
{ "type": "Feature", "properties": { "way_id": 3496, "name": "新宿通り", "highway": "trunk", "cycleway_type": "on_road", "length_m": 419.24375315614748, "lts": 2, "surface": "paved", "lit": "yes" }, "geometry": { "type": "MultiLineString", "coordinates": [ [ [ 139.7232785, 35.6879322 ], [ 139.723462500000011, 35.6878878 ], [ 139.72407050000001, 35.6877429 ], [ 139.7246892, 35.6875871 ], [ 139.72480920000001, 35.6875571 ], [ 139.724889499999989, 35.687537 ], [ 139.7250205, 35.6875037 ], [ 139.7251287, 35.6874664 ], [ 139.7255236, 35.6873305 ], [ 139.7257803, 35.6872258 ], [ 139.7258328, 35.6872044 ], [ 139.7259914, 35.6871399 ], [ 139.7273851, 35.6866206 ], [ 139.7274428, 35.6865991 ], [ 139.727583900000013, 35.6865465 ] ] ] } },
{ "type": "Feature", "properties": { "way_id": 3499, "name": "御苑通り", "highway": "primary", "cycleway_type": "on_road", "length_m": 15.05882108105517, "lts": 2, "surface": "asphalt", "lit": "yes" }, "geometry": { "type": "MultiLineString", "coordinates": [ [ [ 139.706943, 35.6920671 ], [ 139.7069246, 35.6922017 ] ] ] } },
{ "type": "Feature", "properties": { "way_id": 3533, "name": "目白通り", "highway": "primary", "cycleway_type": "on_road", "length_m": 8.7328214591692213, "lts": 1, "surface": "paved", "lit": "yes" }, "geometry": { "type": "MultiLineString", "coordinates": [ [ [ 139.6996838, 35.7222227 ], [ 139.6997653, 35.722232 ], [ 139.6997796, 35.7222336 ] ] ] } },
{ "type": "Feature", "properties": { "way_id": 3550, "name": "神高橋", "highway": "tertiary", "cycleway_type": "on_road", "length_m": 7.1722092122072079, "lts": 1, "surface": null, "lit": "yes" }, "geometry": { "type": "MultiLineString", "coordinates": [ [ [ 139.705292140663175, 35.714641309889473 ], [ 139.7052846, 35.7145771 ] ] ] } },
{ "type": "Feature", "properties": { "way_id": 3616, "name": "スタジアム通り", "highway": "tertiary", "cycleway_type": "on_road", "length_m": 212.07792343447943, "lts": 2, "surface": "asphalt", "lit": null }, "geometry": { "type": "MultiLineString", "coordinates": [ [ [ 139.7154678, 35.6750085 ], [ 139.7161835, 35.6735964 ], [ 139.71627620000001, 35.6734136 ], [ 139.716365290905856, 35.673246116362343 ] ] ] } },
{ "type": "Feature", "properties": { "way_id": 3717, "name": "明治通り", "highway": "primary", "cycleway_type": "on_road", "length_m": 168.17282996116521, "lts": 2, "surface": "asphalt", "lit": "yes" }, "geometry": { "type": "MultiLineString", "coordinates": [ [ [ 139.7069253, 35.6936027 ], [ 139.706769799999989, 35.6935872 ], [ 139.7066398, 35.6935799 ], [ 139.7065684, 35.6935668 ], [ 139.7064973, 35.6935339 ], [ 139.706445800000012, 35.6934449 ], [ 139.706133599999987, 35.6929091 ], [ 139.705995800000011, 35.6926677 ], [ 139.7059741, 35.6926305 ], [ 139.7058922, 35.6924904 ] ] ] } },
{ "type": "Feature", "properties": { "way_id": 3743, "name": "新宿通り", "highway": "trunk", "cycleway_type": "on_road", "length_m": 65.317085279792664, "lts": 2, "surface": "paved", "lit": "yes" }, "geometry": { "type": "MultiLineString", "coordinates": [ [ [ 139.729586, 35.6859175 ], [ 139.7297486, 35.6858866 ], [ 139.7302967, 35.6858097 ] ] ] } },
{ "type": "Feature", "properties": { "way_id": 3765, "name": "目白通り", "highway": "primary", "cycleway_type": "on_road", "length_m": 125.64558508813469, "lts": 1, "surface": "paved", "lit": "yes" }, "geometry": { "type": "MultiLineString", "coordinates": [ [ [ 139.6942642, 35.7223247 ], [ 139.694455126836914, 35.722252778370681 ] ], [ [ 139.6946, 35.722196893273541 ], [ 139.69486280000001, 35.7220925 ], [ 139.69509930000001, 35.7220085 ], [ 139.695206899999988, 35.721978 ], [ 139.6953245, 35.7219547 ], [ 139.6954215, 35.7219421 ], [ 139.6955222, 35.7219328 ], [ 139.6957181, 35.7219273 ] ] ] } },
{ "type": "Feature", "properties": { "way_id": 3785, "name": "早稲田通り", "highway": "primary", "cycleway_type": "on_road", "length_m": 132.13306499262833, "lts": 1, "surface": "asphalt", "lit": "yes" }, "geometry": { "type": "MultiLineString", "coordinates": [ [ [ 139.690135199999986, 35.7112974 ], [ 139.6902821, 35.7113005 ], [ 139.690371, 35.7112955 ], [ 139.6903838, 35.7112948 ], [ 139.690528699999987, 35.7112808 ], [ 139.6906673, 35.7112593 ], [ 139.690834, 35.7112262 ], [ 139.6912198, 35.71115 ], [ 139.6913045, 35.7111289 ], [ 139.6915027, 35.7110576 ], [ 139.6915519, 35.7110405 ] ] ] } },
{ "type": "Feature", "properties": { "way_id": 3788, "name": "目白通り", "highway": "primary", "cycleway_type": "on_road", "length_m": 336.18003908549525, "lts": 1, "surface": "paved", "lit": "yes" }, "geometry": { "type": "MultiLineString", "coordinates": [ [ [ 139.6957181, 35.7219273 ], [ 139.696130900000014, 35.7219265 ], [ 139.6962483, 35.7219264 ], [ 139.696943, 35.7219103 ], [ 139.6969592, 35.7219102 ], [ 139.6973298, 35.7219061 ], [ 139.6974868, 35.7219083 ], [ 139.697618299999988, 35.7219203 ], [ 139.6981123, 35.7219848 ], [ 139.6981997, 35.7220002 ], [ 139.69857780000001, 35.7220527 ], [ 139.6989657, 35.7221158 ], [ 139.6994113, 35.7221847 ] ] ] } },
{ "type": "Feature", "properties": { "way_id": 3789, "name": "目白通り", "highway": "primary", "cycleway_type": "on_road", "length_m": 2.333362057149762, "lts": 1, "surface": "paved", "lit": "yes" }, "geometry": { "type": "MultiLineString", "coordinates": [ [ [ 139.684397499999989, 35.7226969 ], [ 139.6844, 35.722697206495887 ] ], [ [ 139.684590143958815, 35.722718521593826 ], [ 139.684613294036097, 35.722720797642168 ] ] ] } },
{ "type": "Feature", "properties": { "way_id": 3814, "name": "外堀通り", "highway": "secondary", "cycleway_type": "on_road", "length_m": 753.56716689857205, "lts": 1, "surface": "paved", "lit": "yes" }, "geometry": { "type": "MultiLineString", "coordinates": [ [ [ 139.7427657, 35.7004079 ], [ 139.742714799999987, 35.7003494 ], [ 139.7422019, 35.6997597 ], [ 139.7415866, 35.699059 ], [ 139.7412527, 35.6986741 ], [ 139.7410339, 35.6983925 ], [ 139.7408437, 35.6981548 ], [ 139.7405894, 35.6978606 ], [ 139.7405441, 35.6978065 ], [ 139.7403137, 35.6975315 ], [ 139.7401376, 35.6973325 ], [ 139.739797, 35.6969594 ], [ 139.7396637, 35.696796 ], [ 139.739509199999986, 35.6965813 ], [ 139.739179, 35.6961111 ], [ 139.7388039, 35.695528 ], [ 139.738752, 35.6954473 ], [ 139.7386876, 35.6953609 ], [ 139.7384491, 35.6950409 ], [ 139.7381905, 35.6947503 ] ] ] } },
{ "type": "Feature", "properties": { "way_id": 3817, "name": null, "highway": "tertiary", "cycleway_type": "on_road", "length_m": 219.34050918684673, "lts": 1, "surface": "asphalt", "lit": "yes" }, "geometry": { "type": "MultiLineString", "coordinates": [ [ [ 139.712798143120096, 35.675646789001277 ], [ 139.7128654, 35.6756582 ], [ 139.71311, 35.6756935 ], [ 139.713325700000013, 35.675702 ], [ 139.7134651, 35.6756998 ], [ 139.7135917, 35.6756906 ], [ 139.7139649, 35.6756512 ], [ 139.7145257, 35.6755804 ], [ 139.7150787, 35.6755349 ], [ 139.715207, 35.6755243 ] ] ] } },
{ "type": "Feature", "properties": { "way_id": 3819, "name": "外堀通り", "highway": "secondary", "cycleway_type": "on_road", "length_m": 179.46573308906389, "lts": 1, "surface": "paved", "lit": "yes" }, "geometry": { "type": "MultiLineString", "coordinates": [ [ [ 139.7446486, 35.7025394 ], [ 139.7445668, 35.7024784 ], [ 139.744499924332729, 35.70242336864473 ] ], [ [ 139.743664429949916, 35.701654563527534 ], [ 139.7435604, 35.7015411 ], [ 139.7434132, 35.7013673 ], [ 139.7433706, 35.701307 ], [ 139.7433379, 35.7012608 ], [ 139.7433016, 35.7012066 ], [ 139.7430128, 35.7007762 ], [ 139.742803900000013, 35.7004648 ], [ 139.7427657, 35.7004079 ] ] ] } },
{ "type": "Feature", "properties": { "way_id": 3869, "name": "飯田橋石神井新座線", "highway": "primary", "cycleway_type": "on_road", "length_m": 243.23100166483718, "lts": 2, "surface": "asphalt", "lit": "yes" }, "geometry": { "type": "MultiLineString", "coordinates": [ [ [ 139.7411191, 35.7035125 ], [ 139.7413345, 35.7036608 ], [ 139.74155780000001, 35.7037721 ], [ 139.741693700000013, 35.7038515 ], [ 139.7418916, 35.7039681 ], [ 139.7421208, 35.704103 ], [ 139.742245200000013, 35.7041797 ], [ 139.742413199999987, 35.7042803 ], [ 139.7424806, 35.7043214 ], [ 139.7426094, 35.7044007 ], [ 139.742664499999989, 35.7044353 ], [ 139.7430201, 35.7046522 ], [ 139.7432738, 35.7048224 ] ] ] } },
{ "type": "Feature", "properties": { "way_id": 3888, "name": "早稲田通り", "highway": "primary", "cycleway_type": "on_road", "length_m": 9.1580059621961123, "lts": 1, "surface": "asphalt", "lit": "yes" }, "geometry": { "type": "MultiLineString", "coordinates": [ [ [ 139.7100606, 35.7114544 ], [ 139.709961099999987, 35.7114704 ] ] ] } },
{ "type": "Feature", "properties": { "way_id": 3891, "name": "明治通り", "highway": "primary", "cycleway_type": "on_road", "length_m": 842.78751939797019, "lts": 2, "surface": "asphalt", "lit": "yes" }, "geometry": { "type": "MultiLineString", "coordinates": [ [ [ 139.7091823, 35.7084215 ], [ 139.709164500000014, 35.7082692 ], [ 139.709003, 35.7070684 ], [ 139.7088678, 35.7060496 ], [ 139.7088286, 35.7057647 ], [ 139.7087876, 35.7054667 ], [ 139.7087569, 35.7051685 ], [ 139.70871360000001, 35.7048532 ], [ 139.708709, 35.7047904 ], [ 139.708679499999988, 35.7045531 ], [ 139.7086486, 35.7043298 ], [ 139.7086468, 35.7043173 ], [ 139.7086308, 35.7042037 ], [ 139.7085303, 35.7034496 ], [ 139.708514900000011, 35.7033637 ], [ 139.7082701, 35.701992 ], [ 139.7081507, 35.7010546 ], [ 139.708145300000012, 35.7010168 ], [ 139.7081251, 35.700892 ] ] ] } },
{ "type": "Feature", "properties": { "way_id": 3892, "name": "明治通り", "highway": "primary", "cycleway_type": "on_road", "length_m": 843.29773188868819, "lts": 2, "surface": "asphalt", "lit": "yes" }, "geometry": { "type": "MultiLineString", "coordinates": [ [ [ 139.708008400000011, 35.7008936 ], [ 139.7080311, 35.7010249 ], [ 139.708172600000012, 35.7019954 ], [ 139.7081784, 35.7020341 ], [ 139.708413400000012, 35.7033722 ], [ 139.7084255, 35.7034409 ], [ 139.708538, 35.7042147 ], [ 139.7085563, 35.7043376 ], [ 139.7085818, 35.7045371 ], [ 139.7086158, 35.7047979 ], [ 139.7086239, 35.7048624 ], [ 139.708687, 35.7053661 ], [ 139.7087723, 35.706057 ], [ 139.708843800000011, 35.7065768 ], [ 139.708904600000011, 35.7070156 ], [ 139.7089104, 35.7070786 ], [ 139.7090608, 35.7082751 ], [ 139.7090796, 35.7084266 ] ] ] } },
{ "type": "Feature", "properties": { "way_id": 3893, "name": "明治通り", "highway": "primary", "cycleway_type": "on_road", "length_m": 15.362661172853496, "lts": 2, "surface": "paved", "lit": "yes" }, "geometry": { "type": "MultiLineString", "coordinates": [ [ [ 139.7040462, 35.6897029 ], [ 139.704125800000014, 35.689825 ] ] ] } },
{ "type": "Feature", "properties": { "way_id": 3905, "name": null, "highway": "footway", "cycleway_type": "shared_path", "length_m": 3.1406150428979509, "lts": 1, "surface": "asphalt", "lit": null }, "geometry": { "type": "MultiLineString", "coordinates": [ [ [ 139.744338598144026, 35.702410133190419 ], [ 139.744305700000012, 35.7024193 ] ] ] } },
{ "type": "Feature", "properties": { "way_id": 3906, "name": null, "highway": "cycleway", "cycleway_type": "dedicated", "length_m": 56.656266753030685, "lts": 1, "surface": null, "lit": null }, "geometry": { "type": "MultiLineString", "coordinates": [ [ [ 139.7442541, 35.702705 ], [ 139.7443188, 35.7026931 ], [ 139.7443787, 35.7026919 ], [ 139.7444382, 35.7027061 ], [ 139.7444937, 35.7027425 ], [ 139.7445319, 35.7027963 ], [ 139.744603, 35.7028178 ], [ 139.7446965, 35.702845 ], [ 139.7447554, 35.7028612 ], [ 139.7448063, 35.7028758 ] ] ] } },
{ "type": "Feature", "properties": { "way_id": 4036, "name": null, "highway": "footway", "cycleway_type": "dedicated", "length_m": 16.848815993775634, "lts": 1, "surface": "asphalt", "lit": null }, "geometry": { "type": "MultiLineString", "coordinates": [ [ [ 139.7441907, 35.7025625 ], [ 139.7442153, 35.7026154 ], [ 139.7442426, 35.7026782 ], [ 139.7442541, 35.702705 ] ] ] } },
{ "type": "Feature", "properties": { "way_id": 4041, "name": "外堀通り", "highway": "secondary", "cycleway_type": "on_road", "length_m": 223.63864971731317, "lts": 1, "surface": "paved", "lit": "yes" }, "geometry": { "type": "MultiLineString", "coordinates": [ [ [ 139.7426618, 35.7004435 ], [ 139.7426982, 35.7004986 ], [ 139.7431978, 35.7012527 ], [ 139.743235, 35.7013089 ], [ 139.7432641, 35.7013552 ], [ 139.743313699999987, 35.7014339 ], [ 139.7434625, 35.7016184 ], [ 139.7436185, 35.7017908 ], [ 139.7438459, 35.7020152 ], [ 139.7439765, 35.7021391 ] ] ] } },
{ "type": "Feature", "properties": { "way_id": 4042, "name": "外堀通り", "highway": "secondary", "cycleway_type": "on_road", "length_m": 43.064430617250586, "lts": 1, "surface": "asphalt", "lit": "yes" }, "geometry": { "type": "MultiLineString", "coordinates": [ [ [ 139.7439765, 35.7021391 ], [ 139.7441732, 35.7023086 ], [ 139.7442073, 35.702338 ], [ 139.744305700000012, 35.7024193 ] ] ] } },
{ "type": "Feature", "properties": { "way_id": 4054, "name": "飯田橋石神井新座線", "highway": "primary", "cycleway_type": "on_road", "length_m": 17.681963517736698, "lts": 2, "surface": "asphalt", "lit": "yes" }, "geometry": { "type": "MultiLineString", "coordinates": [ [ [ 139.7432738, 35.7048224 ], [ 139.743430100000012, 35.7049182 ] ] ] } },
{ "type": "Feature", "properties": { "way_id": 4061, "name": null, "highway": "residential", "cycleway_type": "on_road", "length_m": 56.698894988708304, "lts": 1, "surface": "paved", "lit": null }, "geometry": { "type": "MultiLineString", "coordinates": [ [ [ 139.740595899999988, 35.7024576 ], [ 139.74031260000001, 35.7026028 ], [ 139.74010530000001, 35.7027183 ], [ 139.7400711, 35.7027374 ] ] ] } },
{ "type": "Feature", "properties": { "way_id": 4062, "name": "飯田橋石神井新座線", "highway": "primary", "cycleway_type": "on_road", "length_m": 66.093084880941078, "lts": 2, "surface": null, "lit": "yes" }, "geometry": { "type": "MultiLineString", "coordinates": [ [ [ 139.7417723, 35.7037715 ], [ 139.741434700000013, 35.703599 ], [ 139.7411191, 35.7035125 ] ] ] } },
{ "type": "Feature", "properties": { "way_id": 4063, "name": null, "highway": "cycleway", "cycleway_type": "dedicated", "length_m": 5.4510332102046712, "lts": 1, "surface": null, "lit": null }, "geometry": { "type": "MultiLineString", "coordinates": [ [ [ 139.7448063, 35.7028758 ], [ 139.74485895496062, 35.70289977656693 ] ] ] } },
{ "type": "Feature", "properties": { "way_id": 4065, "name": "新目白通り", "highway": "primary", "cycleway_type": "on_road", "length_m": 52.095558262241532, "lts": 2, "surface": "asphalt", "lit": "yes" }, "geometry": { "type": "MultiLineString", "coordinates": [ [ [ 139.711506500000013, 35.7142263 ], [ 139.7113669, 35.7142907 ], [ 139.7112889, 35.7143252 ], [ 139.7111459, 35.7143879 ], [ 139.710998393060947, 35.714448152020061 ] ] ] } },
{ "type": "Feature", "properties": { "way_id": 4131, "name": "外堀通り", "highway": "secondary", "cycleway_type": "on_road", "length_m": 329.85767166712668, "lts": 1, "surface": "paved", "lit": "yes" }, "geometry": { "type": "MultiLineString", "coordinates": [ [ [ 139.7377793, 35.6942446 ], [ 139.7377093, 35.6941644 ], [ 139.7376193, 35.6940613 ], [ 139.7374117, 35.6938199 ], [ 139.7372149, 35.6936251 ], [ 139.7368887, 35.6933569 ], [ 139.7364791, 35.6930429 ], [ 139.735727700000012, 35.6924593 ], [ 139.7356437, 35.6923998 ], [ 139.7354523, 35.6922773 ], [ 139.7353717, 35.6922324 ], [ 139.7352205, 35.6921485 ] ] ] } },
{ "type": "Feature", "properties": { "way_id": 4338, "name": "早稲田通り", "highway": "primary", "cycleway_type": "on_road", "length_m": 978.27842078110166, "lts": 1, "surface": "asphalt", "lit": "yes" }, "geometry": { "type": "MultiLineString", "coordinates": [ [ [ 139.720193, 35.7059463 ], [ 139.720350599999989, 35.7059212 ], [ 139.7203783, 35.7059169 ], [ 139.7206717, 35.705883 ], [ 139.7210268, 35.7058555 ], [ 139.721501600000011, 35.7058064 ], [ 139.7218835, 35.7057629 ], [ 139.7220089, 35.7057496 ], [ 139.7230781, 35.7056358 ], [ 139.7231606, 35.705627 ], [ 139.7232258, 35.7056204 ], [ 139.724196299999988, 35.7055224 ], [ 139.7243662, 35.7055008 ], [ 139.7244364, 35.7054945 ], [ 139.7245207, 35.705486 ], [ 139.724963300000013, 35.7054371 ], [ 139.7250785, 35.7054171 ], [ 139.725211, 35.7053904 ], [ 139.7258243, 35.705165 ], [ 139.7259076, 35.7051341 ], [ 139.7266381, 35.7048438 ], [ 139.7267468, 35.704813 ], [ 139.7268105, 35.7047936 ], [ 139.7268865, 35.7047733 ], [ 139.726981599999988, 35.7047538 ], [ 139.727173099999987, 35.7047444 ], [ 139.7272389, 35.7047426 ], [ 139.7278423, 35.7047623 ], [ 139.7281123, 35.7047711 ], [ 139.728338900000011, 35.7047781 ], [ 139.728491600000012, 35.7047828 ], [ 139.728822, 35.7047947 ], [ 139.7290351, 35.7048035 ], [ 139.7296905, 35.7048341 ], [ 139.730360100000013, 35.7048543 ], [ 139.73057080000001, 35.7048628 ], [ 139.7306348, 35.7048658 ], [ 139.7307926, 35.704811 ] ] ] } },
{ "type": "Feature", "properties": { "way_id": 4365, "name": null, "highway": "footway", "cycleway_type": "shared_path", "length_m": 24.709437940612776, "lts": 1, "surface": null, "lit": null }, "geometry": { "type": "MultiLineString", "coordinates": [ [ [ 139.740251, 35.7029064 ], [ 139.74010530000001, 35.7027183 ] ] ] } },
{ "type": "Feature", "properties": { "way_id": 4377, "name": "諏訪通り", "highway": "primary", "cycleway_type": "on_road", "length_m": 872.94665065986771, "lts": 1, "surface": "asphalt", "lit": "yes" }, "geometry": { "type": "MultiLineString", "coordinates": [ [ [ 139.718323, 35.7064891 ], [ 139.7182558, 35.7064698 ], [ 139.718137399999989, 35.7064441 ], [ 139.717974199999986, 35.706419 ], [ 139.717803800000013, 35.7064092 ], [ 139.7175848, 35.7064097 ], [ 139.717323599999986, 35.7064226 ], [ 139.7171014, 35.7064516 ], [ 139.7170121, 35.7064689 ], [ 139.7168869, 35.7064974 ], [ 139.7167617, 35.7065301 ], [ 139.716656, 35.7065654 ], [ 139.716489700000011, 35.7066287 ], [ 139.716441800000013, 35.7066511 ], [ 139.716304799999989, 35.7067217 ], [ 139.7161784, 35.7067955 ], [ 139.7155852, 35.7072124 ], [ 139.7154461, 35.7072904 ], [ 139.715328199999988, 35.7073479 ], [ 139.7152466, 35.707387 ], [ 139.715051100000011, 35.7074548 ], [ 139.7147919, 35.7075181 ], [ 139.7144865, 35.7075828 ], [ 139.7138334, 35.7077166 ], [ 139.713741, 35.7077371 ], [ 139.7136485, 35.7077577 ], [ 139.7135434, 35.7077806 ], [ 139.7131637, 35.707856 ], [ 139.712909700000012, 35.707905 ], [ 139.7126615, 35.7079558 ], [ 139.7122984, 35.7080269 ], [ 139.71209, 35.7080624 ], [ 139.712004799999988, 35.7080791 ], [ 139.711913900000013, 35.7080967 ], [ 139.7111555, 35.7082419 ], [ 139.710915300000011, 35.7082898 ], [ 139.7106751, 35.7083377 ], [ 139.7105751, 35.7083565 ], [ 139.7104856, 35.7083676 ], [ 139.7103777, 35.7083771 ], [ 139.7102634, 35.7083814 ], [ 139.7100639, 35.7083878 ], [ 139.7095338, 35.7084027 ], [ 139.7092855, 35.7084091 ], [ 139.7091823, 35.7084215 ] ] ] } },
{ "type": "Feature", "properties": { "way_id": 4422, "name": "大久保通り", "highway": "secondary", "cycleway_type": "on_road", "length_m": 694.24093449727263, "lts": 1, "surface": "asphalt", "lit": "yes" }, "geometry": { "type": "MultiLineString", "coordinates": [ [ [ 139.6952499, 35.7018425 ], [ 139.6951081, 35.7018576 ], [ 139.6947294, 35.7018939 ], [ 139.694556299999988, 35.7019098 ], [ 139.6944624, 35.7019184 ], [ 139.6941655, 35.7019383 ], [ 139.6937619, 35.701973 ], [ 139.6934387, 35.7019463 ], [ 139.6933712, 35.7019421 ], [ 139.692997, 35.7019086 ], [ 139.691665300000011, 35.7018041 ], [ 139.6912399, 35.7017715 ], [ 139.690596699999986, 35.7017222 ], [ 139.6899867, 35.7017033 ], [ 139.688826, 35.7016673 ], [ 139.6884562, 35.7016564 ], [ 139.6883388, 35.701653 ], [ 139.6882441, 35.7016499 ], [ 139.6878501, 35.7016372 ], [ 139.6876196, 35.70163 ], [ 139.6875876, 35.7016299 ] ] ] } },
{ "type": "Feature", "properties": { "way_id": 4429, "name": "都市計画道路補助第72号線(つつじ通り)", "highway": "tertiary", "cycleway_type": "on_road", "length_m": 595.7186037454519, "lts": 1, "surface": null, "lit": null }, "geometry": { "type": "MultiLineString", "coordinates": [ [ [ 139.701098, 35.704232 ], [ 139.701134599999989, 35.7044935 ], [ 139.7021565, 35.7073924 ], [ 139.7024371, 35.7081821 ], [ 139.7025535, 35.7085337 ], [ 139.7025979, 35.7086332 ], [ 139.7026548, 35.7087121 ], [ 139.7027234, 35.7087805 ], [ 139.7031668, 35.7091568 ], [ 139.703234900000012, 35.7092235 ] ] ] } },
{ "type": "Feature", "properties": { "way_id": 4434, "name": "目白通り", "highway": "primary", "cycleway_type": "on_road", "length_m": 581.91587293905172, "lts": 2, "surface": "paved", "lit": null }, "geometry": { "type": "MultiLineString", "coordinates": [ [ [ 139.73547067383393, 35.70907017239491 ], [ 139.7358741, 35.7090081 ], [ 139.736010099999987, 35.70899 ], [ 139.7361321, 35.7089718 ], [ 139.737083399999989, 35.7088247 ], [ 139.7382963, 35.7086385 ], [ 139.7384154, 35.7086202 ], [ 139.7385099, 35.7086057 ], [ 139.7395406, 35.7084491 ], [ 139.7396794, 35.7084269 ], [ 139.7408585, 35.7082571 ], [ 139.7412439, 35.7082016 ], [ 139.741367700000012, 35.7081839 ], [ 139.74181, 35.7081278 ] ] ] } },
{ "type": "Feature", "properties": { "way_id": 4436, "name": "明治通り", "highway": "primary", "cycleway_type": "on_road", "length_m": 7.1218340453121654, "lts": 2, "surface": "asphalt", "lit": "yes" }, "geometry": { "type": "MultiLineString", "coordinates": [ [ [ 139.709961099999987, 35.7114704 ], [ 139.709982700000012, 35.711532 ] ] ] } },
{ "type": "Feature", "properties": { "way_id": 4453, "name": "明治通り", "highway": "primary", "cycleway_type": "on_road", "length_m": 335.55651150842738, "lts": 2, "surface": "asphalt", "lit": "yes" }, "geometry": { "type": "MultiLineString", "coordinates": [ [ [ 139.7075594, 35.6978893 ], [ 139.7075384, 35.6977768 ], [ 139.707307500000013, 35.6966708 ], [ 139.7072852, 35.6965655 ], [ 139.7070534, 35.6954069 ], [ 139.70698010000001, 35.6950501 ], [ 139.7069568, 35.6949116 ] ] ] } },
{ "type": "Feature", "properties": { "way_id": 4454, "name": "明治通り", "highway": "primary", "cycleway_type": "on_road", "length_m": 474.818090317545, "lts": 2, "surface": "asphalt", "lit": "yes" }, "geometry": { "type": "MultiLineString", "coordinates": [ [ [ 139.706756500000012, 35.6936861 ], [ 139.7067094, 35.693973 ], [ 139.7067236, 35.6944913 ], [ 139.7067673, 35.6947715 ], [ 139.706795199999988, 35.6948913 ], [ 139.7068304, 35.6950417 ], [ 139.7068732, 35.6952304 ], [ 139.7070271, 35.6958745 ], [ 139.707159, 35.6965125 ], [ 139.7071708, 35.6965799 ], [ 139.7071894, 35.6966861 ], [ 139.7071949, 35.6967175 ], [ 139.7074089, 35.6977506 ], [ 139.7074174, 35.6977914 ], [ 139.7074388, 35.6979039 ] ] ] } },
{ "type": "Feature", "properties": { "way_id": 4459, "name": "明治通り", "highway": "primary", "cycleway_type": "on_road", "length_m": 10.447671395820606, "lts": 2, "surface": "paved", "lit": null }, "geometry": { "type": "MultiLineString", "coordinates": [ [ [ 139.707575, 35.6979824 ], [ 139.7075594, 35.6978893 ] ] ] } },
{ "type": "Feature", "properties": { "way_id": 4461, "name": "明治通り", "highway": "primary", "cycleway_type": "on_road", "length_m": 346.50968179538017, "lts": 2, "surface": "paved", "lit": "yes" }, "geometry": { "type": "MultiLineString", "coordinates": [ [ [ 139.7100606, 35.7114544 ], [ 139.7100309, 35.7113545 ], [ 139.7098586, 35.7107477 ], [ 139.7096947, 35.7101993 ], [ 139.709685400000012, 35.7101682 ], [ 139.70958, 35.7098374 ], [ 139.7092147, 35.70859 ], [ 139.7092029, 35.7085235 ], [ 139.7091823, 35.7084215 ] ] ] } },
{ "type": "Feature", "properties": { "way_id": 4504, "name": "明治通り", "highway": "primary", "cycleway_type": "on_road", "length_m": 327.33304547901838, "lts": 2, "surface": "asphalt", "lit": "yes" }, "geometry": { "type": "MultiLineString", "coordinates": [ [ [ 139.7081251, 35.700892 ], [ 139.7081009, 35.7007744 ], [ 139.7078636, 35.699499 ], [ 139.7076026, 35.6981513 ], [ 139.7075939, 35.6981065 ], [ 139.707575, 35.6979824 ] ] ] } },
{ "type": "Feature", "properties": { "way_id": 4505, "name": "明治通り", "highway": "primary", "cycleway_type": "on_road", "length_m": 325.85544591352976, "lts": 2, "surface": "asphalt", "lit": "yes" }, "geometry": { "type": "MultiLineString", "coordinates": [ [ [ 139.7074546, 35.6979979 ], [ 139.7074737, 35.6981227 ], [ 139.707568, 35.6986102 ], [ 139.7077429, 35.6995139 ], [ 139.707767100000012, 35.6996387 ], [ 139.707975299999987, 35.7007144 ], [ 139.7079889, 35.7007849 ], [ 139.708008400000011, 35.7008936 ] ] ] } },
{ "type": "Feature", "properties": { "way_id": 4517, "name": null, "highway": "unclassified", "cycleway_type": "on_road", "length_m": 77.618846309208678, "lts": 1, "surface": "paved", "lit": null }, "geometry": { "type": "MultiLineString", "coordinates": [ [ [ 139.723849300000012, 35.6891038 ], [ 139.723926799999987, 35.6890771 ], [ 139.7240047, 35.6890525 ], [ 139.724555400000014, 35.6888777 ], [ 139.7246499, 35.6888501 ] ] ] } },
{ "type": "Feature", "properties": { "way_id": 4565, "name": "環状4号線", "highway": "primary", "cycleway_type": "on_road", "length_m": 194.55175540189555, "lts": 2, "surface": "asphalt", "lit": null }, "geometry": { "type": "MultiLineString", "coordinates": [ [ [ 139.7157145, 35.6958449 ], [ 139.7156994, 35.695931 ], [ 139.7157487, 35.6960409 ], [ 139.716154499999988, 35.6969629 ], [ 139.7161979, 35.6970568 ], [ 139.716374800000011, 35.6975004 ] ] ] } },
{ "type": "Feature", "properties": { "way_id": 4600, "name": "新目白通り", "highway": "primary", "cycleway_type": "on_road", "length_m": 458.34454992234782, "lts": 1, "surface": "asphalt", "lit": "yes" }, "geometry": { "type": "MultiLineString", "coordinates": [ [ [ 139.699568699999986, 35.7165371 ], [ 139.6996497, 35.7165325 ], [ 139.7002368, 35.7164992 ], [ 139.7003526, 35.7164915 ], [ 139.700477299999989, 35.7164829 ], [ 139.7008538, 35.7164567 ], [ 139.7017286, 35.7163924 ], [ 139.702519, 35.7163525 ], [ 139.702688, 35.7163452 ], [ 139.7032237, 35.7163494 ], [ 139.703310499999986, 35.71635 ], [ 139.7033939, 35.7163501 ], [ 139.7036798, 35.7163444 ], [ 139.703854799999988, 35.7163299 ], [ 139.7040534, 35.7163054 ], [ 139.704170299999987, 35.7162816 ], [ 139.7043185, 35.7162515 ], [ 139.704612997206425, 35.716182890781177 ] ] ] } },
{ "type": "Feature", "properties": { "way_id": 4605, "name": "花道通り", "highway": "unclassified", "cycleway_type": "on_road", "length_m": 110.27979698267833, "lts": 1, "surface": "asphalt", "lit": "yes" }, "geometry": { "type": "MultiLineString", "coordinates": [ [ [ 139.7055191, 35.694914 ], [ 139.705466, 35.6949432 ], [ 139.705421199999989, 35.6949511 ], [ 139.7049859, 35.6949596 ], [ 139.7043979, 35.694971 ], [ 139.7043103, 35.6949726 ] ] ] } },
{ "type": "Feature", "properties": { "way_id": 4607, "name": "大久保通り", "highway": "primary", "cycleway_type": "on_road", "length_m": 168.05610279683589, "lts": 1, "surface": "paved", "lit": "yes" }, "geometry": { "type": "MultiLineString", "coordinates": [ [ [ 139.739285, 35.7032702 ], [ 139.7393122, 35.7032819 ], [ 139.7393435, 35.703287 ], [ 139.7400355, 35.7033694 ], [ 139.74037580000001, 35.703409 ], [ 139.7409264, 35.7034706 ], [ 139.74099910000001, 35.7034861 ], [ 139.7411191, 35.7035125 ] ] ] } },
{ "type": "Feature", "properties": { "way_id": 4652, "name": "津の守坂通り", "highway": "tertiary", "cycleway_type": "on_road", "length_m": 369.53664770848206, "lts": 1, "surface": "paved", "lit": null }, "geometry": { "type": "MultiLineString", "coordinates": [ [ [ 139.7255061, 35.6921384 ], [ 139.7254611, 35.6920418 ], [ 139.7253925, 35.6919172 ], [ 139.725349599999987, 35.6918492 ], [ 139.7253138, 35.6917914 ], [ 139.725130400000012, 35.69151 ], [ 139.7251032, 35.6914658 ], [ 139.7249606, 35.6912337 ], [ 139.724928, 35.6911815 ], [ 139.7245934, 35.6906372 ], [ 139.7245135, 35.6904896 ], [ 139.7240406, 35.6894994 ], [ 139.7239146, 35.6892353 ], [ 139.7238927, 35.6891904 ], [ 139.723849300000012, 35.6891038 ] ] ] } },
{ "type": "Feature", "properties": { "way_id": 4664, "name": "大久保通り", "highway": "secondary", "cycleway_type": "on_road", "length_m": 468.72252225786218, "lts": 1, "surface": "paved", "lit": null }, "geometry": { "type": "MultiLineString", "coordinates": [ [ [ 139.7271476, 35.6994364 ], [ 139.727360800000014, 35.6994487 ], [ 139.7276434, 35.6994649 ], [ 139.7279858, 35.6994622 ], [ 139.728214799999989, 35.6994389 ], [ 139.7291923, 35.6992554 ], [ 139.7292481, 35.6992449 ], [ 139.72993, 35.6991327 ], [ 139.730019700000014, 35.6991203 ], [ 139.7300592, 35.6991182 ], [ 139.7300942, 35.6991183 ], [ 139.7310829, 35.6992899 ], [ 139.7317861, 35.6994193 ], [ 139.7321618, 35.6995426 ], [ 139.73221860000001, 35.6995613 ] ] ] } },
{ "type": "Feature", "properties": { "way_id": 4674, "name": "外苑東通り", "highway": "primary", "cycleway_type": "on_road", "length_m": 9.2105927171168567, "lts": 2, "surface": "paved", "lit": "yes" }, "geometry": { "type": "MultiLineString", "coordinates": [ [ [ 139.7193556, 35.6804437 ], [ 139.719358199999988, 35.6804054 ], [ 139.719370700000013, 35.6803621 ] ] ] } },
{ "type": "Feature", "properties": { "way_id": 4675, "name": "外苑東通り", "highway": "primary", "cycleway_type": "on_road", "length_m": 20.584749278575185, "lts": 2, "surface": "paved", "lit": "yes" }, "geometry": { "type": "MultiLineString", "coordinates": [ [ [ 139.7192123, 35.6804265 ], [ 139.7192206, 35.6806115 ] ] ] } },
{ "type": "Feature", "properties": { "way_id": 4676, "name": "外苑東通り", "highway": "primary", "cycleway_type": "on_road", "length_m": 766.62629220080953, "lts": 2, "surface": "paved", "lit": "yes" }, "geometry": { "type": "MultiLineString", "coordinates": [ [ [ 139.7192206, 35.6806115 ], [ 139.7192418, 35.680745 ], [ 139.7192454, 35.6807662 ], [ 139.719251899999989, 35.6808045 ], [ 139.7193021, 35.6810422 ], [ 139.7194323, 35.6817053 ], [ 139.719511899999986, 35.6820824 ], [ 139.719652700000012, 35.6827782 ], [ 139.719668399999989, 35.6828561 ], [ 139.719764700000013, 35.6833199 ], [ 139.719819300000012, 35.6835927 ], [ 139.71985810000001, 35.6837867 ], [ 139.719919299999987, 35.6840919 ], [ 139.719933, 35.6841605 ], [ 139.7199718, 35.6844906 ], [ 139.7199745, 35.6845302 ], [ 139.7201026, 35.6859134 ], [ 139.7201768, 35.6866386 ], [ 139.7201964, 35.6868345 ], [ 139.720213, 35.6869997 ], [ 139.7202546, 35.6874485 ] ] ] } },
{ "type": "Feature", "properties": { "way_id": 4687, "name": "外苑東通り", "highway": "primary", "cycleway_type": "on_road", "length_m": 36.885683797378178, "lts": 2, "surface": "paved", "lit": "yes" }, "geometry": { "type": "MultiLineString", "coordinates": [ [ [ 139.7194376, 35.68098 ], [ 139.719375, 35.6806522 ] ] ] } },
{ "type": "Feature", "properties": { "way_id": 4711, "name": "目白通り", "highway": "primary", "cycleway_type": "on_road", "length_m": 422.29611214734433, "lts": 1, "surface": "paved", "lit": "yes" }, "geometry": { "type": "MultiLineString", "coordinates": [ [ [ 139.6997796, 35.7222336 ], [ 139.700210199999987, 35.7222849 ], [ 139.7007327, 35.7223446 ], [ 139.701105399999989, 35.7223955 ], [ 139.7012178, 35.7224109 ], [ 139.7014725, 35.7224539 ], [ 139.7016511, 35.722484 ], [ 139.701906900000012, 35.7225222 ], [ 139.702309, 35.7225824 ], [ 139.7024074, 35.722597 ], [ 139.702532, 35.7226062 ], [ 139.7027048, 35.7226109 ], [ 139.7028446, 35.7226163 ], [ 139.7031603, 35.722622 ], [ 139.7033305, 35.7226252 ], [ 139.703649, 35.7226313 ], [ 139.7036804, 35.7226319 ], [ 139.703866, 35.7226355 ], [ 139.7041594, 35.7226411 ], [ 139.704417799999987, 35.7226455 ] ] ] } },
{ "type": "Feature", "properties": { "way_id": 4712, "name": "目白通り", "highway": "primary", "cycleway_type": "on_road", "length_m": 24.960070451865843, "lts": 1, "surface": "paved", "lit": "yes" }, "geometry": { "type": "MultiLineString", "coordinates": [ [ [ 139.6994113, 35.7221847 ], [ 139.6996838, 35.7222227 ] ] ] } },
{ "type": "Feature", "properties": { "way_id": 4798, "name": "明治通り", "highway": "primary", "cycleway_type": "on_road", "length_m": 15.960106182986477, "lts": 2, "surface": "paved", "lit": "yes" }, "geometry": { "type": "MultiLineString", "coordinates": [ [ [ 139.7042333, 35.6898384 ], [ 139.7041519, 35.689711 ] ] ] } },
{ "type": "Feature", "properties": { "way_id": 4830, "name": null, "highway": "footway", "cycleway_type": "shared_path", "length_m": 16.666192713772915, "lts": 1, "surface": null, "lit": null }, "geometry": { "type": "MultiLineString", "coordinates": [ [ [ 139.744305700000012, 35.7024193 ], [ 139.7441298, 35.7024647 ] ] ] } },
{ "type": "Feature", "properties": { "way_id": 4920, "name": "外苑東通り", "highway": "primary", "cycleway_type": "on_road", "length_m": 48.049547606176908, "lts": 2, "surface": "paved", "lit": "yes" }, "geometry": { "type": "MultiLineString", "coordinates": [ [ [ 139.7202546, 35.6874485 ], [ 139.720276399999989, 35.6876891 ], [ 139.7202815, 35.6877459 ], [ 139.7202909, 35.6878796 ] ] ] } },
{ "type": "Feature", "properties": { "way_id": 4921, "name": "外苑東通り", "highway": "primary", "cycleway_type": "on_road", "length_m": 729.49691992522389, "lts": 2, "surface": "paved", "lit": "yes" }, "geometry": { "type": "MultiLineString", "coordinates": [ [ [ 139.72036270000001, 35.6874928 ], [ 139.7203321, 35.6870627 ], [ 139.7202943, 35.6866269 ], [ 139.720252, 35.686133 ], [ 139.7200717, 35.6845263 ], [ 139.7200705, 35.6844844 ], [ 139.7200274, 35.6841472 ], [ 139.720017, 35.6840759 ], [ 139.72000460000001, 35.6839995 ], [ 139.7199181, 35.6835464 ], [ 139.7198334, 35.6831391 ], [ 139.7197582, 35.6827628 ], [ 139.7197462, 35.682705 ], [ 139.7196635, 35.6822646 ], [ 139.7195811, 35.6817723 ], [ 139.719565499999987, 35.6816873 ], [ 139.7195496, 35.6816008 ], [ 139.719507599999986, 35.6813723 ], [ 139.7194376, 35.68098 ] ] ] } },
{ "type": "Feature", "properties": { "way_id": 5045, "name": "環状4号線", "highway": "primary", "cycleway_type": "on_road", "length_m": 194.11501093244226, "lts": 2, "surface": "asphalt", "lit": null }, "geometry": { "type": "MultiLineString", "coordinates": [ [ [ 139.7164674, 35.697465 ], [ 139.7163718, 35.697249 ], [ 139.716349400000013, 35.6971976 ], [ 139.716295, 35.6970726 ], [ 139.7158763, 35.6960606 ], [ 139.7158413, 35.6959888 ], [ 139.715784, 35.6958814 ], [ 139.7157145, 35.6958449 ] ] ] } },
{ "type": "Feature", "properties": { "way_id": 5154, "name": "飯田橋石神井新座線（支線）（補助第74号線）", "highway": "primary", "cycleway_type": "on_road", "length_m": 100.71153197143862, "lts": 1, "surface": null, "lit": "yes" }, "geometry": { "type": "MultiLineString", "coordinates": [ [ [ 139.702129899999989, 35.7096285 ], [ 139.703204199999988, 35.7093848 ] ] ] } },
{ "type": "Feature", "properties": { "way_id": 5155, "name": "飯田橋石神井新座線（支線）（補助第74号線）", "highway": "primary", "cycleway_type": "on_road", "length_m": 14.872624302718414, "lts": 1, "surface": "asphalt", "lit": "yes" }, "geometry": { "type": "MultiLineString", "coordinates": [ [ [ 139.703204199999988, 35.7093848 ], [ 139.7032303, 35.7093787 ], [ 139.7033626, 35.7093481 ] ] ] } },
{ "type": "Feature", "properties": { "way_id": 5156, "name": "環状4号線", "highway": "primary", "cycleway_type": "on_road", "length_m": 107.96528687283589, "lts": 2, "surface": "asphalt", "lit": null }, "geometry": { "type": "MultiLineString", "coordinates": [ [ [ 139.7168389, 35.6983859 ], [ 139.7168342, 35.6983364 ], [ 139.716822, 35.6982918 ], [ 139.7167982, 35.6982253 ], [ 139.716507799999988, 35.6975595 ], [ 139.7164674, 35.697465 ] ] ] } },
{ "type": "Feature", "properties": { "way_id": 5157, "name": "環状4号線", "highway": "primary", "cycleway_type": "on_road", "length_m": 143.25286892655757, "lts": 2, "surface": "asphalt", "lit": null }, "geometry": { "type": "MultiLineString", "coordinates": [ [ [ 139.716374800000011, 35.6975004 ], [ 139.716413499999987, 35.6975872 ], [ 139.716490599999986, 35.6977635 ], [ 139.7166781, 35.6982381 ], [ 139.7167229, 35.6983445 ], [ 139.7167399, 35.6983962 ], [ 139.7167469, 35.6984387 ], [ 139.7167481, 35.6984836 ], [ 139.7167454, 35.698514 ], [ 139.716736200000014, 35.6985709 ], [ 139.716718899999989, 35.6986117 ], [ 139.7167049, 35.6986391 ], [ 139.7167016, 35.6987351 ] ] ] } },
{ "type": "Feature", "properties": { "way_id": 5249, "name": "明治通り", "highway": "primary", "cycleway_type": "on_road", "length_m": 7.1005781469249758, "lts": 2, "surface": "asphalt", "lit": "yes" }, "geometry": { "type": "MultiLineString", "coordinates": [ [ [ 139.71008040000001, 35.7115162 ], [ 139.7100606, 35.7114544 ] ] ] } },
{ "type": "Feature", "properties": { "way_id": 5266, "name": "目白通り", "highway": "primary", "cycleway_type": "on_road", "length_m": 11.715728158539489, "lts": 1, "surface": "paved", "lit": "yes" }, "geometry": { "type": "MultiLineString", "coordinates": [ [ [ 139.704417799999987, 35.7226455 ], [ 139.7044745, 35.7226433 ], [ 139.704547116498986, 35.722637116498994 ] ] ] } },
{ "type": "Feature", "properties": { "way_id": 5273, "name": "明治通り", "highway": "primary", "cycleway_type": "on_road", "length_m": 37.714744610117158, "lts": 2, "surface": "asphalt", "lit": "yes" }, "geometry": { "type": "MultiLineString", "coordinates": [ [ [ 139.7069568, 35.6949116 ], [ 139.7069354, 35.6947845 ], [ 139.706894799999986, 35.6945762 ] ] ] } },
{ "type": "Feature", "properties": { "way_id": 5274, "name": "明治通り", "highway": "primary", "cycleway_type": "on_road", "length_m": 164.378756729522, "lts": 2, "surface": "asphalt", "lit": "yes" }, "geometry": { "type": "MultiLineString", "coordinates": [ [ [ 139.7058178, 35.6925102 ], [ 139.7059045, 35.6926575 ], [ 139.7060519, 35.6929078 ], [ 139.7063814, 35.6934701 ], [ 139.7064614, 35.6936066 ], [ 139.706549099999989, 35.6936684 ], [ 139.706634900000012, 35.6936754 ], [ 139.706756500000012, 35.6936861 ] ] ] } },
{ "type": "Feature", "properties": { "way_id": 5275, "name": "明治通り", "highway": "primary", "cycleway_type": "on_road", "length_m": 108.39285875072787, "lts": 2, "surface": "asphalt", "lit": "yes" }, "geometry": { "type": "MultiLineString", "coordinates": [ [ [ 139.706894799999986, 35.6945762 ], [ 139.706880899999987, 35.6942354 ], [ 139.7068989, 35.693888 ], [ 139.7069253, 35.6936027 ] ] ] } },
{ "type": "Feature", "properties": { "way_id": 5285, "name": "都市計画道路補助第72号線(つつじ通り)", "highway": "tertiary", "cycleway_type": "on_road", "length_m": 171.58397600916382, "lts": 1, "surface": null, "lit": null }, "geometry": { "type": "MultiLineString", "coordinates": [ [ [ 139.701087300000012, 35.7040695 ], [ 139.701065199999988, 35.7037814 ], [ 139.7010564, 35.7036665 ], [ 139.700979600000011, 35.7029977 ], [ 139.7009334, 35.7025316 ] ] ] } },
{ "type": "Feature", "properties": { "way_id": 5298, "name": "新宿通り", "highway": "trunk", "cycleway_type": "on_road", "length_m": 16.704876135293606, "lts": 2, "surface": "paved", "lit": "yes" }, "geometry": { "type": "MultiLineString", "coordinates": [ [ [ 139.7295494, 35.6857898 ], [ 139.729372399999988, 35.6858334 ] ] ] } },
{ "type": "Feature", "properties": { "way_id": 5302, "name": null, "highway": "tertiary", "cycleway_type": "on_road", "length_m": 62.003913929542747, "lts": 2, "surface": "asphalt", "lit": "yes" }, "geometry": { "type": "MultiLineString", "coordinates": [ [ [ 139.715207, 35.6755243 ], [ 139.7152618, 35.675416 ], [ 139.7154678, 35.6750085 ] ] ] } },
{ "type": "Feature", "properties": { "way_id": 5446, "name": "飯田橋石神井新座線（支線）（補助第74号線）", "highway": "primary", "cycleway_type": "on_road", "length_m": 56.203334899513649, "lts": 1, "surface": null, "lit": "yes" }, "geometry": { "type": "MultiLineString", "coordinates": [ [ [ 139.699420800000013, 35.7090221 ], [ 139.6995724, 35.7091087 ], [ 139.6996316, 35.7091293 ], [ 139.6997314, 35.7091641 ], [ 139.699872, 35.7092321 ], [ 139.699963700000012, 35.7092654 ] ] ] } },
{ "type": "Feature", "properties": { "way_id": 5447, "name": "飯田橋石神井新座線（支線）（補助第74号線）", "highway": "primary", "cycleway_type": "on_road", "length_m": 10.060327476936045, "lts": 1, "surface": null, "lit": "yes" }, "geometry": { "type": "MultiLineString", "coordinates": [ [ [ 139.7000276, 35.7091658 ], [ 139.699918, 35.7091495 ] ] ] } },
{ "type": "Feature", "properties": { "way_id": 5451, "name": "飯田橋石神井新座線（支線）（補助第74号線）", "highway": "primary", "cycleway_type": "on_road", "length_m": 47.343797576214513, "lts": 1, "surface": null, "lit": "yes" }, "geometry": { "type": "MultiLineString", "coordinates": [ [ [ 139.699918, 35.7091495 ], [ 139.699608399999988, 35.7090473 ], [ 139.699420800000013, 35.7090221 ] ] ] } },
{ "type": "Feature", "properties": { "way_id": 5452, "name": "飯田橋石神井新座線（支線）（補助第74号線）", "highway": "primary", "cycleway_type": "on_road", "length_m": 13.598551766527455, "lts": 1, "surface": null, "lit": "yes" }, "geometry": { "type": "MultiLineString", "coordinates": [ [ [ 139.699963700000012, 35.7092654 ], [ 139.7001031, 35.7093117 ] ] ] } },
{ "type": "Feature", "properties": { "way_id": 5453, "name": "諏訪通り", "highway": "primary", "cycleway_type": "on_road", "length_m": 175.60766548069125, "lts": 1, "surface": "asphalt", "lit": "yes" }, "geometry": { "type": "MultiLineString", "coordinates": [ [ [ 139.7063086, 35.7087458 ], [ 139.706457300000011, 35.708704 ], [ 139.7069141, 35.708576 ], [ 139.70705430000001, 35.7085389 ], [ 139.7071967, 35.7085089 ], [ 139.7073287, 35.7084893 ], [ 139.707392, 35.7084855 ], [ 139.707507099999987, 35.7084787 ], [ 139.707588, 35.7084805 ], [ 139.7080584, 35.7084909 ], [ 139.7081972, 35.7084563 ] ] ] } },
{ "type": "Feature", "properties": { "way_id": 5454, "name": "諏訪通り", "highway": "primary", "cycleway_type": "on_road", "length_m": 40.818094047933336, "lts": 1, "surface": "asphalt", "lit": "yes" }, "geometry": { "type": "MultiLineString", "coordinates": [ [ [ 139.7058706, 35.7088361 ], [ 139.706289, 35.7087521 ], [ 139.7063086, 35.7087458 ] ] ] } },
{ "type": "Feature", "properties": { "way_id": 5456, "name": "諏訪通り", "highway": "primary", "cycleway_type": "on_road", "length_m": 218.89835962616016, "lts": 1, "surface": "asphalt", "lit": "yes" }, "geometry": { "type": "MultiLineString", "coordinates": [ [ [ 139.7081972, 35.7084563 ], [ 139.708067, 35.7084284 ], [ 139.707587499999988, 35.7084165 ], [ 139.7075039, 35.7084144 ], [ 139.7073868, 35.7084239 ], [ 139.707232800000014, 35.708438 ], [ 139.7070371, 35.7084733 ], [ 139.7068904, 35.7085116 ], [ 139.706535800000012, 35.7086129 ], [ 139.706428499999987, 35.7086345 ], [ 139.706274900000011, 35.7086594 ], [ 139.7060562, 35.7087026 ], [ 139.7058293, 35.7087377 ] ] ] } },
{ "type": "Feature", "properties": { "way_id": 5471, "name": "早稲田通り", "highway": "primary", "cycleway_type": "on_road", "length_m": 82.673560734853794, "lts": 1, "surface": "asphalt", "lit": "yes" }, "geometry": { "type": "MultiLineString", "coordinates": [ [ [ 139.7307926, 35.704811 ], [ 139.7307806, 35.7047162 ], [ 139.730783300000013, 35.704673 ], [ 139.7307918, 35.7046309 ], [ 139.7308055, 35.704593 ], [ 139.730826799999988, 35.7045614 ], [ 139.7308569, 35.704534 ], [ 139.7308969, 35.7045154 ], [ 139.7309592, 35.7044996 ], [ 139.7313905, 35.704418 ] ] ] } },
{ "type": "Feature", "properties": { "way_id": 5473, "name": "牛込中央通り", "highway": "tertiary", "cycleway_type": "on_road", "length_m": 17.615852348886225, "lts": 1, "surface": "asphalt", "lit": null }, "geometry": { "type": "MultiLineString", "coordinates": [ [ [ 139.733096, 35.7041063 ], [ 139.733072099999987, 35.7040062 ], [ 139.7330575, 35.703951 ] ] ] } },
{ "type": "Feature", "properties": { "way_id": 5490, "name": "早稲田通り", "highway": "primary", "cycleway_type": "on_road", "length_m": 32.76593022078373, "lts": 1, "surface": "asphalt", "lit": "yes" }, "geometry": { "type": "MultiLineString", "coordinates": [ [ [ 139.7327424, 35.7041725 ], [ 139.7329983, 35.7041248 ], [ 139.733096, 35.7041063 ] ] ] } },
{ "type": "Feature", "properties": { "way_id": 5517, "name": "逢坂", "highway": "unclassified", "cycleway_type": "on_road", "length_m": 110.21214114731099, "lts": 1, "surface": null, "lit": null }, "geometry": { "type": "MultiLineString", "coordinates": [ [ [ 139.73923640000001, 35.6979649 ], [ 139.7389131, 35.6979874 ], [ 139.738336, 35.6979781 ], [ 139.7383113, 35.6979857 ], [ 139.7382983, 35.6980016 ], [ 139.7382064, 35.6982068 ] ] ] } },
{ "type": "Feature", "properties": { "way_id": 5702, "name": "目白通り", "highway": "primary", "cycleway_type": "on_road", "length_m": 4.9748234521779029, "lts": 1, "surface": "paved", "lit": "yes" }, "geometry": { "type": "MultiLineString", "coordinates": [ [ [ 139.693959463976938, 35.722412026801152 ], [ 139.6939939, 35.7224075 ], [ 139.694, 35.722406291587525 ] ], [ [ 139.694251669014051, 35.72232966619719 ], [ 139.6942642, 35.7223247 ] ] ] } },
{ "type": "Feature", "properties": { "way_id": 5703, "name": "角筈和泉町線", "highway": "secondary", "cycleway_type": "on_road", "length_m": 59.663871247674749, "lts": 1, "surface": "asphalt", "lit": null }, "geometry": { "type": "MultiLineString", "coordinates": [ [ [ 139.685700144585667, 35.684089652994395 ], [ 139.6861294, 35.6843344 ], [ 139.6862406, 35.6843982 ] ] ] } },
{ "type": "Feature", "properties": { "way_id": 5704, "name": "南通り", "highway": "secondary", "cycleway_type": "on_road", "length_m": 21.788583485661775, "lts": 1, "surface": "asphalt", "lit": null }, "geometry": { "type": "MultiLineString", "coordinates": [ [ [ 139.689420899999988, 35.6861907 ], [ 139.6896165, 35.6863054 ] ] ] } },
{ "type": "Feature", "properties": { "way_id": 5750, "name": "大久保通り", "highway": "secondary", "cycleway_type": "on_road", "length_m": 529.67902563487542, "lts": 1, "surface": "paved", "lit": null }, "geometry": { "type": "MultiLineString", "coordinates": [ [ [ 139.7331556, 35.6998986 ], [ 139.7332434, 35.6999308 ], [ 139.7345603, 35.7003856 ], [ 139.7353869, 35.7006769 ], [ 139.735784, 35.7008342 ], [ 139.735872300000011, 35.7008717 ], [ 139.7359806, 35.7009171 ], [ 139.736799499999989, 35.7012856 ], [ 139.737061399999988, 35.7014032 ], [ 139.737338099999988, 35.7015332 ], [ 139.737465, 35.7016134 ], [ 139.7375786, 35.7017079 ], [ 139.7379253, 35.7020056 ], [ 139.7381392, 35.7021831 ], [ 139.7381939, 35.702236 ] ] ] } },
{ "type": "Feature", "properties": { "way_id": 5758, "name": "早稲田通り", "highway": "primary", "cycleway_type": "on_road", "length_m": 34.422431117814043, "lts": 1, "surface": "asphalt", "lit": "yes" }, "geometry": { "type": "MultiLineString", "coordinates": [ [ [ 139.7323706, 35.7042409 ], [ 139.7327424, 35.7041725 ] ] ] } },
{ "type": "Feature", "properties": { "way_id": 5759, "name": "早稲田通り", "highway": "primary", "cycleway_type": "on_road", "length_m": 14.73643222079204, "lts": 1, "surface": "asphalt", "lit": "yes" }, "geometry": { "type": "MultiLineString", "coordinates": [ [ [ 139.732211299999989, 35.7042697 ], [ 139.7322638, 35.7042606 ], [ 139.7323706, 35.7042409 ] ] ] } },
{ "type": "Feature", "properties": { "way_id": 5760, "name": "早稲田通り", "highway": "primary", "cycleway_type": "on_road", "length_m": 57.877834231605419, "lts": 1, "surface": "asphalt", "lit": "yes" }, "geometry": { "type": "MultiLineString", "coordinates": [ [ [ 139.731585599999988, 35.7043827 ], [ 139.732211299999989, 35.7042697 ] ] ] } },
{ "type": "Feature", "properties": { "way_id": 5761, "name": "早稲田通り", "highway": "primary", "cycleway_type": "on_road", "length_m": 18.048495911613305, "lts": 1, "surface": "asphalt", "lit": "yes" }, "geometry": { "type": "MultiLineString", "coordinates": [ [ [ 139.7313905, 35.704418 ], [ 139.731585599999988, 35.7043827 ] ] ] } },
{ "type": "Feature", "properties": { "way_id": 5882, "name": "新宿通り", "highway": "trunk", "cycleway_type": "on_road", "length_m": 259.42690552416639, "lts": 2, "surface": "paved", "lit": "yes" }, "geometry": { "type": "MultiLineString", "coordinates": [ [ [ 139.7232242, 35.6878012 ], [ 139.7230084, 35.687851 ], [ 139.7228852, 35.6878773 ], [ 139.7225494, 35.6879487 ], [ 139.7222585, 35.6879914 ], [ 139.721997499999986, 35.688011 ], [ 139.7218126, 35.6880158 ], [ 139.7215524, 35.6880039 ], [ 139.7210431, 35.6879529 ], [ 139.7206213, 35.6879101 ], [ 139.7205394, 35.6879018 ], [ 139.720391, 35.6878866 ] ] ] } },
{ "type": "Feature", "properties": { "way_id": 5884, "name": "新宿通り", "highway": "trunk", "cycleway_type": "on_road", "length_m": 263.89248593793707, "lts": 2, "surface": "paved", "lit": "yes" }, "geometry": { "type": "MultiLineString", "coordinates": [ [ [ 139.7204031, 35.6880278 ], [ 139.720553599999988, 35.6880444 ], [ 139.7212549, 35.6881243 ], [ 139.721522099999987, 35.6881507 ], [ 139.721782600000012, 35.6881666 ], [ 139.7220039, 35.6881635 ], [ 139.7222171, 35.6881482 ], [ 139.7224411, 35.6881247 ], [ 139.7228613, 35.688028 ], [ 139.722924299999988, 35.6880135 ], [ 139.7232785, 35.6879322 ] ] ] } },
{ "type": "Feature", "properties": { "way_id": 5895, "name": "外苑東通り", "highway": "primary", "cycleway_type": "on_road", "length_m": 15.332663897005954, "lts": 2, "surface": "paved", "lit": "yes" }, "geometry": { "type": "MultiLineString", "coordinates": [ [ [ 139.7202909, 35.6878796 ], [ 139.72030190000001, 35.6880172 ] ] ] } },
{ "type": "Feature", "properties": { "way_id": 5896, "name": "新宿通り", "highway": "trunk", "cycleway_type": "on_road", "length_m": 9.2153910574469897, "lts": 2, "surface": "paved", "lit": "yes" }, "geometry": { "type": "MultiLineString", "coordinates": [ [ [ 139.72030190000001, 35.6880172 ], [ 139.7204031, 35.6880278 ] ] ] } },
{ "type": "Feature", "properties": { "way_id": 5897, "name": "新宿通り", "highway": "trunk", "cycleway_type": "on_road", "length_m": 9.073820681451565, "lts": 2, "surface": "paved", "lit": "yes" }, "geometry": { "type": "MultiLineString", "coordinates": [ [ [ 139.720391, 35.6878866 ], [ 139.7202909, 35.6878796 ] ] ] } },
{ "type": "Feature", "properties": { "way_id": 5898, "name": "外苑東通り", "highway": "primary", "cycleway_type": "on_road", "length_m": 15.738732160295203, "lts": 2, "surface": "paved", "lit": "yes" }, "geometry": { "type": "MultiLineString", "coordinates": [ [ [ 139.7204031, 35.6880278 ], [ 139.720391, 35.6878866 ] ] ] } },
{ "type": "Feature", "properties": { "way_id": 5941, "name": "角筈和泉町線", "highway": "secondary", "cycleway_type": "on_road", "length_m": 17.743007143716341, "lts": 1, "surface": "asphalt", "lit": null }, "geometry": { "type": "MultiLineString", "coordinates": [ [ [ 139.6862406, 35.6843982 ], [ 139.6864005, 35.6844909 ] ] ] } },
{ "type": "Feature", "properties": { "way_id": 5953, "name": null, "highway": "tertiary", "cycleway_type": "on_road", "length_m": 18.024921740982425, "lts": 1, "surface": "asphalt", "lit": "yes" }, "geometry": { "type": "MultiLineString", "coordinates": [ [ [ 139.703234900000012, 35.7092235 ], [ 139.7033626, 35.7093481 ] ] ] } },
{ "type": "Feature", "properties": { "way_id": 5955, "name": "外堀通り", "highway": "secondary", "cycleway_type": "on_road", "length_m": 7.4647138554667878, "lts": 1, "surface": "paved", "lit": "yes" }, "geometry": { "type": "MultiLineString", "coordinates": [ [ [ 139.7352205, 35.6921485 ], [ 139.735149299999989, 35.6921144 ] ] ] } },
{ "type": "Feature", "properties": { "way_id": 5956, "name": "牛込中央通り", "highway": "tertiary", "cycleway_type": "on_road", "length_m": 8.4113553980993654, "lts": 1, "surface": "asphalt", "lit": null }, "geometry": { "type": "MultiLineString", "coordinates": [ [ [ 139.737702500000012, 35.6942874 ], [ 139.7377793, 35.6942446 ] ] ] } },
{ "type": "Feature", "properties": { "way_id": 5957, "name": "外堀通り", "highway": "secondary", "cycleway_type": "on_road", "length_m": 65.630842264341638, "lts": 1, "surface": "paved", "lit": "yes" }, "geometry": { "type": "MultiLineString", "coordinates": [ [ [ 139.737702500000012, 35.6942874 ], [ 139.7377778, 35.6943754 ], [ 139.7381039, 35.6947794 ] ] ] } },
{ "type": "Feature", "properties": { "way_id": 5958, "name": "外堀通り", "highway": "secondary", "cycleway_type": "on_road", "length_m": 67.387974074263454, "lts": 1, "surface": "paved", "lit": "yes" }, "geometry": { "type": "MultiLineString", "coordinates": [ [ [ 139.7381905, 35.6947503 ], [ 139.7379181, 35.6944139 ], [ 139.7378535, 35.6943329 ], [ 139.7377793, 35.6942446 ] ] ] } },
{ "type": "Feature", "properties": { "way_id": 5959, "name": "牛込中央通り", "highway": "tertiary", "cycleway_type": "on_road", "length_m": 458.14588067276992, "lts": 1, "surface": "asphalt", "lit": null }, "geometry": { "type": "MultiLineString", "coordinates": [ [ [ 139.7330575, 35.703951 ], [ 139.732974500000012, 35.7035762 ], [ 139.7329541, 35.7034856 ], [ 139.7328889, 35.7031633 ], [ 139.7327977, 35.70276 ], [ 139.7327531, 35.7025486 ], [ 139.732740799999988, 35.7024113 ], [ 139.7327324, 35.7023181 ], [ 139.7327276, 35.7022648 ], [ 139.732729, 35.7021873 ], [ 139.7327372, 35.7020102 ], [ 139.7327472, 35.7018928 ], [ 139.7327809, 35.7014746 ], [ 139.73280410000001, 35.7011878 ], [ 139.7328099, 35.7010952 ], [ 139.7328307, 35.7007643 ], [ 139.7328358, 35.7006921 ], [ 139.7328463, 35.7006276 ], [ 139.73286920000001, 35.7005595 ], [ 139.7331203, 35.699983 ], [ 139.7331556, 35.6998986 ] ] ] } },
{ "type": "Feature", "properties": { "way_id": 5960, "name": "大久保通り", "highway": "secondary", "cycleway_type": "on_road", "length_m": 92.551746622569638, "lts": 1, "surface": "paved", "lit": null }, "geometry": { "type": "MultiLineString", "coordinates": [ [ [ 139.73221860000001, 35.6995613 ], [ 139.7330566, 35.6998638 ], [ 139.7331556, 35.6998986 ] ] ] } },
{ "type": "Feature", "properties": { "way_id": 5970, "name": "飯田橋石神井新座線", "highway": "primary", "cycleway_type": "on_road", "length_m": 10.607128452788574, "lts": 2, "surface": "asphalt", "lit": "yes" }, "geometry": { "type": "MultiLineString", "coordinates": [ [ [ 139.7439676, 35.7051092 ], [ 139.7438778, 35.7050477 ] ] ] } },
{ "type": "Feature", "properties": { "way_id": 6000, "name": "外苑東通り", "highway": "primary", "cycleway_type": "on_road", "length_m": 23.257651272453394, "lts": 2, "surface": "paved", "lit": "yes" }, "geometry": { "type": "MultiLineString", "coordinates": [ [ [ 139.719375, 35.6806522 ], [ 139.719366799999989, 35.6805952 ], [ 139.7193556, 35.6804437 ] ] ] } },
{ "type": "Feature", "properties": { "way_id": 6011, "name": "新宿通り", "highway": "trunk", "cycleway_type": "on_road", "length_m": 171.3199692945465, "lts": 2, "surface": "paved", "lit": "yes" }, "geometry": { "type": "MultiLineString", "coordinates": [ [ [ 139.7278159, 35.6864678 ], [ 139.7286865, 35.686179 ], [ 139.729167600000011, 35.6860223 ], [ 139.7292534, 35.6859951 ], [ 139.729402, 35.6859599 ], [ 139.729586, 35.6859175 ] ] ] } },
{ "type": "Feature", "properties": { "way_id": 6012, "name": "新宿通り", "highway": "trunk", "cycleway_type": "on_road", "length_m": 22.707157579170897, "lts": 2, "surface": "paved", "lit": "yes" }, "geometry": { "type": "MultiLineString", "coordinates": [ [ [ 139.727583900000013, 35.6865465 ], [ 139.72773620000001, 35.6864946 ], [ 139.7278159, 35.6864678 ] ] ] } }
]
}
